Id_Biblio,Denominazione,CodComune,Comune,Localita,CAP,Indirizzo,Civico,DenominazEdificio,Tel,Email,SitoWeb,DescTipFunz,Latitudine,Longitudine
2,Biblioteca comunale Luciano Benincasa,042002,Ancona,,60121,Via Bernabei,32,Palazzo Mengoni Ferretti,071 2225020,benincasa@comune.ancona.it,http://www.comune.ancona.it,Pubblica,4830903,2399926
5,Biblioteca della Federazione provinciale del PDS - Istituto Gramsci,042002,Ancona,Ancona,60100, Via Cialdini,41,,0712073661,info@associazioneistitutogramsci.191.it,http://www.storiamarche900.it,Specializzata,4830581,2399671
7,Biblioteca dell'Istituto regionale per la storia del movimento di liberazione nelle Marche,042002,Ancona,,60122,Via Villafranca,1,Palazzo della Provincia,071202271,biblioteca@storiamarche900.it,http://www.storiamarche900.it,Specializzata,4830628,2400036
9,Biblioteca Comunale Angelo Rocca,042003,Arcevia,,60011,Corso Mazzini,64,Convento San Francesco,0731984561,biblioteca@arceviaweb.it,http://www.arceviaweb.it,Pubblica,4818601,2353517
15,"Biblioteca comunale ""T. Lippera""",042013,Cerreto d'Esi,,60043,Via Tribbio,15,Palazzo Refi già Palazzo Famiglia Agostini,0732678904,biblio.cerreto@cmesinofrasassi.it,,Pubblica,4798750,2356610
19,Biblioteca pubblica Romualdo Sassi,042017,Fabriano,,60044, Via Le Conce,76,,0732709205,biblioteca@comune.fabriano.an.it,http://www.bpf-fabriano.it,Pubblica,4800726,2349990
20,Biblioteca comunale,042018,Falconara Marittima,,61015,P.zza Mazzini,2,,0719177768,biblioteca@comune.falconara-marittima.an.it,http://www.comune.falconara-marittima.an.it/falconara/html/info/cultura/biblioteca/index.html,Pubblica,4832114,2390675
22,Biblioteca Comunale Emidio Bianchi,042019,Filottrano,Filottrano,60024,Vicolo Beltrani,6,,0717220800,biblio.filottrano@libero.it,http://www.comune.filottrano.an.it/,Pubblica,4810700,2386509
23,Biblioteca comunale Planettiana,042021,Jesi,,60035,Piazza Colocci,1,PALAZZO DELLA SIGNORIA,0731538345,planettiana@comune.jesi.an.it,http://www.bibliotecaplanettiana.it,Importante non specializzata,4820384,2378361
26,Biblioteca Comunale La Fornace,042023,Maiolati Spontini,Moie,60030,Via Fornace,23, centro culturale eFFeMMe 23,0731702206,info@bibliotecalafornace.it,http://www.bibliotecalafornace.it,Pubblica,4818778,2369382
27,Biblioteca Comunale,042024,Mergo,,60030,Piazza Leopardi,23,Comune,0731814820,biblio.mergo@cmesinofrasassi.it,http://www.comune.mergo.an.it,Pubblica,4815221,2361281
30,Biblioteca comunale,042026,Montecarotto,,60036,Piazza della Vittoria,2,,0731889024,bibliotecamontecarotto@virgilio.it,http://www.comune.montecarotto.an.it,Pubblica,4821304,2363589
32,Biblioteca Comunale di Numana,042032,Numana,,60026,Piazza del Santuario,24,,0719339847,biblioteca.numana@tiscali.it,http://www.comune.numana.an.it,Pubblica,,
33,Biblioteca comunale Francesco Cini,042034,Osimo,,60027,Via Campana,15,Palazzo Campana,071/7231773,biblioteca@comune.osimo.an.it,http://www.comune.osimo.an.it,Pubblica,4816144,2397505
36,Biblioteca comunale,042040,Rosora,Angeli,60030,Via G. Leopardi,s.n.c.,"Scuola statale secondaria di primo grado ""Don Mauro Costantini""",0731 812155,biblio.rosora@cmesinofrasassi.it,http://polo.biblioteche.provincia.an.it/opencms/export/PoloBiblioAn/sito-PoloBiblioAn/Luogo/Bibliote,Pubblica,4815218,2363542
38,Biblioteca Comunale Antonelliana,042045,Senigallia,,60019,Via Ottorino Manni,1,Foro Annonario,0716629302,biblioteca@comune.senigallia.an.it,http://www.bibliotecasenigallia.it,Pubblica,4842056,2376524
40,Biblioteca comunale,042047,Serra San Quirico,Serra San Quirico,60048,Piazza della Libertà c/o Palazzo Piccioni,8,Palazzo Piccioni,0731818209,biblio.serra@cmesinofrasassi.it,http://www.comune.serrasanquirico.an.it,Pubblica,4812617,2359397
41,Biblioteca comunale,042049,Staffolo,Staffolo,60039, Via del Maestro di Staffolo,32,ex ospedale,0731770418,biblio.staffolo@cmesinofrasassi.it,http://www.comune.staffolo.an.it,Pubblica,4810715,2373150
42,Biblioteca comunale Giulio Gabrielli,044007,Ascoli Piceno,,63100,Corso Mazzini,90,Polo Culturale Sant'Agostino,073624861,biblioteca.centrale@comune.ascolipiceno.it,,Pubblica,4745882,2403854
44,Biblioteca Comunale,044017,Cupra Marittima,,63064,Piazza Libertà,11,PALAZZO MUNICIPALE,0735776733,biblioteca@comune.cupra-marittima.ap.it,http://www.cupramarittima.org/municipio/biblioteca,Pubblica,4764410,2427005
51,Biblioteca comunale Aldo Gabrielli,044063,Ripatransone,,63065,Corso G. Garibaldi,4,BIBLIOTECA COMUNALE ALDO GABRIELLI,073597004,biblioripa@alice.it,http://www.comune.ripatransone.ap.it,Pubblica,,
52,Biblioteca comunale G. Lesca,044066,San Benedetto del Tronto,,63039,Via A. De Gasperi,124,Municipio del Comune di San Benedetto del Tronto,0735794701,biblioteca@comunesbt.it,http://comunesbt.it,Pubblica,4755327,2428928
54,Biblioteca Civica Romolo Spezioli,109006,Fermo,,63023, Piazza del Popolo,63,,0734284310,biblioteca.centrale@comune.fermo.it,,Pubblica,4779723,2415797
56,"Biblioteca comunale ""F.lli Ermenegildo e Francesco Catalini""",109008,Grottazzolina,,63844,Via Benedetti,1,Palazzo Benedetti,0734633393,digrot02@comugrattazx.191.it,http://www.comune.grottazzolina.ap.it,Pubblica,4774353,2406418
57,"Biblioteca comunale ""Mons. Germano Liberati""",109017,Montegiorgio,,63025,Piazza Matteotti,1,PALAZZO PASSARI,0734962609,biblioteca@comune.montegiorgio.ap.it,http://www.comune.montegiorgio.ap.it,Pubblica,,
58,Biblioteca comunale,109018,Montegranaro,,63812,Via Conventati,18,,0734890554,biblio.montegranaro@libero.it,http://www.comune.montegranaro.fm.it/bibliosip,Pubblica,4787768,2408858
64,Biblioteca comunale Antonio Santori,109037,Sant'Elpidio a Mare,,63811,Viale A. Moro,0,CENTRO POLIVALENTE - EX MERCATO COPERTO,0734858494,servizio.biblioteca@santelpidioamare.it,http://www.bibliosip.it,Pubblica,4787485,2413370
66,Biblioteca comunale Enrico Mestica,043002,Apiro,,62021,Corso Vittorio Emanuele,12,,0733611131,elettorale@apiro.sinp.net,http://www.comune.apiro.mc.it,Pubblica,4806297,2368609
68,Biblioteca comunale Valentiniana,043007,Camerino,Madonna delle carceri,62032,Madonna delle carceri,  2,Rotary Palace,0737632394,biblioteca.valentiniana@camerino.sinp.net,,Pubblica,,
72,Biblioteca comunale Silvio Zavatti,043013,Civitanova Marche,,62012,Via Buozzi,6,Casa del Balilla,0733813837,biblioteca@comune.civitanova.mc.it,http://www.bibliotecazavatti.com,Pubblica,4801288,2414626
73,Biblioteca comunale Mozzi-Borgetti,043023,Macerata,,62100,Piazza Vittorio Veneto,2,Collegio della Compagnia di Gesù (nome originario edificio),0733256360,biblioteca@comune.macerata.it,,Importante non specializzata,4795360,2394378
75,Biblioteca Comunale Libero Bigiaretti,043024,Matelica,,62024,Piazza E. Mattei,1,,0737781830,biblioteca@comune.matelica.mc.it,,Pubblica,4791399,2358420
81,"Biblioteca comunale di Porto Recanati ""A. Moroni""",043042,Porto Recanati,,62017,Piazza F.lli Brancondi,3,CASTELLO SVEVO,071759971,turismo@comune.porto-recanati.mc.it,,Pubblica,4810204,2411716
82,Biblioteca comunale C. Cennerelli Campana,043043,Potenza Picena,,62018,Via Trento,3,,0733671963,bibliomontesanto@libero.it,,Pubblica,,
83,Biblioteca comunale,043044,Recanati,,62019,Corso Persiani,52,PALAZZO PRETURA ED EX PALAZZO DEL POPOLO,0717587290,biblioteca@comune.recanati.mc.it,,Pubblica,4806957,2402398
86,Biblioteca comunale Scipione Gentili,043046,San Ginesio,,62026,Via Capocastello,35,Municipio ex Convento Minori Francescani,0733656022,comune@sanginesio.sinp.net,,Pubblica,4774211,2383062
87,Biblioteca comunale Francesco Antolisei,043047,San Severino Marche,,62027,Via C. Battisti,1,Palazzo dei Governatori,0733641313,annalisa.piersanti@comune.sanseverinomarche.mc.it,,Pubblica,4788030,2372177
90,Biblioteca comunale Filelfica,043053,Tolentino,,62029,Largo Fidi,11,,0733 968670,biblioteca@comune.tolentino.mc.it,http://wwww.tolentinonline.com/filelfica,Pubblica,4785688,2380512
91,Biblioteca Egidiana,043053,Tolentino,,62029,Piazza Silveri,3,,0733976318,info@bibliotecaegidiana.it,http://www.bibliotecaegidiana.it,Pubblica,4785568,2380779
102,Biblioteca comunale Afra Ciscato,041010,Cartoceto,Cartoceto,61030,Via della Mura,9,,0721893010,comune.cartoceto@provincia.ps.it,http://www.comune.cartoceto.pu.it,Pubblica,4848512,2349634
103,Biblioteca comunale di Colbordolo,041012,Colbordolo,Morciola,61022,Via Nazionale,138,ex scuola elementare,0721495261,biblio.colbordolo@provincia.ps.it,http://www.biblioteca.unionepiandelbruscolo.pu.it,Pubblica,4856182,2338791
104,Biblioteca comunale Federiciana,041013,Fano,,61032,Via Castracane,1,,0721887473,federiciana@comune.fano.pu.it,http://www.sistemabibliotecariofano.it,Pubblica,,
105,Biblioteca comunale Donato Bramante,041014,Fermignano,,61033,Viale Martiri della libertà,20,,0722332887,biblio.fermignano@provincia.ps.it,http://www.cm-urbania.ps.it,Pubblica,4838959,2330119
108,Biblioteca comunale popolare di Frontino,041017,Frontino,,61021,Via Giovanni XXIII,24/1,sede comunale di Frontino,072271131,comune.frontino@provincia.ps.it,http://www.comune.frontino.pu.it,Pubblica,4849248,2308858
110,Biblioteca comunale,041023,Macerata Feltria,,61023,Via Antimi,14,BIBLIOTECA ANGELA LAZZARINI,072274244,infogiovani@comune.maceratafeltria.pu.it,,Pubblica,4853348,2314342
115,Biblioteca Comunale di Montecalvo in Foglia,041030,Montecalvo in Foglia,Borgo Massano,61020,Via Liberazione,11,CENTRO SOCIALE,0722580452,biblio.montecalvo@provincia.ps.it,http://www.cm-urbania.ps.it,Pubblica,4854362,2332106
116,Biblioteca,041033,Montecopiolo,Villagrande,61014,Piazza San Michele Arcangelo,7,MUNICIPIO COMUNE DI MONTECOPIOLO,072278225,biblio.villagrande@provincia.ps.it,,Pubblica,4857803,2307719
122,Biblioteca comunale San Giovanni,041044,Pesaro,PESARO,61121,Via Passeri,102,convento San Giovanni,0721387770,biblioteca@comune.pesaro.pu.it,http://www.biblioteca.comune.pesaro.pu.it,Pubblica,4864124,2351889
124,Biblioteca diocesana di Pesaro,041044,Pesaro,,61121,Via Rossini,58,Palazzo vescovile,072130043,archivio@arcidiocesipesaro.it,http://www.arcidiocesipesaro.it,Importante non specializzata,4864313,2352543
125,Biblioteca Oliveriana,041044,Pesaro,,61121,Via Mazza,97,,072133344,biblio.oliveriana@provincia.ps.it,http://www.oliveriana.pu.it,Pubblica,4864176,2352153
127,Biblioteca comunale Ubaldiana,041047,Piandimeleto,,61026, Via Dante Alighieri,15,Biblioteca Ubaldiana,0722721808,infopiandimeleto@alice.it,http://www.comune.piandimeleto.pu.it,Pubblica,4844754,2311572
128,Biblioteca comunale A. Vagnarelli,041049,Piobbico,,61046,Viale dei Caduti,2,,0722986225,biblio.piobbico@provincia.ps.it,,Pubblica,4829345,2318958
132,Biblioteca Ferruccio Parri,041056,Sant'Angelo in Lizzola,Montecchio,61020,Piazza dei Quartieri,1,Biblioteca Ferruccio Parri,0721498961,biblio.montecchio@provincia.ps.it,http://www.biblioteca.unionepiandelbruscolo.pu.it,Pubblica,4858536,2340420
133,Biblioteca comunale Vincenzo Lanciarini,041057,Sant'Angelo in Vado,,61048,Piazza Umberto I,13,COMPLESSO MONUMENTALE SANTA CATERINA D'ALESSANDRIA,0722810093,biblio.sangelov@provincia.ps.it,http://www.cm-urbania.ps.it,Pubblica,4838065,2311396
134,Biblioteca comunale,041058,Sant'Ippolito,SANT'IPPOLITO,61040,Via  Leopardi,1,,0721728144,biblio.santippolito@provincia.ps.it,,Pubblica,4839270,2348406
135,Biblioteca comunale e centro culturale Laura Battiferri,041059,Sassocorvaro,,61028,Via Crescentini,7,,0722769051,a.ugolini@comune.sassocorvaro.pu.it,http://www.comune.sassocorvaro.pu.it,Pubblica,4850825,2318435
136,Biblioteca Eremo di Fonte Avellana,041061,Serra Sant'Abbondio,,61040,Via Fonte Avellana,9,,0721730261,biblioteca@fonteavellana.it,,Specializzata,4815842,2336123
502,biblioteca di prova,043023,Macerata,vicinanze del centro storico,62100,via roma,33,ex sede comunale,072124323,bibliteca@mergo.it,http://www.biblioteca.mercgo.it,Pubblica,4795501,2393422
503,Biblioteca di prova 2,042002,Ancona,Torrette,60020,via tenna,6,,07123232323,email@biblio.it,http://www.biblio.it,Pubblica,,
504,BIBLIOTECA COMUNALE DI CARPEGNA,041009,Carpegna,,61021,Piazza Conti,18,Sede Comune di Carpegna,072277153,biblio.carpegna@provincia.ps.it,,Pubblica,4851216,2305628
505,BIBLIOTECA COMUNALE,041022,Lunano,LUNANO,61026,Via Provinciale,6/1,BIBLIOTECA COMUNALE E CENTRO DI AGGREGAZIONE FILIBERTO CORSUCCI,072270507,centrolettura@tiscali.it,http://www.comune.lunano.ps.it,Pubblica,4847063,2314499
507,Biblioteca comunale di Corridonia,043015,Corridonia,,62014,Piazza del Popolo,13,Palazzo Persichetti-Ugolini,0733439912,biblioteca@comune.corridonia.mc.it,,Pubblica,4789704,2399034
508,Piccola Biblioteca della Shoah,042017,Fabriano,,60044,Via Dante,268,COMUNITA' MONTANA DELL'ESINO FRASASSI,0732695259,sbl@cmesinofrasassi.it,,Specializzata,4801905,2351978
509,Archivio Biblioteca Enrico Travaglini,041013,Fano,,61032,via Garibaldi,47,,0721830512,archiviotravaglini@libero.it,http://www.bibliotecaliberopensiero.it,Specializzata,4856569,2360865
511,Biblioteca comunale del Comune di Cossignano,044016,Cossignano,Cossignano,63030,Piazza G.B. Santucci,1,,0735798130,anagrafe.cossignano@libero.it,http://www.comune.cossignano.ap.it,Pubblica,,
512,Biblioteca comunale di Mercatello sul Metauro,041025,Mercatello sul Metauro,,61040,Piazza Garibaldi - Palazzo Gasparini,11,PALAZZO GASPARINI,0722800062,biblio.mercatello@provincia.ps.it,http://www.cm-urbania.ps.it,Pubblica,4836335,2305193
513,Biblioteca comunale di Petriano,041045,Petriano,Gallo,61020,Via Riceci - Compl.so scolastico Gallo di Petriano,S/N,"SCUOLA SECONDARIA DI I GRADO (ISTITUTO COMPRENSIVO ""G. PASCOLI"" DI URBINO)",072252398,biblioteca@comune.petriano.pu.it,http://www.cm-urbania.ps.it,Pubblica,4851473,2335707
514,Biblioteca della Fondazione Carlo e Marise Bo per la letteratura europea moderna e contemporanea,041067,Urbino,,61029,Via Valerio,9,Palazzo Passionei-Paciotti,0722305681,biblioteca@fondazionebo.it,http://www.fondazionebo.it/biblioteca.htm,Specializzata,4844227,2329720
516,Biblioteca Comunale di Montelabbate,041036,Montelabbate,Capoluogo,61025,Via G. Marconi,32,ex mattatoio comunale,0721472472,biblio.montelabbate@provincia.ps.it,http://www.biblioteca.unionepiandelbruscolo.pu.it,Pubblica,4857582,2342231
517,Bblioteca comunale di Tavullia,041065,Tavullia,Capoluogo,61010,Via Borgo San Michele,sn,Scuola media Giovanni Pascoli,0721476557,biblio.tavullia@provincia.ps.it,http://www.biblioteca.unionepiandelbruscolo.pu.it,Pubblica,4863165,2339991
531,Mediateca Montanari - Memo,041013,Fano,,61032,Piazza Pier Maria Amiani,s.n.c.,,0721887342,memo@comune.fano.pu.it,http://www.sistemabibliotecariofano.it,Pubblica,,
532,"Biblioteca comunale ""Mario Rivosecchi""",044023,Grottammare,GROTTAMMARE,63066,Via Matteotti,41,MARIO RIVOSECCHI,0735735537,biblioteca@comune.grottammare.ap.it,http://www.comune.grottammare.ap.it,Pubblica,4760484,2427715
537,Biblioteca comunale,042038,Polverigi,,60020,Via Matteotti,24,,071908920,comune.polverigi@provincia.ancona.it,,Pubblica,4820590,2390051
542,Biblioteca Comunale di Monteciccardo,041032,Monteciccardo,Sant'Angelo in Lizzola,61020,Via Boccalaro,sn,Palazzo Mamiani,07214897220,biblio.monteciccardo@provincia.ps.it,http://www.biblioteca.unionepiandelbruscolo.pu.it,Pubblica,4855030,2343317
544,Biblioteca dell'Accademia delle Belle Arti,041067,Urbino,,61029,Via Dei Maceri,2,EX CONVENTO DEI PP. CARMELITANI SCALZI,0722320287,biblioteca@accademiadiurbino.it,,Istituto di insegnamento superiore,4844533,2329437
547,Biblioteca del Centro Documentazione delle Donne,041013,Fano,,61032,Via Vitruvio,7,,0721887378,margia@comune.fano.ps.it,,Specializzata,4856795,2360555
548,Biblioteca comunale,041048,Pietrarubbia,Mercato Vecchio,61023,Via Montefeltresca,54,,072275110,anagrafe@comune.pietrarubbia.pu.it,http://www.comune.pietrarubbia.pu.it,Pubblica,,
550,Biblioteca del Conservatorio G.B. Pergolesi,109006,Fermo,,63023,Via dell'Università,16,,0734225495,biblioteca@conservatorio.net,http://www.conservatorio.net,Istituto di insegnamento superiore,4779753,2415673
551,Biblioteca comunale,042020,Genga,Genga,60040,Largo Leone XII,1,PALAZZO FIUMI SERMATTEI,0732 973014,biblio.genga@cmesinofrasassi.it,,Pubblica,4810822,2352844
552,Biblioteca d'Arte dei Musei Civici,041044,Pesaro,,61121,Piazza Toschi Mosca,29,Palazzo Toschi Mosca,0721387525,musei.biblioteca@comune.pesaro.ps.it,http://www.museicivicipesaro.it,Specializzata,4864302,2352442
554,"Biblioteca comunale ""G. Del Monte""",041027,Mombaroccio,,61024,Piazza Barocci,6,EX CONVENTO DEI GIROLOMINI,0721471103,biblioteca@comune.mombaroccio.pu.it,http://www.mombaroccio.eu,Pubblica,4851736,2347445
556,Biblioteca della Fondazione Gioacchino Rossini,041044,Pesaro,,61121,Via Passeri,72,,072133818,biblioteca@fondazione.rossini.org,http://www.fondazionerossini.com,Specializzata,4864045,2352014
557,"Biblioteca Istituto Tecnico ""G. Genga""",041044,Pesaro,,61100,Via Nanterre,s.n.c.,ISTITUTO TECNICO PER GEOMETRI G. GENGA,0721455490,genga@itggenga.it,http://www.itggenga.it,Istituto di insegnamento superiore,43,-15
