Civico;Longitudine;Immagine;Latitudine;Orario di Apertura;Tipologia Punto di interesse;Telefono;Sito Web;Comune;Denominazione;gid;Didascalia;Indirizzo;Email
;12.9106;http://www.visit.marche.it/Portals/1/Immagini/Chiese/Pesaro_maternita.jpg;43.9083;;Chiese;0721.31569;;Pesaro;Chiesa della Maternità della Madonna;0;Chiesa della Maternità della Madonna;Via della Maternità;
s.n.c;12.9157;http://www.visit.marche.it/Portals/1/Immagini/Chiese/Pesaro_MadonnaGrazie.jpg;43.9121;;Chiese;0721.30043;www.arcidiocesipesaro.it;Pesaro;Santuario della Beata Vergine delle Grazie;1;Santuario della Beata Vergine delle Grazie;Via S. Francesco;info@arcidiocesipesaro.it
;13.4562;http://www.visit.marche.it/Portals/1/Immagini/Chiese/Macerata_Misericordia.jpg;43.3011;;Chiese;;;Macerata;Basilica della Madonna della Misericordia;2;Facciata della Basilica di Santa Maria della Misericordia;Piazza S. Vincenzo Strambi;
;13.4521;http://www.visit.marche.it/Portals/1/Immagini/Chiese/Macerata_FilippoNeri_ext.jpg;43.2995;;Chiese;;;Macerata;Chiesa di S. Filippo;3;Facciata della Chiesa di S. Filippo Neri;Corso della Repubblica Italiana;
s.n.c;13.4567;http://www.visit.marche.it/Portals/1/Immagini/Chiese/Macerata_Giuliano.jpg;43.3009;;Chiese;;;Macerata;Chiesa di S. Giuliano;4;Interno della Cattedrale di San Giuliano;Piazza S. Vincenzo Strambi;
;13.4509;http://www.visit.marche.it/Portals/1/Immagini/Chiese/Macerata_Giovanni_ext.jpg;43.2989;;Chiese;;;Macerata;Chiesa di S. Giovanni;5;Panorama della città di Macerata e Cupola della Chiesa di S. Giovanni;Piazza Vittorio Veneto;
;13471;http://www.visit.marche.it/Portals/1/Immagini/Chiese/Macerata_Vergini.jpg;43.2931;;Chiese;;;Macerata;Chiesa di S. Maria delle Vergini;6;Facciata della Chiesa di S. Maria delle Vergini;Via Lattanzio Ventura;
;13.4538;http://www.visit.marche.it/Portals/1/Immagini/Chiese/Macerata_MariaPorta.jpg;43.2994;;Chiese;;;Macerata;Chiesa di S. Maria della Porta;7;Chiesa di S. Maria della Porta;Via S. Maria della Porta;
;13.4544;http://www.visit.marche.it/Portals/1/Immagini/Chiese/Macerata_Paoloalto.jpg;43.3005;;Chiese;0733.256361;;Macerata;Chiesa di S. Paolo;8;Veduta dall'alto della Chiesa di S. Paolo;Piazza della Libertà;cultura@comune.macerata.it
;12.8905;http://www.visit.marche.it/Portals/1/Immagini/Chiese/Fabriano_Civita.jpg;43.3326;;Chiese;;;Fabriano;Chiesa di S. Maria di Civita;9;Chiesa di S. Maria di Civita;;
;13.6022;http://www.visit.marche.it/Portals/1/Immagini/Chiese/031T.jpg;43561;"Dal primo giugno aperta tutti i giorni con questi orari: 16.30/19.30; la domenica 09.30/12.30. A partire dalle 09.30, dalla prima domenica di luglio all?ultima di agosto, si svolge la tradizionale cerimonia religiosa";Chiese;;;Ancona;Ancona - Chiesa di Santa Maria di Portonovo;10;Veduta della Chiesa di Santa Maria di Portonovo;Strada Comunale di Portonovo;
;13.4504;http://www.visit.marche.it/Portals/1/Immagini/Chiese/Macerata_Giorgio.jpg;43301;;Chiese;;;Macerata;Chiesa di S. Giorgio;11;Interno della Chiesa di S. Giorgio;Piazza XXX Aprile;
;13.5105;http://www.visit.marche.it/Portals/1/Immagini/Chiese/Ancona_07.jpg;43.6256;Orario invernale:<br/>dal lunedì alla domenica dalle ore 8.00 alle ore 12.00 e dalle ore 15.00 alle ore 18.00.<br/>Orario estivo:<br/>dal lunedì alla domenica dalle ore 8.00 alle ore 12.00 e dalle ore 15.00 alle ore 19.00;Chiese;071.52688;http://www.diocesi.ancona.it;Ancona;Ancona - Cattedrale di San Ciriaco;12;Particolare della Cattedrale di San Ciriaco;Piazzale del Duomo;museo.ancona@diocesi.ancona.it
;13.5105;http://www.visit.marche.it/Portals/1/Immagini/Chiese/018T.jpg;43.6206;;Chiese;071.200391 - 071.52688 per visite guidate;http://www.diocesi.ancona.it;Ancona;Ancona - Chiesa di Santa Maria della Piazza;13;Chiesa di Santa Maria della Piazza;Via della Loggia;museo.ancona@diocesi.ancona.it
;13.5105;http://www.visit.marche.it/Portals/1/Immagini/Chiese/Ancona_PellegrinoTeresa.jpg;43.6236;;Chiese;;;Ancona;Chiesa dei Ss. Pellegrino e Teresa (o degli Scalzi);14;Interni della Chiesa dei Ss. Pellegrino e Teresa (o degli Scalzi);Piazza del Senato;
;13.5123;http://www.visit.marche.it/Portals/1/Immagini/Chiese/Ancona_Francesco_portale.JPG;43.6216;;Chiese;;;Ancona;Chiesa di S. Francesco alle Scale;15;Particolare della facciata principale della Chiesa di S. Francesco alle Scale;Via Pizzecolli;
;13.5126;http://www.visit.marche.it/Portals/1/Immagini/Chiese/Ancona_Domenico.JPG;43.6194;;Chiese;;;Ancona;Chiesa di S. Domenico;16;Prospetto principale della Chiesa di S. Domenico;Piazza del Plebiscito;
;12953;http://www.visit.marche.it/Portals/1/Immagini/Chiese/Genga_tempietto1.jpg;43.4031;;Chiese;;;Genga;Tempietto ottagonale nelle grotte;17;Tempietto all'ingresso della Frotta di Frasassi;;
;13.2442;http://www.visit.marche.it/Portals/1/Immagini/Chiese/Jesi_Adorazione.jpg;43.5224;;Chiese;;;Jesi;Chiesa dell'Adorazione;18;Facciata della Chiesa dell'Adorazione;Piazza della Repubblica;
;13.2452;http://www.visit.marche.it/Portals/1/Immagini/Chiese/Jesi_Floriano.jpg;43.5249;;Chiese;;;Jesi;Chiesa di S. Floriano;19;Facciata della Chiesa di S. Floriano;Piazza Federico II;
;13246;http://www.visit.marche.it/Portals/1/Immagini/Chiese/Jesi_Apostolo.jpg;43.5228;;Chiese;;;Jesi;Chiesa parrocchiale di S. Pietro Apostolo;20;Facciata settecentesca della Chiesa di S. Pietro Apostolo;Piazza Franciolini;
6;13.2462;http://www.visit.marche.it/Portals/1/Immagini/Chiese/Jesi_Settimio.jpg;43.5246;;Chiese;;;Jesi;Chiesa di S. Settimio;21;Facciata della Chiesa di S. Settimio;Piazza Federico II;
15;13.2425;http://www.visit.marche.it/Portals/1/Immagini/Chiese/Jesi_Battista_.jpg;43.5222;;Chiese;;;Jesi;Chiesa di S. Giovanni Battista;22;Facciata della Chiesa di S. Giovanni Battista;Corso Matteotti;
8;13244;http://www.visit.marche.it/Portals/1/Immagini/Chiese/Jesi_Marco.jpg;43.5263;;Chiese;;;Jesi;Chiesa di S. Marco;23;Facciata della Chiesa di S. Marco;Via S. Marco;
;13.0623;http://www.visit.marche.it/Portals/1/Immagini/Chiese/Montecarotto_Chiesa_Collegiata_della_Santissima_Annunziata_di_Montecarotto.jpg;43.5263;;Chiese;;;Montecarotto;Chiesa della SS. Annunziata;24;Facciata della Chiesa della SS. Annunziata;Via Castello;
;13.0147;http://www.visit.marche.it/Portals/1/Immagini/Chiese/SerraSanQuirico_SantaLucia_PasqualinoRossi.jpg;43.4478;Apertura solo nei giorni festivi 10.30-12.30 e 15.30-18.30.;Chiese;0731.86096;www.serrasanquirico.com;Serra San Quirico;Chiesa di S. Lucia;25;Tribuna della Chiesa di Santa Lucia;Via S. Lucia;comune.serrasanquirico@provincia.ancona.it
;13.1864;http://www.visit.marche.it/Portals/1/Immagini/Chiese/Staffolo_Francesco.jpg;43.4335;;Chiese;;;Staffolo;Chiesa di S. Francesco ex conventuale;26;Particolare del portale d'ingresso della Chiesa di San Francesco;;
;13.6966;http://www.visit.marche.it/Portals/1/Immagini/Chiese/Civitanova_Apparente.jpg;43.2883;contattare il parroco;Chiese;0733.898113;www.chiesainrete.it;Civitanova Marche;Chiesa di S. Maria Apparente;27;Facciata della Chiesa di S. Maria Apparente;Via del Torrione,S. C. del Molino;
;13.6798;http://www.visit.marche.it/Portals/1/Immagini/Chiese/Civitanova_Agostino.jpg;43.3164;;Chiese;;;Civitanova Marche;Chiesa di S. Agostino;28;Auditorium di S. Agostino;Via S. Agostino;
;13.6808;http://www.visit.marche.it/Portals/1/Immagini/Chiese/Civitanovamarche_PaoloApostolo.jpg;43.3159;orario per il culto;Chiese;0733.890106;www.chiesainrete.it;Civitanova Marche;Chiesa di S. Paolo Apostolo;29;Facciata della Chiesa di San Paolo Apostolo;Piazza della Libertà;
;13.6399;http://www.visit.marche.it/Portals/1/Immagini/MonasteriConventi/Montecosaro_NSM_SantaMariaPieDiChienti.jpg;43.2804;;Chiese;0733.865241 Don Lauro Marinelli;www.santamariapiedichienti.it;Montecosaro;Chiesa dell'Annunziata a piè di Chienti;30;Chiesa dell'Annunziata a piè di Chienti;Via Abadia;parrocchia@santamariapiedichienti.it
;13.6203;http://www.visit.marche.it/Portals/1/Immagini/Chiese/PotenzaPicena_Francesco.jpg;43.3672;;Chiese;;;Potenza Picena;Chiesa di S. Francesco;31;Facciata della Chiesa di San Francesco;Largo Giacomo Leopardi;
;13629;http://www.visit.marche.it/Portals/1/Immagini/Chiese/PotenzaPicena_Cappuccini.jpg;43.3694;;Chiese;;;Potenza Picena;Chiesa di S. Lorenzo Martire (detta anche dei Cappuccini);32;Prospetto del complesso monastico di S. Lorenzo (o Cappuccini);Via dei Cappuccini;
1;13.8113;http://www.visit.marche.it/Portals/1/Immagini/Chiese/TorreDiPalme_SantAgostino.jpg;43.1417;Sabato e domenica 17.00-20.00.;Chiese;0734.228738;www.torredipalme.com;Fermo (FM);Fermo - Chiesa di S. Agostino;33;Particolare del Polittico di Vittore Crivelli;Via Crivelli, Torre di Palme;simo@torredipalme.com
;12.9448;http://www.visit.marche.it/Portals/1/Immagini/Chiese/Esanatoglia_Gatta_2013_8002449.jpg;43.2509;;Chiese;;;Esanatoglia;Pieve di S. Anatolia;34;Facciata della Chiesa dei Ss. Anatolia e Martino;Corso Vittorio Emanuele;
;13.1157;http://www.visit.marche.it/Portals/1/Immagini/Chiese/Visso_84copia.jpg;42.9763;Dal 1 omaggio al 2 ottobre lunedì e mercoledì 15.00-19.00. Giovedì e venerdì 10.00-12.00 e 16.00-18.00. Sabato e domenica 10.00-13.00 e 15.30-18.30. Dal 3 ottobre al 1 novembre sabato e domenica 10.00-13.00 e 15.00-18.00.;Chiese;0737.518045;www.santuariomacereto.it;Visso;Visso - Chiesa di S. Maria di Macereto;35;Veduta del Santuario di Macereto;S. P. di Macereto;macereto@libero.it
;13.0874;http://www.visit.marche.it/Portals/1/Immagini/Chiese/Visso_SMaria.jpg;42.9311;;Chiese;;;Visso;Chiesa di S. Maria della Pieve;36;Chiesa di S. Maria della Pieve sulla Piazza Martiri Vissani e sullo sfondo la Chiesa di S. Agostino;Piazza Martiri Vissani;
;13716;http://www.visit.marche.it/Portals/1/Immagini/Chiese/Fermo_Carmine.jpg;43.1619;;Chiese;;;Fermo (FM);Chiesa di S. Maria del Carmine;37;Interno della Chiesa di S. Maria del Carmine;Corso Cefalonia;
1;13.71;http://www.visit.marche.it/Portals/1/Immagini/Chiese/Fermo_SantAgostino_OratorioSantaMonica.jpg;43.1613;Giugno sabato e domenica 17.00-20.00. Luglio e agosto giovedì, venerdì, sabato e domenica 17.00-20.00. Giovedì anche 21.00-23.00.;Chiese;0734.228738;www.fermo.net;Fermo (FM);Fermo - Chiesa di S. Agostino,Oratorio di S. Monica;38;Affreschi dell'Oratorio di Santa Monica nella Chiesa di Sant'Agostino;Via Girolamo Montani;comune.fermo@emarche.it
;13.7106;http://www.visit.marche.it/Portals/1/Immagini/Chiese/Fermo_Zenone_2.JPG;43161;;Chiese;;;Fermo (FM);Chiesa di S. Zenone;39;Prospetto principale della Chiesa di S. Zenone;Largo Fogliani;
;13721;http://www.visit.marche.it/Portals/1/Immagini/Chiese/Fermo_Francesco_facciata.jpg;43.1637;;Chiese;;;Fermo (FM);Chiesa di S. Francesco;40;Prospetto principale della Chiesa di San Francesco;Largo Carlo Mora;
;13.7174;http://www.visit.marche.it/Portals/1/Immagini/Chiese/Fermo_Assunta.jpg;43161;;Chiese;;;Fermo (FM);Chiesa della SS. Assunta;41;Facciata del Duomo della SS. Assunta;Piazza del Girfalco;
;13.7136;http://www.visit.marche.it/Portals/1/Immagini/Chiese/Fermo_FilippoNeri.jpg;43.1621;;Chiese;;;Fermo (FM);Chiesa di S. Filippo;42;Facciata della Chiesa di San Filippo Neri;Corso Cavour;
;13.7198;http://www.visit.marche.it/Portals/1/Immagini/Chiese/Fermo_Domenico.jpg;43.1608;;Chiese;;;Fermo (FM);Chiesa di S. Domenico;43;Facciata della Chiesa di San Domenico;Largo Maranesi;
;13.7921;http://www.visit.marche.it/Portals/1/Immagini/Chiese/PortoSanGiorgio_Giorgio.jpg;43.1804;;Chiese;;;Porto San Giorgio (FM);Chiesa di S. Giorgio;44;Facciata della Chiesa di San Giorgio con la fontana antistante;Piazza S. Giorgio;
;13.5113;http://www.visit.marche.it/Portals/1/Immagini/Chiese/Ancona_Gesu.jpg;43.6226;;Chiese;;;Ancona;Chiesa del Gesù;45;Prospetto principale della Chiesa del Gesù;Piazza Benvenuto Stracca;
;13.5083;http://www.visit.marche.it/Portals/1/Immagini/Chiese/Ancona_Battistaext.jpg;43.6153;;Chiese;;;Ancona;Chiesa di S. Giovanni Battista;46;Facciata principale della Chiesa di S. Giovanni Battista;Via Astagno;
;12.9408;http://www.visit.marche.it/Portals/1/Immagini/Chiese/Arcevia_collegiata_SanMedardo.jpg;43.5008;Aperta tutti i giorni dalle 9.00 alle 12.00 e dalle 15.30 alle 19.00;Chiese;0731.9444;www.diocesisenigallia.it/parrocchia_di_san_medardo;Arcevia;Arcevia - Collegiata di S. Medardo;47;Particolare del dossale d'altare di Giovanni della Robbia;Via Ramazzani 136;donsergiozandri@alice.it
64;12.9407;http://www.visit.marche.it/Portals/1/Immagini/Chiese/Arcevia_francesco.jpg;43.5003;;Chiese;;;Arcevia;Chiesa di S. Francesco in Piazza;48;Chiesa di S. Francesco in Piazza;Corso Mazzini;
;12.9388;http://www.visit.marche.it/Portals/1/Immagini/Chiese/Arcevia_Agata.jpg;43.4993;;Chiese;;;Arcevia;Chiesa di S. Agata;49;Chiesa di S. Agata;Corso Mazzini;
;12.9395;http://www.visit.marche.it/Portals/1/Immagini/Chiese/Arcevia_Santa_Maria_del_Soccorso.jpg;43.5009;;Chiese;;;Arcevia;Chiesa di S. Maria del Soccorso;50;Interno della Chiesa di S. Maria del Soccorso;Largo Francesco Cesari;
;12.9415;http://www.visit.marche.it/Portals/1/Immagini/Chiese/Arcevia_FrancescoPaola.jpg;43.4989;;Chiese;;;Arcevia;Chiesa di S. Francesco di Paola;51;Veduta dall'alto della Chiesa di S. Francesco di Paola;;
10;12.9385;http://www.visit.marche.it/Portals/1/Immagini/Chiese/Arcevia_Giovanni.jpg;43499;;Chiese;;;Arcevia;Ex Chiesa di S. Giovanni con portale gotico;52;Ex Chiesa di S. Giovanni con portale gotico;Corso Mazzini;
5;12.9047;http://www.visit.marche.it/Portals/1/Immagini/Chiese/AN_06_Fabriano_Cattedrale.jpg;43.3351;Tutti i giorni 9.00-12.30 e 14.30-18.30. Domenica 9.00-12.30 e 16.00 alle 17.30;Chiese;0732.21863;www.fabrianoturismo.it;Fabriano;Fabriano - Chiesa di S. Venanzio Vescovo;53;Orazione di Cristo nell'orto;Via Cesare Balbo;iat.fabriano@provincia.ancona.it
;12.9066;http://www.visit.marche.it/Portals/1/Immagini/Chiese/Fabriano_Agostino.jpg;43.3401;;Chiese;;;Fabriano;Chiesa di S. Agostino;54;Portale della Chiesa di S. Agostino;Via Ramelli;
;12.9028;http://www.visit.marche.it/Portals/1/Immagini/Chiese/Fabriano_Chiesa_di_S_Domenico.jpg;43.3337;;Chiese;;;Fabriano;Chiesa di S. Lucia e S. Domenico;55;Chiesa di S. Lucia e S. Domenico;Largo Spacca;
;12.9025;http://www.visit.marche.it/Portals/1/Immagini/Chiese/Fabriano_san-benedetto-.jpg;43.3356;;Chiese;;;Fabriano;Chiesa di S. Benedetto e S. Silvestro;56;Interno della Chiesa di S. Benedetto e S. Silvestro;Piazza Altini;
;12.9012;http://www.visit.marche.it/Portals/1/Immagini/Chiese/AN_05_Fabriano_SanNiccolo.jpg;43.3378;Lunedì, mercoledì e venerdì 17.30-19.00. Domenica 9.30-12.00.;Chiese;0732.21269;www.fabrianoturismo.it;Fabriano;Fabriano - Chiesa di S. Nicolo';57;San Michele Arcangelo;Piazza Cairoli;iat.fabriano@provincia.ancona.it
;12.9054;http://www.visit.marche.it/Portals/1/Immagini/Chiese/Fabriano_Filippo.jpg;43.3353;;Chiese;;;Fabriano;Chiesa di S. Filippo;58;Facciata della Chiesa di S. Filippo;Corso della Repubblica;
;12.9055;http://www.visit.marche.it/Portals/1/Immagini/Chiese/Fabriano_Onofrio.jpg;43.3378;;Chiese;;;Fabriano;Chiesa di S. Onofrio;59;Particolare del portale della Chiesa di S. Onofrio;Via Gentile;
;13.4402;http://www.visit.marche.it/Portals/1/Immagini/Chiese/MonteSanMartino_ChiesaSanMartino.jpg;43033;;Chiese;0733.660514;www.sistemamuseale-mc.it;Monte San Martino;Chiesa di S. Martino Vescovo;60;Particolare del Polittico di Carlo e Vittore Crivelli;Piazza Vittorio Emanuele II;info@sistemamuseale-mc.it
;13.1389;http://www.visit.marche.it/Portals/1/Immagini/Chiese/Pievebovigliana_Gatta_2013_8002262.jpg;43.0944;;Chiese;;;Pievebovigliana;Chiesa di S. Giusto in S. Maroto;61;Chiesa di San Giusto e il territorio circostante;Via S. Maroto;
;13.3195;http://www.visit.marche.it/Portals/1/Immagini/Chiese/SanGinesio_Annunziata.jpg;43.1086;;Chiese;;;San Ginesio;Chiesa della SS. Annunziata;62;Facciata della Chiesa della SS. Annunziata;Piazza Alberigo Gentili;
;13.3015;http://www.visit.marche.it/Portals/1/Immagini/Chiese/Sarnano_SantaMariaDiPiazza.jpg;43.0362;;Chiese;0733.658080;www.sarnano.com;Sarnano;Sarnano - Chiesa di S. Maria Assunta;63;Particolare della cappella affrescata da Lorenzo d'Alessandro;Piazza Alta;info@sarnano.com
;13.8566;http://www.visit.marche.it/Portals/1/Immagini/Chiese/CupraMarittima_Chiesa_di_Santa_Maria_in_Castello.jpg;43.0218;;Chiese;;;Cupra Marittima;Chiesa di S. Filippo Neri (detta anche Chiesa di Santa Maria in Castello);64;Scorcio della chiesa da Porta Santa Maria;Via Castello;
;13.8663;http://www.visit.marche.it/Portals/1/Immagini/Chiese/Grottammare_Lucia.jpg;42.9965;;Chiese;;;Grottammare;Chiesa di S. Lucia;65;Interno della Chiesa di S. Lucia;Via Camilla Peretti;
;13.8645;http://www.visit.marche.it/Portals/1/Immagini/Chiese/Grottammare_Martino.jpg;42.9831;;Chiese;;;Grottammare;Chiesa di S. Martino al Tesino;66;Particolare dell'interno della Chiesa di S. Martino al Tesino;Via S. Martino;
;13.6854;http://www.visit.marche.it/Portals/1/Immagini/MonasteriConventi/Offida_Rocca2.JPG;42.9331;;Chiese;334.1547890;http://80.19.92.5/cds/MO_mona/iti/visitare/7343.html;Offida;Chiesa di S. Maria della Rocca;67;Chiesa di S. Maria della Rocca;Via Roma;info.oikos@libero.it
107;13.7637;http://www.visit.marche.it/Portals/1/Immagini/Chiese/Ripatransone_Filippo3.jpg;43.0007;"Domenica e festivi 10.30-12.00. Feriali: orario invernale 16.00-18.30; estivo 17.30-19.00.";Chiese;0735.99329;www.comune.ripatransone.ap.it;Ripatransone;Chiesa di S. Filippo Neri;68;Facciata della Chiesa di S. Filippo Neri;Via Emidio Consorti;comune@comune.ripatransone.ap.it
;13.8755;http://www.visit.marche.it/Portals/1/Immagini/Chiese/SanBenedetto_Benedettomartire.jpg;42.9507;;Chiese;;;San Benedetto del Tronto;Chiesa di S. Benedetto martire;69;Facciata della Chiesa di S. Benedetto martire;Via Muro;
;13.6862;http://www.visit.marche.it/Portals/1/Immagini/Chiese/48477.jpg;43.2296;Aperta tutti i giorni 9.00-12.00 e 16.00 18.30.;Chiese;0734.908263;www.santelpidioamare.it;Sant'Elpidio a Mare (FM);Chiesa di S. Maria Santissima della Misericordia;70;Miracolo di Santa Marta di Andrea Lilli;Piazza Giacomo Matteotti;info@santelpidioamare.it
34;12.6368;http://www.visit.marche.it/Portals/1/Immagini/Chiese/Urbino_Caterina.jpg;43.7229;;Chiese;;;Urbino;Chiesa di S. Caterina;71;Chiesa di S. Caterina;Via Saffi;
;12.6361;http://www.visit.marche.it/Portals/1/Immagini/Chiese/Urbino_Cattedrale.jpg;43725;Giorni feriali e festivi: 7.30-13.00 e 14.00-20.00;Chiese;;;Urbino;Cattedrale di S. Maria Assunta e S.Crescentino;72;Cattedrale di S. Maria Assunta e S.Crescentino;Piazza Duca Federico;
;12.6487;http://www.visit.marche.it/Portals/1/Immagini/Chiese/Urbino_Bernardino.jpg;43.7226;;Chiese;0722.320539;;Urbino;Chiesa di S. Bernardino;73;Veduta della Chiesa di S. Bernardino;Colle San Donato;
;12.6371;http://www.visit.marche.it/Portals/1/Immagini/Chiese/Urbino_Domenico.jpg;43.7244;;Chiese;;;Urbino;Chiesa di S. Domenico;74;Chiesa di S. Domenico;Piazza Rinascimento;
s.n.c.;12.6352;http://www.visit.marche.it/Portals/1/Immagini/Chiese/Urbino_francesco_di_paola.jpg;43.7252;;Chiese;;;Urbino;Chiesa di S. Francesco di Paola;75;Facciata della Chiesa di S. Francesco di Paola;Via Mazzini;
s.n.c.;12.6352;http://www.visit.marche.it/Portals/1/Immagini/Chiese/Urbino_Sergio_.JPG;43.7273;;Chiese;;;Urbino;Chiesa di S. Sergio;76;Chiesa di S. Sergio;Via Raffaello;
s.n.c.;12.6364;http://www.visit.marche.it/Portals/1/Immagini/Chiese/Urbino_Agostino.jpg;43.7216;;Chiese;;;Urbino;Chiesa di S. Agostino;77;Chiesa di S. Agostino;Via Saffi;
;12.8903;http://www.visit.marche.it/Portals/1/Immagini/Chiese/Pesaro_Pieve.jpg;43.8589;;Chiese;0721.286105;;Pesaro;Chiesa di S. Stefano in Candelara;78;Pieve di S. Stefano in Candelara;Via per Candelara, Loc. Candelare;nuovoamico@hotmail.com
;12907;http://www.visit.marche.it/Portals/1/Immagini/Chiese/Pesaro_GiovanniBattista_.jpg;43.9099;;Chiese;0721.30043;www.arcidiocesipesaro.it;Pesaro;Chiesa di S. Giovanni Battista;79;Chiesa di S. Giovanni Battista;Via Passeri;info@arcidiocesipesaro.it
;12911;http://www.visit.marche.it/Portals/1/Immagini/Chiese/Pesaro_Agostino.jpg;43912;;Chiese;0721.30043;info@arcidiocesipesaro.it;Pesaro;Chiesa di S. Agostino;80;Chiesa di S. Agostino;corso XI Settembre;
s.n.c;12.9146;http://www.visit.marche.it/Portals/1/Immagini/Chiese/Pesaro_duomo.jpg;43.9113;;Chiese;0721.30043 Arcidiocesi di Pesaro;www.arcidiocesipesaro.it;Pesaro;Duomo;81;Cattedrale di San Terenzio;via Rossini;info@arcidiocesipesaro.it
s.n.c.;12.9095;http://www.visit.marche.it/Portals/1/Immagini/Chiese/Pesaro_Maddalena.jpg;43.9098;Chiusa al pubblico. Visitabile solo in occasione di eventi espositivi.;Chiese;0721.387393;www.pesarocultura.it;Pesaro;Chiesa di S. Maria Maddalena;82;Chiesa di S. Maria Maddalena;Via Zacconi;musei@comune.pesaro.pu.it
;12.9125;http://www.visit.marche.it/Portals/1/Immagini/Chiese/Pesaro_Annunziata.jpg;43.9115;;Chiese;0721.30043 (Arcidiocesi);www.arcidiocesipesaro.it;Pesaro;Chiesa della Santissima Annunziata;83;Interno della Chiesa della Santissima Annunziata;Via dell'Annunziata;info@arcidiocesipesaro.it
23;12.9093;http://www.visit.marche.it/Portals/1/Immagini/Chiese/Pesaro_CheisaNomeDiDio.jpg;43.9107;"1 giugno-15 settembre da martedì a domenica 16.00-19.00. Lunedì chiuso. Aperture straordinarie ogni terza domenica del mese 9.30-12.30 e 16.00-19.00; durante il Rossini Opera Festival 10-23 agosto 9.300-12.30 e 16.00-19.00; 24 settembre 15.30-19.30. Le vi";Chiese;0721.371219 / 68095;www.arcidiocesipesaro.it;Pesaro;Pesaro - Chiesa del Nome di Dio;84;Particolare dell'organo della Chiesa del Nome di Dio;Via Pietro Petrucci;info@arcidiocesipesaro.it
s.n.c.;12.9102;http://www.visit.marche.it/Portals/1/Immagini/Chiese/Pesaro_Giacomo.jpg;43.9091;;Chiese;0721.69296;;Pesaro;Chiesa di S. Giacomo;85;Facciata neoclassica della Chiesa di S. Giacomo;piazza Olivieri;
9;12.9136;http://www.visit.marche.it/Portals/1/Immagini/Chiese/Pesaro_Ubaldo.jpg;43.9103;;Chiese;0721.387422 (Comune);;Pesaro;Chiesa di S. Ubaldo;86;Chiesa di S. Ubaldo;Largo Mamiani;
227/1;12.9069;http://www.visit.marche.it/Portals/1/Immagini/Chiese/Pesaro_Carmine_Purificazione.jpg;43.9119;;Chiese;0721.371337 / 340.3390444;;Pesaro;Chiesa della Purificazione della Beata Vergine del Carmine;87;Particolare dell'interno della Chiesa della Purificazione della Beata Vergine del Carmine;Corso XI Settembre;
;13.5771;http://www.visit.marche.it/Portals/1/Immagini/Chiese/Ascoli_EmidioGrotte.jpg;42.8615;;Chiese;;;Ascoli Piceno;Chiesa di S. Emidio alle Grotte;88;Facciata della Chiesa di S. Emidio alle Grotte incastonata nella roccia;Via di S. Emidio alle Grotte;
;13.5738;http://www.visit.marche.it/Portals/1/Immagini/Chiese/Ascoli_Pietromartire.jpg;42.8576;;Chiese;;;Ascoli Piceno;Chiesa dei Ss. Vincenzo e Anastasio;89;Particolare dell'esterno della Chiesa dei Ss. Vincenzo e Anastasio;Piazza Ventidio Basso;
;13.5731;http://www.visit.marche.it/Portals/1/Immagini/Chiese/Ascoli_Pietromartire.jpg;42.8575;;Chiese;;;Ascoli Piceno;Chiesa di S. Pietro Martire;90;Particolare della facciata romanica-gotica della Chiesa di S. Pietro Martire;Via delle Torri;
;13.5729;http://www.visit.marche.it/Portals/1/Immagini/Chiese/Ascoli_Agostino.jpg;42.8552;;Chiese;;;Ascoli Piceno;Chiesa di S. Agostino;91;Facciata della Chiesa di Sant'Agostino;Piazza S. Agostino;
;13.5715;http://www.visit.marche.it/Portals/1/Immagini/Chiese/Ascoli_Tommaso_ext.jpg;42.8558;;Chiese;;;Ascoli Piceno;Chiesa di S. Tommaso;92;Facciata della Chiesa di S. Tommaso;;
;13.5751;http://www.visit.marche.it/Portals/1/Immagini/Chiese/Ascoli_Scopa.jpg;42.8539;;Chiese;;;Ascoli Piceno;Chiesa di S. Maria della Carità (o Chiesa della Scopa);93;Facciata della Chiesa di S. Maria della Carità;Piazza Roma;
;13.5756;http://www.visit.marche.it/Portals/1/Immagini/Chiese/Ascoli_Francesco.jpg;42.8554;;Chiese;;;Ascoli Piceno;Chiesa di S. Francesco;94;Chiesa di S. Francesco su Piazza del Popolo;Via del Trivio;
;13.5765;http://www.visit.marche.it/Portals/1/Immagini/Chiese/Ascoli_MariaIntervineas.JPG;42.8569;;Chiese;;;Ascoli Piceno;Chiesa di S. Maria Intervineas;95;Estreno della Chiesa di S. Maria Intervineas;Largo del Cremore;
;13.5789;http://www.visit.marche.it/Portals/1/Immagini/Chiese/Ascoli_Cristoforo.jpg;42.8552;;Chiese;;;Ascoli Piceno;Chiesa di S. Cristoforo;96;Interno della Chiesa di S. Cristoforo;Rua d'Argillano;
;13.5834;http://www.visit.marche.it/Portals/1/Immagini/Chiese/Ascoli_Vittore_ext.jpg;42.8527;;Chiese;;;Ascoli Piceno;Chiesa di S. Vittore;97;Facciata della Chiesa di S. Vittore;Largo Cattaneo;
;13.5768;http://www.visit.marche.it/Portals/1/Immagini/Chiese/Ascoli_GregorioMagno.jpg;42.8525;;Chiese;;;Ascoli Piceno;Chiesa di S. Gregorio Magno;98;Interno della Chiesa di S. Gregorio Magno;Piazza San Gregorio;
;13.5784;http://www.visit.marche.it/Portals/1/Immagini/Chiese/publisole_IMG_6073.JPG;42.8534;Tutti i giorni dalle 8.00 alle 12.00 e dalle 16.00 alle 20.00;Chiese;0736.298204;www.comune.ascolipiceno.it;Ascoli Piceno;Ascoli Piceno - Chiesa di S. Emidio;99;Interno della Cattedrale di Sant'Emidio;Piazza Arringo;turismo@comune.ascolipiceno.it
;13.5737;http://www.visit.marche.it/Portals/1/Immagini/MonasteriConventi/Ascoli_AngeloMagno1.jpg;42.8518;;Chiese;0736.261227 (Don Luigi Petrucci);http://80.19.92.5/cds/MO_mona/iti/visitare/7344.html;Ascoli Piceno;Chiesa di S. Angelo Magno;100;Interno della Chiesa di S. Angelo Magno;Via S. Angelo;
;13.5089;http://www.visit.marche.it/Portals/1/Immagini/Chiese/Ascoli_CriptaEmidio.JPG;42.8373;;Chiese;;;Ascoli Piceno;Cripta di S. Emidio;101;Cripta di S. Emidio;Piazza Arringo;
1;12.3606;http://www.visit.marche.it/Portals/1/Immagini/Chiese/pieve_carpegna.jpg;43.78;;Chiese;;;Carpegna;Pieve di S. Giovanni Battista;102;Complesso della Pieve di San Giovanni Battista;Strada Comunale per Frontino;
s.n.c.;12336;http://www.visit.marche.it/Portals/1/Immagini/Chiese/Mercatello_Ramazzotti_francesco.jpg;43.6464;;Chiese;;;Mercatello sul Metauro;Chiesa di S. Francesco;103;Chiostro della Chiesa di San Francesco, oggi Pinacoteca Civica;Via Bencivenni;
;13.2178;http://www.visit.marche.it/Portals/1/Immagini/Chiese/Senigallia_Martino_.jpg;43.7137;;Chiese;;;Senigallia;Chiesa di S. Martino;104;Facciata della chiesa di San Martino;;
3;13.2175;http://www.visit.marche.it/Portals/1/Immagini/Chiese/Senigallia_ChiesaCroce.jpg;43.7153;Tutti i giorni 9.00-12.00 e 16.30-17.30. Domenica 16.00-18.00.;Chiese;071.64977;www.comune.senigallia.an.it;Senigallia;Chiesa del SS. Sacramento e di S. Croce;105;Particolare della Pala di Federico Barocci;Via Gherardi 3;comune.senigallia@emarche.it
3;13.2151;http://www.visit.marche.it/Portals/1/Immagini/Chiese/Senigallia_cattedrale.jpg;43.7139;;Chiese;;;Senigallia;Cattedrale di S. Pietro Apostolo;106;Prospetto Principale della Cattedrale di S. Pietro Apostolo;Via E. Cavallotti;
;13.1583;http://www.visit.marche.it/Portals/1/Immagini/Chiese/Ostra_Crocifisso.jpg;43614;;Chiese;;;Ostra;Chiesa di S. Gregorio (detto anche Santuario del Santissimo Crocifisso);107;Prospetto principale del Santuario del Santissimo Crocifisso;Corso Mazzini;
10;13.1663;http://www.visit.marche.it/Portals/1/Immagini/Chiese/BelvedereOstrense_Pietro.jpg;43.5801;;Chiese;;;Belvedere Ostrense;Chiesa di S. Pietro Apostolo;108;Facciata principale della Chiesa di S. Pietro Apostolo;Piazza S. Pietro;
9;13.1659;http://www.visit.marche.it/Portals/1/Immagini/Chiese/BelvedereOstrense_Misericordia.jpg;43.5793;;Chiese;;;Belvedere Ostrense;Chiesa di S. Maria della Misericordia;109;Portale d'ingresso della Chiesa di S. Maria della Misericordia;Borgo S. Maria;
;13.1866;http://www.visit.marche.it/Portals/1/Immagini/Chiese/BelvedereOstrense_MadonnaSole.jpg;43.5834;;Chiese;;;Belvedere Ostrense;Chiesa della Madonna del Sole;110;Prospetto principale della Chiesa della Madonna del Sole;Via Monte della Serra;
;13.2704;http://www.visit.marche.it/Portals/1/Immagini/Chiese/MonteSanVito_chiesa_spietro.jpg;43601;;Chiese;;;Monte San Vito;Chiesa parrocchiale di S. Pietro Apostolo;111;Facciata della Collegiata di San Pietro Apostolo;Piazza S. Pietro;
;12881;http://www.visit.marche.it/Portals/1/Immagini/Chiese/Cartoceto_Misericordia.jpg;43.7685;;Chiese;;;Cartoceto;Santuario della Madonna delle Grazie (detto anche Chiesa di S. Maria della Misericordia);112;Facciata della Chiesa di S. Maria della Misericordia;Via Peschiera;
;12.8826;http://www.visit.marche.it/Portals/1/Immagini/Chiese/Cartoceto_Soccorso.jpg;43.7624;;Chiese;;;Cartoceto;Chiesa di S. Maria del Soccorso;113;Facciata della Chiesa conventuale di S. Maria del Soccorso;Via S. Maria del Soccorso;
31/ 0;12896;http://www.visit.marche.it/Portals/1/Immagini/Chiese/Cartoceto_Pieve.jpg;43.7663;;Chiese;;;Cartoceto;Chiesa della Pieve di SS. Pietro e  Paolo;114;Facciata della Pieve di SS. Pietro e  Paolo;Via Pieve;
;12.9283;http://www.visit.marche.it/Portals/1/Immagini/Chiese/Barchi_ChiesaSUbaldo.jpg;43.6731;;Chiese;;;Barchi;Chiesa della SS. Risurrezione;115;Facciata della Chiesa della SS. Risurrezione;Piazza Vittorio Emanuele;
379 c;12.8942;http://www.visit.marche.it/Portals/1/Immagini/Chiese/Barchi_Sebastiano.jpg;43.6907;;Chiese;;;Barchi;Chiesa di S. Sebastiano;116;Chiesa di S. Sebastiano;Via Villa del Monte;
;13.1045;http://www.visit.marche.it/Portals/1/Immagini/Chiese/Mondolfo_Gervaso.jpg;43.7344;;Chiese;;;Mondolfo;Chiesa di S. Gervasio di Bulgaria;117;Interno della Chiesa di S. Gervasio di Bulgaria;Via Pergolese;
;13.0905;http://www.visit.marche.it/Portals/1/Immagini/Chiese/Mondolfo_Grotte.jpg;43.7489;;Chiese;;;Mondolfo;Santuario della Madonna delle Grotte;118;Santuario della Madonna delle Grotte;Via Le Grotte;
58;12.8862;http://www.visit.marche.it/Portals/1/Immagini/Chiese/SanLorenzoInCampo_Vito.jpg;43.5904;;Chiese;;;San Lorenzo in Campo;Chiesa di S. Vito;119;Pieve Vecchia o Chiesa di S. Vito;Via della Pieve;
10;12.9448;http://www.visit.marche.it/Portals/1/Immagini/Chiese/SanLorenzoInCampo_Crocifisso.jpg;43.6014;;Chiese;;;San Lorenzo in Campo;Santuario del SS. Crocifisso;120;Santuario del SS. Crocifisso;Via Raffaello;
;12.8897;http://www.visit.marche.it/Portals/1/Immagini/Chiese/SanLorenzoInCampo_Esuperanzio.jpg;43.5954;;Chiese;;;San Lorenzo in Campo;Chiesa parrocchiale di S. Biagio ed Esuperanzio;121;Chiesa parrocchiale di S. Biagio ed Esuperanzio;Piazza S. Francesco;
;13.0154;http://www.visit.marche.it/Portals/1/Immagini/Chiese/Fano_cattedrale_.jpg;43.8435;;Chiese;;;Fano;Duomo di Santa Maria Assunta;122;Facciata della Cattedrale dell'Assunta;Piazza Clemente VIII;
;13014;http://www.visit.marche.it/Portals/1/Immagini/Chiese/Fano_pietro.jpg;43845;;Chiese;;;Fano;Chiesa di S. Pietro in Episcopio;123;Facciata principale della chiesa di San Pietro in Episcopio;Via Rinalducci;
1;13017;http://www.visit.marche.it/Portals/1/Immagini/Chiese/Fano_SantaMariaNuova.jpg;43.8421;Tutti i giorni: 9.00-12.00 e 15.30-19.00;Chiese;338.6228715;www.artuvisite.com;Fano;Chiesa di Santa Maria Nuova, ex Chiesa di S. Salvatore;124;Particolare della Visitazione di Giovanni Santi;Via Giovanni da Serravalle;info@artuvisite.com
;13.0167;http://www.visit.marche.it/Portals/1/Immagini/Chiese/Fano_SanDomenico.jpg;43.8452;"Dal 7 maggio al 1 ottobre 2011 la chiesa ospita la mostra &quot;Guercino a Fano. Tra presenza e assenza&quot; . Tutti i giorni escluso il lunedì dalle 18,00 alle 22,00.";Chiese;0721 802885 / 824331;www.fondazionecarifano.it;Fano;Chiesa di S. Domenico;125;Veduta interna;Via Arco d'Augusto;info@fondazionecarifano.it
;13.0493;http://www.visit.marche.it/Portals/1/Immagini/Chiese/Fano_Ponte.jpg;43.8289;;Chiese;;;Fano;Santuario del Ponte sul Metauro;126;Santuario del Ponte sul Metauro;Viale Piceno;
;13.0214;http://www.visit.marche.it/Portals/1/Immagini/Chiese/Fano_Paterniano_.jpg;43.8416;;Chiese;;;Fano;Chiesa di S. Paterniano;127;Facciata della Chiesa di S. Paterniano;Piazza J. Sansovino;
;13.0212;http://www.visit.marche.it/Portals/1/Immagini/Chiese/Fano_Marco.jpg;43.8432;;Chiese;;;Fano;Chiesa di S. Marco;128;Facciata della Chiesa di San Marco;Via Nolfi;
;13015;http://www.visit.marche.it/Portals/1/Immagini/Chiese/Fano_AbsideMarco.jpg;43.8446;;Chiese;;;Fano;Abside di S. Mauro;129;Abside di S. Mauro;Via M. Lanci;
;13.0199;http://www.visit.marche.it/Portals/1/Immagini/Chiese/Fano_agostino.jpg;43.8442;;Chiese;;;Fano;Ex Chiesa di S. Agostino;130;Particolare della facciata dell'ex Chiesa di S. Agostino;Via Vitruvio;
;13.0146;http://www.visit.marche.it/Portals/1/Immagini/Chiese/Fano_chiesa_di_san_michele.jpg;43843;;Chiese;;;Fano;Chiesa di S. Michele;131;Facciata della Chiesa di S. Michele;Largo Porta Maggiore;
;13.0158;http://www.visit.marche.it/Portals/1/Immagini/Chiese/Fano_SanPietroInValle.jpg;43.8464;Fino al 30/06 domenica e festivi 10.30-12.00 17.00-18.30. Luglio e agosto giovedì, domenica e festivi 21.00-23.00. Da settembre a dicembre 10.30-12.00 e 16.00-17.30.;Chiese;0721.828362;www.sistemamuseo.it;Fano;Chiesa di S. Pietro in Valle;132;Particolare della decorazione interna;Via Nolfi;fano@sistemamuseo.it
;13.0473;http://www.visit.marche.it/Portals/1/Immagini/Chiese/Corinaldo_SantuarioGoretti.jpg;43.6494;;Chiese;;;Corinaldo;Chiesa e Convento di S. Agostino;133;Facciata del Santuario di Santa Maria Goretti;;
105;13.0376;http://www.visit.marche.it/Portals/1/Immagini/Chiese/SerraDeConti_Fortunato.jpg;43.5421;;Chiese;;;Serra de' Conti;Chiesa di S. Maria Maddalena;134;Facciata della Chiesa di S. Maria Maddalena;Via S. Fortunato, loc. San Fortunato;
105;13.0718;http://www.visit.marche.it/Portals/1/Immagini/Chiese/SerraDeConti_Fortunato.jpg;43.5618;;Chiese;;;Serra de' Conti;Chiesa rurale di S. Fortunato;135;Facciata della Chiesa rurale di S. Fortunato;Via S. Fortunato;
;13.8147;http://www.visit.marche.it/Portals/1/Immagini/Chiese/Acquaviva_Chiesa_S__Nicolo.jpg;42.9447;;Chiese;;;Acquaviva Picena;Chiesa di S. Nicolo';136;Interno della Chiesa di San Nicolo';Piazza Risorgimento;
;13.7497;http://www.visit.marche.it/Portals/1/Immagini/Chiese/MontefioreDellAso_ChiesaSanFrancesco.jpg;43.0515;;Chiese;0734.938743;www.comune.montefioredellaso.ap.it;Montefiore dell'Aso;Montefiore dell'Aso - Chiesa di S. Francesco;137;Monumento funerario dei genitori del Cardinale Gentile Partino;Piazza San Francesco;info@comune.montefioredellaso.ap.it
;13.7176;http://www.visit.marche.it/Portals/1/Immagini/Chiese/chiesa_santagostino_01_zoom.jpg;43.0848;;Chiese;;;Monterubbiano (FM);Chiesa di S. Agostino;138;Interno della Chiesa di Sant'Agostino;Piazza del Mercato;
;13.4955;http://www.visit.marche.it/Portals/1/Immagini/Chiese/SantaVittoria_ChiesaResurrezione.jpg;43.0183;;Chiese;0734.780111;www.fermomia.it;Santa Vittoria in Matenano (FM);Chiesa di S. Vittoria, Affreschi del Cappellone annesso alla chiesa;139;Particolare degli affreschi del Cappellone;Parco della Rimembranza;info@fermomia.it
;13.4151;http://www.visit.marche.it/Portals/1/Immagini/Chiese/Comunanza_ChiesaSantaCaterina.jpg;42.9576;;Chiese;0736.845121;www.comune.comunanza.ap.it;Comunanza;Chiesa di S. Caterina;140;Particolare della Madonna di Loreto;Piazza Santa Caterina;protocollo@pec.comune.comunanza.ap.it
;13.3202;http://www.visit.marche.it/Portals/1/Immagini/MonasteriConventi/MONTEMONACO_Lorenzo_ext.JPG;42.8771;;Chiese;0736.856411 (Pro Loco) / 856462 (Casa del Parco);http://80.19.92.5/cds/MO_mona/iti/visitare/7347.html;Montemonaco;Chiesa di S. Lorenzo in Vallegrascia;141;Facciata della Chiesa di S. Lorenzo in Vallegrascia;Strada Comunale di Vallegrascia;
;13.3125;http://www.visit.marche.it/Portals/1/Immagini/Chiese/Treia_Filippo.jpg;43.3111;;Chiese;;;Treia;Chiesa di S. Filippo;142;Facciata della Chiesa di San Filippo;Piazza della Repubblica;
;13.1729;http://www.visit.marche.it/Portals/1/Immagini/MonasteriConventi/SanseverinoMarche_vistageneralelorenzo.jpg;43.2277;;Chiese;0733.638414 (Pro Loco);;San Severino Marche;Chiesa di S. Lorenzo in Doliolo;143;Veduta dall'alto della Chiesa di S. Lorenzo in Doliolo;Via della Galetta;
s.n.c.;13.2099;http://www.visit.marche.it/Portals/1/Immagini/MonasteriConventi/Cingoli_Esuperanzio.jpg;43.3798;;Chiese;0733.602444 (I.A.T. Cingoli);http://80.19.92.5/cds/MO_mona/iti/visitare/7383.html;Cingoli;Chiesa di S. Esuperanzio;144;Facciata della Chiesa di S. Esuperanzio;Via Sant'Esuperanzio;
;13.0648;http://www.visit.marche.it/Portals/1/Immagini/Chiese/Camerino_SanFilippo.jpg;43.1344;Periodo estivo tutti i giorni 9.00-12.00 e 16.00-19.00.;Chiese;0737.636406/ 632534;www.proloco.camerino.sinp.net;Camerino;Camerino - Chiesa di S. Filippo Neri;145;Madonna in gloria e San Filippo, particolare;Piazza Filippo Marchetti;proloco@camerino.sinp.net
senza numero;13.5347;http://www.visit.marche.it/Portals/1/Immagini/Chiese/Recanati_MariaCastelnuovo.jpg;43.4076;;Chiese;;;Recanati;Chiesa di S. Maria Assunta di Castelnuovo;146;Facciata della Chiesa di S. Maria Assunta di Castelnuovo;Via Angelo Giunta;
2;13544;http://www.visit.marche.it/Portals/1/Immagini/Chiese/Recanati_Flaviano_duomo.JPG;43.4062;;Chiese;;;Recanati;Cattedrale di S. Flaviano;147;Le tre navate della Cattedrale di San Flaviano;Via Gregorio XII;
senza numero;13.5477;http://www.visit.marche.it/Portals/1/Immagini/Chiese/Recanati_Mercanti.JPG;43.4047;;Chiese;;;Recanati;Chiesa di S. Maria dei Mercanti;148;Interno della Chiesa di S. Maria dei Mercanti;Corso Persiani;
s.n.c.;13.5477;http://www.visit.marche.it/Portals/1/Immagini/Chiese/Recanati_FilippoNeri.JPG;43.4047;;Chiese;;;Recanati;Chiesa di S. Filippo Neri;149;Interno della Chiesa di S. Filippo Neri;Corso Persiani;
s.n.c.;13.5477;http://www.visit.marche.it/Portals/1/Immagini/Chiese/Recanati_Anna.JPG;43.4047;;Chiese;;;Recanati;Chiesa di S. Anna;150;Facciata principale della Chiesa di S. Anna;Corso Persiani;
s.n.c.;13.5485;http://www.visit.marche.it/Portals/1/Immagini/Chiese/Recanati_Domenico.jpg;43.4033;;Chiese;;;Recanati;Chiesa di S. Domenico;151;Faccaiata principale della Chiesa di S. Domenico;Via Porta San Domenico;
15;13.5499;http://www.visit.marche.it/Portals/1/Immagini/Chiese/Recanati_Michele.JPG;43.4025;;Chiese;;;Recanati;Chiesa di S. Michele;152;Interno della Chiesa di S. Michele;Via Cavour;
s.n.c.;13.5516;http://www.visit.marche.it/Portals/1/Immagini/Chiese/Recanati_Agostino.JPG;43.4022;;Chiese;;;Recanati;Chiesa di S. Agostino;153;Chiesa di S. Agostino affacciata sul Piazzale Pietro Giordani;Piazzale Giordani;
s.n.c.;13.5524;http://www.visit.marche.it/Portals/1/Immagini/Chiese/Recanati_Vito.jpg;43.4015;;Chiese;;;Recanati;Chiesa di S. Vito;154;Facciata della Chiesa di S. Vito;Piazzale San Vito;
10;13.5526;http://www.visit.marche.it/Portals/1/Immagini/Chiese/Recanati_Petrino.jpg;43.3987;;Chiese;;;Recanati;Chiesa di S. Petrino in Monte Morello;155;Chiesa di S. Petrino in Monte Morello;Via Giacomo Leopardi;
senza numero;13.5518;http://www.visit.marche.it/Portals/1/Immagini/Chiese/Recanati_MonteMorello_ext.JPG;43398;;Chiese;;;Recanati;Chiesa di S. Maria in Monte Morello;156;Chiesa di S. Maria in Monte Morello affacciata sulla Piazzola del Sabato del Villagio;Piazza del Sabato del Villaggio;
1;13.5525;http://www.visit.marche.it/Portals/1/Immagini/Chiese/Recanati_Cappuccini.JPG;43.3978;;Chiese;;;Recanati;Chiesa dei Cappuccini;157;Facciata principale della Chiesa dei Cappuccini;Piazzale dei Cappuccini;
senza numero;13.5554;http://www.visit.marche.it/Portals/1/Immagini/Chiese/Recanati_Varano.JPG;43.4028;;Chiese;;;Recanati;Chiesa di S. Maria di Varano;158;Facciata della Chiesa di S. Maria di Varano;Via Dalmazia;
;13.4429;http://www.visit.marche.it/Portals/1/Immagini/Chiese/Offagna_Lucia.JPG;43528;;Chiese;;;Offagna;Chiesa di S. Lucia;159;S. Lucia martirizzata e glorificata;;
10;13.6198;http://www.visit.marche.it/Portals/1/Immagini/Chiese/Sirolo_Sacramento.jpg;43523;;Chiese;;;Sirolo;Ex Chiesa del Ss. Sacramento;160;Facciata dell'Ex Chiesa del Ss. Sacramento, oggi adibita ad enoteca;Via Italia;
;13.6204;http://www.visit.marche.it/Portals/1/Immagini/Chiese/Sirolo_Rosario_.jpg;43522;;Chiese;;;Sirolo;Chiesa del SS. Rosario;161;Interno della Chiesa del SS. Rosario;Via Pichi;
;13.6194;http://www.visit.marche.it/Portals/1/Immagini/Chiese/Sirolo_chiesa-san-nicolo-di-bari.jpg;43.5232;;Chiese;;;Sirolo;Chiesa di S. Nicola di Bari;162;Facciata della Chiesa di S. Nicola di Bari sulla piazza;Piazza Vittorio Veneto;
;13.4358;http://www.visit.marche.it/Portals/1/Immagini/Chiese/Montecassiano_Assunta.jpg;43.3637;;Chiese;;;Montecassiano;Chiesa di S. Maria Assunta in Cielo;163;Scorcio della facciata della Chiesa di S. Maria Assunta in Cielo;;
10;13.4832;http://www.visit.marche.it/Portals/1/Immagini/Chiese/Osimo_SanGiuseppeCopertino.jpg;43.4866;;Chiese;071.714523;www.sangiuseppedacopertino.net;Osimo;Basilica di S. Giuseppe da Copertino;164;San Giuseppe da Copertino;Piazza A. M. Gallo;ufficio.basilica@virgilio.it
25;13.4861;;43.4874;;Chiese;071.7236088 (I.A.T. Osimo) oppure N.V. 800228800;;Osimo;Chiesa di S. Niccolò;165;;Via Pompeiana;info@osimoturismo.it
;13.4892;http://www.visit.marche.it/Portals/1/Immagini/Chiese/Osimo_SanMarco_MadonnaRosario.jpg;43.4857;Tutti i giorni 7.00-13.00 e 16.00-20.00;Chiese;071.72491;www.osimoturismo.it;Osimo;Chiesa di S. Marco Evangelista;166;Madonna del Rosario con San Domenico e Santa Caterina da Siena;Via San Marco;iat@osimoturismo.it
;13.3457;http://www.visit.marche.it/Portals/1/Immagini/Chiese/Appignano_Giovanni.jpg;43.3635;;Chiese;;;Appignano;Chiesa di S. Giovanni Battista;167;Interno barocco della Chiesa di San Giovanni Battista;;
;13.6218;http://www.visit.marche.it/Portals/1/Immagini/Chiese/Numana_Battista_.jpg;43.5138;;Chiese;;;Numana;Chiesa di S. Giovanni Battista;168;Facciata della Chiesa barocca di San Giovanni Battista;Via Giacomo Matteotti;
;13.6624;http://www.visit.marche.it/Portals/1/Immagini/Chiese/Portorecanati_SangueGesu_.jpg;43.4375;;Chiese;;;Porto Recanati;Chiesa del Preziosissimo Sangue di Cristo;169;Prospetto principale della Chiesa del Preziosissimo Sangue di Cristo;Via Ugo Bassi;
;13.6629;http://www.visit.marche.it/Portals/1/Immagini/Chiese/Portorecanati_Giovanni.jpg;43.4346;;Chiese;;;Porto Recanati;Chiesa di S. Giovanni Battista;170;Particolare dell'interno della Chiesa di S. Giovanni Battista;Corso Giacomo Matteotti;
;13.6629;http://www.visit.marche.it/Portals/1/Immagini/Chiese/Portorecanati_Suore.jpg;43.4346;;Chiese;;;Porto Recanati;Chiesa delle Suore Adoratrici del Sangue di Cristo;171;Facciata della Chiesa delle Suore Adoratrici del Sangue di Cristo;Corso Giacomo Matteotti;
;13.6629;http://www.visit.marche.it/Portals/1/Immagini/Chiese/Portorecanati_Suffragio.jpg;43.4346;;Chiese;;;Porto Recanati;Chiesa del Suffragio;172;Chiesa del Suffragio;Corso Giacomo Matteotti;
;13664;http://www.visit.marche.it/Portals/1/Immagini/Chiese/Portorecanati_Potenza.jpg;43.4076;;Chiese;;;Porto Recanati;Chiesa di S. Maria a Potenza;173;Esterno della Chiesa di S. Maria a Potenza;Via Abbadia di S. Maria a Potenza;
;12.2645;http://www.visit.marche.it/Portals/1/Immagini/Chiese/BorgoPace_CastelFabbri4b.jpg;43.6612;;Chiese;;;Borgo Pace;Chiesa di S. Bartolomeo;174;Chiesa di S. Bartolomeo a Castel dei Fabbri;Via Figgiano;
;12.2482;http://www.visit.marche.it/Portals/1/Immagini/Chiese/BorgoPace_Floriano_.jpg;43.6542;;Chiese;;;Borgo Pace;Chiesa di S. Floriano;175;Chiesa di S. Floriano;Via Palazzo Mucci;
;12.2584;http://www.visit.marche.it/Portals/1/Immagini/Chiese/BorgoPace_SLucia9Figgiano14Ant.jpg;43.6655;;Chiese;;;Borgo Pace;Chiesa di S. Leone (oggi Chiesa di Santa Lucia);176;Frammenti di affreschi presenti all'interno della Chiesa;Via Figgiano;
47;12.2859;http://www.visit.marche.it/Portals/1/Immagini/Chiese/BorgoPace_Croce.jpg;43.6519;;Chiese;;;Borgo Pace;Chiesa di S. Croce;177;Particolare dell'ingresso della Chiesa di S. Croce;Via Sompiano;
;12.2776;http://www.visit.marche.it/Portals/1/Immagini/Chiese/BorgoPace_Carmine.jpg;43.6358;;Chiese;;;Borgo Pace;Chiesa del Carmine;178;Prospetto laterale della Chiesa del Carmine;Via Sompiano;
;12.2385;http://www.visit.marche.it/Portals/1/Immagini/Chiese/BorgoPace_parchiule_chiesa-di-s-maria-5.jpg;43.6491;;Chiese;;;Borgo Pace;Chiesa di S. Maria;179;Chiesa di S. Maria, frazione Parchiule;Via Della Valle;
;12.6993;http://www.visit.marche.it/Portals/1/Immagini/Chiese/Montefabbri_Ramazzotti_2013_017.jpg;43.8133;;Chiese;;;Colbordolo;Chiesa di S. Gaudenzio - Fraz. Montefabbri;180;Facciata della Pieve di S. Gaudenzio;Fraz. Montefabbri;
5;13.7231;http://www.visit.marche.it/Portals/1/Immagini/Chiese/CivitanovaMarche_chiesa_di_san_marone.jpg;43.3055;orario per il culto;Chiese;0733.812849;www.chiesainrete.it;Civitanova Marche;Chiesa di S. Marone;181;Chiesa di S. Marone;Piazza S. Marone;
;13.7299;http://www.visit.marche.it/Portals/1/Immagini/Chiese/Civitanovamarche_PietroApostolo.jpg;43307;orario per il culto;Chiese;0733.812766;www.chiesainrete.it;Civitanova Marche;Chiesa di S. Pietro Apostolo (detta anche Chiesa dei Ss. Pietro e Marone);182;Facciata della Chiesa di San Pietro Apostolo su Piazza XX Settembre;Piazza XX Settembre;
;13.6773;http://www.visit.marche.it/Portals/1/Immagini/Chiese/Civitanova_Angeli.jpg;43.3137;orario per il culto;Chiese;0733.890106 / 892861;;Civitanova Marche;Chiesa della Madonna degli Angeli;183;Facciata della Chiesa della Madonna degli Angeli;Contrada Mornano, Str. Provinciale S. Domenico;
;13.6838;http://www.visit.marche.it/Portals/1/Immagini/Chiese/Civitanova_Sacramento_.JPG;43.3161;orario per il culto;Chiese;0733.890658;;Civitanova Marche;Chiesa del SS. Sacramento;184;Facciata della Chiesa del SS. Sacramento;Piazza Giuseppe Garibaldi;
;13.4164;http://www.visit.marche.it/Portals/1/Immagini/Chiese/LoroPiceno_AffrescoSMaria.jpg;43.1665;;Chiese;;;Loro Piceno;Chiesa di S. Maria in Piazza;185;Immagine della Madonna del Soccorso;Piazza Matteotti;
182;13.5286;http://www.visit.marche.it/Portals/1/Immagini/Chiese/Montelupone_chiesa_san_francesco_e_madonna_del_latte.jpg;43.3399;;Chiese;;;Montelupone;Chiesa di S. Francesco;186;Interno della Chiesa di S. Francesco dopo la sua riapertura;Via Colleforche;
;12931;http://www.visit.marche.it/Portals/1/Immagini/Chiese/Barchi_Antonio.jpg;43.6712;;Chiese;;;Barchi;Chiesa di S. Antonio;187;Facciata della Chiesa di S. Antonio;Via Roma;
;12.9112;http://www.visit.marche.it/Portals/1/Immagini/Chiese/Barchi_Maurizio.jpg;43.6907;;Chiese;;;Barchi;Chiesa di S. Maurizio;188;Chiesa di S. Maurizio;;
;13.0188;http://www.visit.marche.it/Portals/1/Immagini/Chiese/Fano_Tommaso_.jpg;43.8427;;Chiese;;;Fano;Chiesa di S. Tommaso Apostolo;189;Facciata della Chiesa di S. Tommaso Apostolo;Piazzetta E.Omiccioli;
;13.0194;http://www.visit.marche.it/Portals/1/Immagini/Chiese/Fano_Abate.jpg;43.8417;;Chiese;;;Fano;Chiesa di S. Antonio Abate;190;Facciata della Chiesa di S. Antonio Abate;Piazza A. Costanzi;
;13.0147;http://www.visit.marche.it/Portals/1/Immagini/Chiese/Fano_Arcangelo.jpg;43.8448;;Chiese;;;Fano;Chiesa di S. Arcangelo;191;Facciata dell'ex Chiesa di S. Arcangelo, oggi Auditorium della città di Fano;Via M. Lanci;
;13.2381;http://www.visit.marche.it/Portals/1/Immagini/Chiese/BelforteDelChienti_SantEustachio.jpg;43164;Tutti i giorni 8.00-13.00 e 16.00-20.00.;Chiese;0733.951007 / 906533;www.comune.belfortedelchienti.mc.it;Belforte del Chienti;Chiesa di S. Eustachio;192;Particolare del Polittico di Giovanni Boccati;Piazza Umberto I;comune@belforte.sinp.net
s.n.c.;13.7161;http://www.visit.marche.it/Portals/1/Immagini/Chiese/Fermo_Pieta.jpg;43162;;Chiese;;;Fermo (FM);Chiesa della Pietà;193;Altare principale della Chiesa della pieta';Corso Cefalonia;
40;13.7181;http://www.visit.marche.it/Portals/1/Immagini/Chiese/Fermo_Rocco.jpg;43.1609;;Chiese;;;Fermo (FM);Chiesa di S. Rocco;194;Chiesa di S. Rocco che si affaccia sulla Piazza del Popolo;Piazza del Popolo;
s.n.c.;13.7192;http://www.visit.marche.it/Portals/1/Immagini/Chiese/Fermo_Martino.jpg;43.1621;;Chiese;;;Fermo (FM);Chiesa di S. Martino;195;Interno della Chiesa di S. Martino;Via Giacomo Leopardi;
3;13.7208;http://www.visit.marche.it/Portals/1/Immagini/Chiese/Fermo_MicheleArcangelo.jpg;43.16;;Chiese;;;Fermo (FM);Chiesa di S. Michele Arcangelo;196;Facciata della Chiesa di S. Michele Arcangelo;Largo Vinci;
;13377;http://www.visit.marche.it/Portals/1/Immagini/Chiese/Urbisaglia_Lorenzo.jpg;43.1963;;Chiese;;;Urbisaglia;Chiesa di S. Lorenzo;197;Collegiata di San Lorenzo illuminata a festa su Piazza Garibaldi;Piazza Giuseppe Garibaldi;
;13.4532;http://www.visit.marche.it/Portals/1/Immagini/Chiese/Macerata_Stefano.jpg;43.3084;;Chiese;;;Macerata;Chiesa di S. Stefano;198;Facciata principale della Chiesa di S. Stefano;S. C. dei Cappuccini Vecchi;
;13.5117;http://www.visit.marche.it/Portals/1/Immagini/Chiese/Ancona_Biagio_.jpg;43.6186;;Chiese;;;Ancona;Chiesa di S. Biagio;199;Facciata della Chiesa di San Biagio, lungo il corso Mazzini;Corso Giuseppe Mazzini;
;13.5094;http://www.visit.marche.it/Portals/1/Immagini/Chiese/Ancona_Sacramento.jpg;43.6188;;Chiese;;;Ancona;Chiesa del SS. Sacramento;200;Chiesa del SS. Sacramento;Largo del Sacramento;
2;13.6229;http://www.visit.marche.it/Portals/1/Immagini/Chiese/PotenzaPicena_Giacomo.jpg;43.3677;;Chiese;;;Potenza Picena;Chiesa di S. Giacomo Maggiore;201;Prospetto principale della Chiesa di S. Giacomo Maggiore;Piazza S. Giacomo;
;13.6206;http://www.visit.marche.it/Portals/1/Immagini/Chiese/PotenzaPicena_complessoSAgostino1.jpg;43.3658;;Chiese;;;Potenza Picena;Chiesa di S. Agostino;202;Interno della Chiesa di S. Agostino;Via Silvio Pellico;
;13623;http://www.visit.marche.it/Portals/1/Immagini/Chiese/PotenzaPicena_Stefano.jpg;43.3666;;Chiese;;;Potenza Picena;Chiesa di S. Stefano;203;Facciata della Collegiata di S. Stafano;Piazza S. Stefano;
;13.6219;http://www.visit.marche.it/Portals/1/Immagini/Chiese/PotenzaPicena_Caterina.jpg;43.3661;;Chiese;;;Potenza Picena;Chiesa di S. Caterina Vergine e Martire;204;Particolare dell'interno della Chiesa di S. Caterina Vergine e Martire;Via Mariano Cutini;
;13.6468;http://www.visit.marche.it/Portals/1/Immagini/Chiese/PotenzaPicena_santuarioSGirio.jpg;43.3822;;Chiese;;;Potenza Picena;Chiesa di S. Girio;205;Interno della Chiesa di S. Girio;S. P. di S. Girio;
51;13.6232;http://www.visit.marche.it/Portals/1/Immagini/Chiese/PotenzaPicena_Grazie.jpg;43.3652;;Chiese;;;Potenza Picena;Chiesa di S. Maria delle Grazie;206;Chiesa di S. Maria delle Grazie;Circonvallazione Le Grazie;
;13.6214;http://www.visit.marche.it/Portals/1/Immagini/Chiese/PotenzaPicena_MadonnaNeve.jpg;43.3649;;Chiese;;;Potenza Picena;Chiesa della Madonna della Neve;207;Prospetto esterno della Chiesa della Madonna della Neve;Circonvallazione Le Grazie;
179;12909;http://www.visit.marche.it/Portals/1/Immagini/Chiese/Pesaro_Cassiano.jpg;43.9119;;Chiese;0721.31465;;Pesaro;Chiesa dei Ss. Cassiano e Eracliano;208;Interno della Chiesa dei Ss. Cassiano e Eracliano;Via XI Settembre;
;13.8579;http://www.visit.marche.it/Portals/1/Immagini/Chiese/Cupra-Marittima_Presepe-.jpg;43.0217;;Chiese;;;Cupra Marittima;Chiesa dell'Annunziata;209;Presepe Poliscenico permanente all?interno della Chiesa della Santissima Annunziata;Via Castello;
;13.8577;http://www.visit.marche.it/Portals/1/Immagini/Chiese/Cupramarittima_chiesdisanbasso.jpg;43.0249;;Chiese;;;Cupra Marittima;Chiesa di S. Basso;210;Facciata della Chiesa di S. Basso;Via Roma;
;13.8778;http://www.visit.marche.it/Portals/1/Immagini/Chiese/SanBenedetto_Marina.jpg;42.9522;;Chiese;;;San Benedetto del Tronto;Cattedrale della Madonna della Marina;211;Facciata della Chiesa della Madonna della Marina;Piazza Nardone;
;13.8802;http://www.visit.marche.it/Portals/1/Immagini/Chiese/San_Benedetto_del_Tronto_S_Giuseppe.jpg;42.9508;;Chiese;;;San Benedetto del Tronto;Chiesa di S. Giuseppe;212;Facciata della Chiesa di S. Giuseppe;Via XX Settembre;
;13.8683;http://www.visit.marche.it/Portals/1/Immagini/Chiese/Grottammare_pio.jpg;42.9912;;Chiese;;;Grottammare;Chiesa di S. Pio V;213;Facciata della Chiesa di S. Pio V;Piazza San Pio V;
;13.8663;http://www.visit.marche.it/Portals/1/Immagini/Chiese/Grottammare_GiovanniEst.jpg;42.9955;;Chiese;;;Grottammare;Chiesa di S. Giovanni Battista;214;Facciata della Chiesa di S. Giovanni Battista;Piazza Peretti;
;13.2163;http://www.visit.marche.it/Portals/1/Immagini/Chiese/Senigallia_Maddalena_.jpg;43.7127;;Chiese;;;Senigallia;Chiesa della Maddalena;215;Facciata della Chiesa della Maddalena;Via Cavallotti gia' Via del Ricovero;
;13.2183;http://www.visit.marche.it/Portals/1/Immagini/Chiese/Senigallia_Carmine_.jpg;43.7142;;Chiese;;;Senigallia;Chiesa della Madonna del Carmine e di S. Biagio;216;Facciata della;Via Arsilli;
tra 24 e 26;13.2159;http://www.visit.marche.it/Portals/1/Immagini/Chiese/Senigallia_fotoimmacolata1.jpg;43.7148;;Chiese;;;Senigallia;Chiesa dell'Immacolata;217;Facciata della Chiesa dell'Immacolata;Via F.lli Bandiera;
s.n.c.;13.1863;http://www.visit.marche.it/Portals/1/Immagini/Chiese/Senigallia_Grazie.jpg;43.7055;;Chiese;;;Senigallia;Chiesa di S. Maria delle Grazie;218;Facciata della Chiesa di Santa Maria delle Grazie;Strada delle Grazie;
;12.7741;http://www.visit.marche.it/Portals/1/Immagini/Chiese/Gradara_Battista.jpg;43.9425;;Chiese;;;Gradara;Chiesa di S. Giovanni Battista;219;Facciata della Chiesa di S. Giovanni Battista;;
;12.9123;http://www.visit.marche.it/Portals/1/Immagini/Chiese/Pesaro_Giuseppe.jpg;43.9079;;Chiese;;;Pesaro;Chiesa di S. Giuseppe;220;Chiesa di S. Giuseppe;Via Diaz;
s.n.c.;12.8056;http://www.visit.marche.it/Portals/1/Immagini/Chiese/Casteldimezzo_Apollinare.jpg;43.9574;;Chiese;;;Pesaro;Chiesa di S. Apollinare e S. Cristoforo;221;Chiesa di S. Apollinare e S. Cristoforo;Piazza della Chiesa;
;12.6363;http://www.visit.marche.it/Portals/1/Immagini/Chiese/Urbino_chiesasspirito.jpg;43.7279;;Chiese;;;Urbino;Chiesa di S. Spirito;222;Chiesa di S. Spirito;Via Bramante;
;12.6352;http://www.visit.marche.it/Portals/1/Immagini/Chiese/UrbinoChiesaS_Francesco.jpg;43.7274;;Chiese;0722.328764;;Urbino;Chiesa di S. Francesco;223;Chiesa di S. Francesco;Via Raffaello;
;12.3599;http://www.visit.marche.it/Portals/1/Immagini/Chiese/Frontino_Montefiorentino.jpg;43.7566;;Chiese;0722.71202;www.pesaroeurbino.info;Frontino;Convento di Montefiorentino;224;Madonna col Bambino e santi, particolare;Località Montefiorentino;uff.turismo@cm-carpegna.ps.it
s.n.c.;12.6377;http://www.visit.marche.it/Portals/1/Immagini/Chiese/Urbino_Girolamo.jpg;43.7227;;Chiese;;;Urbino;Chiesa di S. Girolamo;225;Chiesa di S. Girolamo;Via S. Girolamo;
s.n.c.;12.6264;http://www.visit.marche.it/Portals/1/Immagini/Chiese/Urbino_Cappuccini.jpg;43.7195;;Chiese;;;Urbino;Chiesa dei Cappuccini;226;Chiesa dei Cappuccini;Via Nazionale di Bocca Trabaria;
;12.9697;http://www.visit.marche.it/Portals/1/Immagini/Chiese/Mondavio_Francesco.jpg;43.6739;;Chiese;;;Mondavio;Chiesa di S. Francesco;227;Facciata della Chiesa di S. Francesco;;
;12.9702;http://www.visit.marche.it/Portals/1/Immagini/Chiese/Mondavio_Pietro.jpg;43.6744;;Chiese;;;Mondavio;Chiesa dei Ss. Pietro e Paterniano;228;Scorcio della facciata della Chiesa dei Ss. Pietro e Paterniano;;
;12.9779;http://www.visit.marche.it/Portals/1/Immagini/Chiese/Mondavio_Quercia.jpg;43.6664;;Chiese;;;Mondavio;Chiesa di S. Maria della Quercia;229;Facciata della Chiesa di S. Maria della Quercia;;
s.n.c.;13096;http://www.visit.marche.it/Portals/1/Immagini/Chiese/Mondolfo_Giustina.jpg;43.7514;;Chiese;;;Mondolfo;Chiesa di S. Giustina;230;Interno della Chiesa di S. Giustina;Via XX Settembre;
1;13.0966;http://www.visit.marche.it/Portals/1/Immagini/Chiese/Mondolfo_Giovanni.jpg;43.7523;;Chiese;;;Mondolfo;Oratorio di S. Giovanni Decollato;231;Facciata dell'Oratorio di San Giovanni Decollato;via F.lli Rosselli;
;13.0997;http://www.visit.marche.it/Portals/1/Immagini/Chiese/Mondolfo_Sebastiano.jpg;43.7451;;Chiese;;;Mondolfo;Chiesa di S. Sebastiano;232;Chiesa conventuale di S. Sebastiano;;
;13.0169;http://www.visit.marche.it/Portals/1/Immagini/Chiese/Chiesa_Santa_Maria_del_Suffragio.jpg;43.8449;;Chiese;;;Fano;Chiesa e Confraternita del Suffragio;233;Facciata della Chiesa del Suffragio;Piazza Cleofilo;
;12.9047;http://www.visit.marche.it/Portals/1/Immagini/Chiese/Fabriano_Cuore.jpg;43.3347;;Chiese;;;Fabriano;Chiesa del Sacro Cuore di Gesu';234;Particolare della volta affrescata della Chiesa del Sacro Cuore di Gesu';Via Gioberti;
;13.2401;http://www.visit.marche.it/Portals/1/Immagini/Chiese/Jesi_MadonnaGrazie.jpg;43521;;Chiese;;;Jesi;Santuario della Madonna delle Grazie;235;Santuario della Madonna delle Grazie;Via Madonna delle Grazie;
;13.6886;http://www.visit.marche.it/Portals/1/Immagini/Chiese/Cossignao_Annunziata1.jpg;42.9841;;Chiese;;;Cossignano;Chiesa della SS. Annunziata;236;Particolare degli affreschi;;
;13.8668;http://www.visit.marche.it/Portals/1/Immagini/Chiese/GrottammareAlta_Agostino.jpg;42.9942;;Chiese;;;Grottammare;Chiesa di S. Agostino;237;Particolare del campanile della Chiesa di S. Agostino;;
;13.5723;http://www.visit.marche.it/Portals/1/Immagini/Chiese/Ascoli_Annunziata.jpg;42852;;Chiese;;;Ascoli Piceno;Chiesa del Monastero della SS. Annunziata (sconsacrata);238;Interno della Chiesa del Monastero della SS. Annunziata;Viale della Rimembranza;
4;13.6076;http://www.visit.marche.it/Portals/1/Immagini/MonasteriConventi/Ortezzano_Soccorso.jpg;43.0315;;Chiese;0734.779181;http://80.19.92.5/cds/MO_mona/iti/visitare/7353.html;Ortezzano (FM);Chiesa di Santa Maria del Soccorso;239;Chiesa di Santa Maria del Soccorso;Piazza Umberto I;
;13.5973;http://www.visit.marche.it/Portals/1/Immagini/Chiese/MonteSanGiusto_7.jpg;43233;Tutti i giorni 9.00-12.00 e 16.00-19.00.;Chiese;0733.53354/839006;www.sistemamuseale-mc.it;Monte San Giusto;Chiesa di S. Maria della Pietà in Telusiano;240;Particolare della Crocifissione di Lorenzo Lotto;Via Tolomei;info@sistemamuseale-mc.it
;13.6809;http://www.visit.marche.it/Portals/1/Immagini/Chiese/Civitanova_Francesco.jpg;43316;;Chiese;0733.891019 / 890696;;Civitanova Marche;Chiesa di S. Francesco;241;Facciata della Chiesa di S. Francesco;Piazza della Libertà;
17;13.6733;http://www.visit.marche.it/Portals/1/Immagini/Chiese/Civitanova_Cappuccini2.jpg;43.3223;orario per il culto;Chiese;0733.892408;www.fraticappuccini.org;Civitanova Marche;Chiesa di S. Giovanni Battista (detta anche Chiesa dei Padri Cappuccini);242;Particolare dell'esterno della Chiesa di S. Giovanni Battista;Via delle Grazie;
;13.6199;http://www.visit.marche.it/Portals/1/Immagini/Chiese/PotenzaPicena_Tommaso.jpg;43.3661;;Chiese;;;Potenza Picena;Chiesa di S. Tommaso Apostolo;243;Ingresso della Chiesa di S. Tommaso Apostolo;Via Marefoschi;
;13.2163;http://www.visit.marche.it/Portals/1/Immagini/Chiese/Senigallia_porto.jpg;43.7169;;Chiese;;;Senigallia;Chiesa di S. Maria del Ponte al Porto;244;Facciata della Chiesa di S. Maria del Ponte al Porto;Piazza S. Maria del Porto;
5;13.4032;http://www.visit.marche.it/Portals/1/Immagini/MonasteriConventi/Amandola_RuffinoVitale_Chiesa1.jpg;43.0078;;Chiese;0736.847406 (Parroco Padre Benedetto Tosolini);http://www.abbaziasanruffino.it;Amandola (FM);Chiesa dei Ss. Ruffino e Vitale;245;Chiesa dei Ss. Ruffino e Vitale;Via Passari, C.da San Ruffino;ben@abbaziasanruffino.it
;13.0101;http://www.visit.marche.it/Portals/1/Immagini/Chiese/Matelica_Filippo1.jpg;43.2561;;Chiese;;;Matelica;Chiesa di S. Filippo;246;Facciata della Chiesa di S. Filippo;Via Guglielmo Oberdan;
;12958;http://www.visit.marche.it/Portals/1/Immagini/Chiese/Arcevia_Martino.jpg;43.4971;;Chiese;;;Arcevia;Chiesa di S. Martino;247;Chiesa di S. Martino;Strada Vicinale di S.Martino;
;12.9044;http://www.visit.marche.it/Portals/1/Immagini/Chiese/Fabriano_Caterina.jpg;43.3376;;Chiese;;;Fabriano;Chiesa di S. Caterina Martire;248;Facciata principale della Chiesa di S. Caterina Martire;Via S. Caterina;
;13512;http://www.visit.marche.it/Portals/1/Immagini/Chiese/Ancona_Gregorio_.jpg;43.6252;;Chiese;;;Ancona;Chiesa di S. Gregorio Illuminatore;249;Facciata della Chiesa di S. Gregorio Illuminatore, dopo il restauro;Via Giuseppe Birarelli;
92;13.7273;http://www.visit.marche.it/Portals/1/Immagini/Chiese/Civitanova_Re.jpg;43312;orario per il culto;Chiese;0733.812766 / 812842;www.chiesainrete.it;Civitanova Marche;Chiesa di Cristo Re;250;Complesso del Cristo Re;Via Matteotti;
;13.7408;http://www.visit.marche.it/Portals/1/Immagini/Chiese/PortoElpidio_Santuario-Santa-Maria-della-Corva.jpg;43.2576;;Chiese;;;Porto Sant'Elpidio (FM);Chiesa dell'Addolorata (detto anche Santuario Santa Maria della Corva);251;Santuario Santa Maria della Corva;Piazza Sacro Cuore;
;13.1065;http://www.visit.marche.it/Portals/1/Immagini/Chiese/CastelColonna_Mauro_ext.jpg;43.6787;;Chiese;;;Castel Colonna;Chiesa di S. Mauro;252;Facciata della Chiesa di S. Mauro;Via Umberto I;
14;13.1132;http://www.visit.marche.it/Portals/1/Immagini/Chiese/CastelColonna_Misericordia_ext.jpg;43.7032;;Chiese;;;Castel Colonna;Chiesa di Francavilla;253;Prospetto principale della Chiesa di Francavilla;Via Francavilla;
1;12.8995;http://www.visit.marche.it/Portals/1/Immagini/Chiese/Fabriano_ChiesaMaddalena.jpg;43.3311;Dal lunedì al venerdì 9.30-12.00 e 15.30-19.00. Sabato 9.30-12.00. Chiusa la domenica.;Chiese;0732.3396;www.fabrianoturismo.it;Fabriano;Fabriano - Chiesa di S. Maria Maddalena;254;La Maddalena Penitente;Piazzale S. Maria Maddalena 1;iat.fabriano@provincia.ancona.it
;13.0065;http://www.visit.marche.it/Portals/1/Immagini/Chiese/Fabriano_Piano_Castelletta.jpg;43.4026;;Chiese;;;Fabriano;Chiesa di S. Maria del Piano;255;Facciata principale della Chiesa di S. Maria del Piano;Castelletta;
;12856;http://www.visit.marche.it/Portals/1/Immagini/Chiese/Fabriano_Francesco_Camporege.jpg;43.3097;;Chiese;;;Fabriano;Chiesa di S. Francesco;256;Chiesa di San Francesco (ex San Leonardo e Trinità);Camporege;
16;13.4877;http://www.visit.marche.it/Portals/1/Immagini/Chiese/Ancona_Liberatrice.jpg;43.6018;;Chiese;;;Ancona;Chiesa di S. Maria Liberatrice;257;Chiesa di S. Maria Liberatrice;Via Posatora;
;12.9281;http://www.visit.marche.it/Portals/1/Immagini/Chiese/Arcevia_Grazie.jpg;43.5018;;Chiese;;;Arcevia;Santuario di S. Maria delle Grazie;258;Vista generale del Santuario di S. Maria delle Grazie;Strada Provinciale Arceviese;
;12.9447;http://www.visit.marche.it/Portals/1/Immagini/Chiese/Arcevia_Giovannifuori.jpg;43.5009;;Chiese;;;Arcevia;Chiesa di S. Giovanni Battista fuori le mura;259;Chiesa di S. Giovanni Battista fuori le mura;Via S. Giovanni Battista;
;12947;http://www.visit.marche.it/Portals/1/Immagini/Chiese/Arcevia_Renali1.jpg;43.5031;;Chiese;;;Arcevia;Chiesa della Madonna dei Renali;260;Santuario della Madonna dei Renali;Via S. Giovanni Battista;
;13.7397;http://www.visit.marche.it/Portals/1/Immagini/Chiese/Moresco_Olmo.jpg;43.0852;;Chiese;;;Moresco (FM);Chiesa di S. Maria dell' Olmo;261;Prospetto principale della Chiesa di S. Maria dell'Olmo;Contrada Tredico;
;12.8723;http://www.visit.marche.it/Portals/1/Immagini/Chiese/Cartoceto_RestiBiagio.jpg;43.7785;;Chiese;;;Cartoceto;Resti della Chiesa di S. Biagio e S. Cesareo;262;Resti della Chiesa di S. Biagio e S. Cesareo;Via Castello di Ripalta;
;13.7585;http://www.visit.marche.it/Portals/1/Immagini/Chiese/PortoElpidio_Annunziata_int.jpg;43.2582;;Chiese;;;Porto Sant'Elpidio (FM);Chiesa della SS. Annunziata;263;Interno della Chiesa della SS. Annunziata;Corso Umberto I;
;13.7939;http://www.visit.marche.it/Portals/1/Immagini/Chiese/PortoSanGiorgio_Anime.jpg;43.1799;;Chiese;;;Porto San Giorgio (FM);Chiesa delle Anime Sante;264;Facciata della Chiesa delle Anime Sante;Via Giordano Bruno;
;12.8226;http://www.visit.marche.it/Portals/1/Immagini/Chiese/Fiorenzuola_Andrea.JPG;43.9493;;Chiese;0721.208188;;Pesaro;Chiesa di S. Andrea Apostolo;265;Chiesa di S. Andrea Apostolo;Via Aurelio Antonelli;
;12.7716;http://www.visit.marche.it/Portals/1/Immagini/Chiese/Gabicce_Ermete.JPG;43.9633;;Chiese;;;Gabicce Mare;Chiesa di S. Ermete Martire;266;Complesso della Chiesa di S. Ermete Martire;Strada Provinciale Panoramica Monte S. Bartolo;
;13.8777;http://www.visit.marche.it/Portals/1/Immagini/Chiese/SanBenedetto_Lucia.jpg;42.9377;;Chiese;;;San Benedetto del Tronto;Chiesa di S. Lucia;267;Facciata della Chiesa di S. Lucia;Via S. Lucia;
;13.6295;http://www.visit.marche.it/Portals/1/Immagini/Chiese/Portorecanati_Banderuola.jpg;43.4517;;Chiese;;;Porto Recanati;Chiesa della Banderuola;268;Chiesa della Banderuola;S. C. della Banderuola;
;13.2137;http://www.visit.marche.it/Portals/1/Immagini/Chiese/MorroAlba_Gaudenzio.jpg;43.6013;;Chiese;;;Morro d'Alba;Chiesa di S. Gaudenzio;269;Interno della Chiesa di S. Gaudenzio;Piazza Romagnoli;
2;12.63;;43.7292;;Chiese;;;Urbino;Chiesa della SS. Annunziata;270;;Via O. Nelli;
60;13.4766;http://www.visit.marche.it/Portals/1/Immagini/Chiese/MassaFermana_ChiesaSanLorenzo.jpg;43.1507;Dal lunedì al venerdì durante l?orario di ufficio.;Chiese;0734.760258;www.comunemassafermana.it;Massa Fermana (FM);Chiesa dei Ss. Lorenzo, Silvestro e Ruffino;271;Particolare del Polittico di Carlo Crivelli;Via Garibaldi;info@comunemassafermana.it
18;13.4052;http://www.visit.marche.it/Portals/1/Immagini/MonasteriConventi/Tolentino_Chiesa.jpg;43.2219;;Chiese;0733.202190;www.monacifiastra.it;Tolentino;Chiesa di S. Maria di Chiaravalle di Fiastra;272;Chiesa di S. Maria di Chiaravalle di Fiastra;Contrada Abbadia di Fiastra;monacifiastra@gmail.com
;12.9773;http://www.visit.marche.it/Portals/1/Immagini/Chiese/Castelleone_Pietro.jpg;43.6088;;Chiese;;;Castelleone di Suasa;Chiesa dei Ss. Pietro e Paolo;273;Facciata in stile romanico della Chiesa dei Ss. Pietro e Paolo;Via Ospedale;
;12.9467;http://www.visit.marche.it/Portals/1/Immagini/Chiese/SanLorenzoInCampo_Francesco.jpg;43.6049;;Chiese;;;San Lorenzo in Campo;Chiesa di S. Francesco;274;Chiesa di S. Francesco in frazione di  San Vito sul Cesano;Piazza S. Francesco;
1;13.6096;http://www.visit.marche.it/Portals/1/Immagini/Chiese/Loreto_066T.jpg;43.4409;;Chiese;+39.071.970104;www.santuarioloreto.it;Loreto;Loreto e la Santa Casa;275;Veduta della Basilica di Loreto;Piazza della Madonna;santuarioloreto@tin.it
1;13.2854;http://www.visit.marche.it/Portals/1/Immagini/Chiese/Tolentino.jpg;43208;;Chiese;+39.0733.976311;www.sannicoladatolentino.it;Tolentino;La Basilica di S. Nicola di Tolentino;276;Facciata della Basilica;Piazza San Nicola;agostiniani@sannicoladatolentino.it
2;13.1622;http://www.visit.marche.it/Portals/1/Immagini/Chiese/Ostra_MadonnaRosa_00048098ft02.jpg;43618;;Chiese;071.68027;www.madonnadellarosa.it;Ostra;Santuario Madonna della Rosa;277;Facciata del Santuario;Via dell'Incoronata;info@madonnadellarosa.it
s.n.c.;13.3415;http://www.visit.marche.it/Portals/1/Immagini/Chiese/Montefortino_Ambro00048448ft01.jpg;42.9424;;Chiese;0736.859115;http://www.madonnadellambro.it/;Montefortino (FM);Montefortino - Santuario della Madonna dell?Ambro;278;Prospetto principale;Piazza del Santuario;info@madonnadellambro.it
1;13.6102;http://www.visit.marche.it/Portals/1/Immagini/Chiese/Loreto_SantaCasa_Signorelli.jpg;43441;Aprile-Settembre dalle ore 6.00 alle 20.00 Ottobre-Marzo dalle ore 6.15 alle 19.30. La Santa Casa rimane chiusa tutti i giorni dalle 12.30 alle 14.30.;Chiese;071.9747155;www.santuarioloreto.it;Loreto;Sagrestia di S. Giovanni, Basilica S. Casa;279;Particolare della volta della Sagrestia di San Giovanni;Piazza della Madonna;sacrestia@delegazioneloreto.it
1;13.6102;http://www.visit.marche.it/Portals/1/Immagini/Chiese/Loreto_SantaCasa_Melozzo.jpg;43441;Aprile-Settembre dalle ore 6.00 alle 20.00 Ottobre-Marzo dalle ore 6.15 alle 19.30. La Santa Casa rimane chiusa tutti i giorni dalle 12.30 alle 14.30.;Chiese;071.9747155;www.santuarioloreto.it;Loreto;Sagrestia di S. Marco, Basilica S. Casa;280;Particolare della volta della Sagrestia di San Marco;Piazza della Madonna;sacrestia@delegazioneloreto.it
;12.8359;http://www.visit.marche.it/Portals/1/Immagini/Chiese/Pergola_CappellaPalazzolo.jpg;43.5541;;Chiese;0721 7373274;www.prolocopergola.it;Pergola;Cappella del Palazzolo;281;Particolare degli affreschi della Cappella del Palazzolo;V.le Dante località Palazzolo;prolocopergola@valcesano.com
31;12.6345;http://www.visit.marche.it/Portals/1/Immagini/Chiese/Urbino_OratorioSanGiovanni.jpg;43.7256;Da lunedì a sabato 10.00-12.30 e 15-17.30. Domenica e festivi 10.00-12.30.;Chiese;347.6711181;www.artuvisite.com/oratorio_di_san_giovanni_battista;Urbino;Urbino - Oratorio di San Giovanni Battista;282;Affreschi dell'Oratorio di San Giovanni, particolare;Via F. Barocci;info@artuvisite.com
184;12.9084;http://www.visit.marche.it/Portals/1/Immagini/Chiese/Pesaro_Suffragio.jpg;43912;;Chiese;0721.387651;www.centroartivisivepescheria.it;Pesaro;Chiesa del Suffragio;283;Chiesa del Suffragio;Corso XI settembre;centroartivisive@comune.pesaro.pu.it
;12.9079;http://www.visit.marche.it/Portals/1/Immagini/Chiese/Pesaro_scala.JPG;43914;;Chiese;0721.31978;;Pesaro;Chiesa di santa Maria della Scala;284;Particolare dell'organo della Chiesa di santa Maria della Scala;piazza Doria;parrocchiadelporto@libero.it
23;12.6377;http://www.visit.marche.it/Portals/1/Immagini/Chiese/Urbino_Croce.jpg;43.7235;;Chiese;0722.2613 (I.a.t);;Urbino;Oratorio della Santa Croce;285;Oratorio della Santa Croce;Via S. Chiara;iat.urbino@regione.marche.it
5;;http://www.visit.marche.it/Portals/1/Immagini/Chiese/Urbino_Grotta.jpg;;;Chiese;0722.2613 (I.a.t);;Urbino;Oratorio della Grotta;286;Ingresso all'Oratorio della Grotta;Piazza Duca Federico;iat.urbino@regione.marche.it
31;12.9056;http://www.visit.marche.it/Portals/1/Immagini/Chiese/Fabriano_oratorio_della_carita.jpg;43.3363;Sabato dalle 16.00 alle 18.30 e la domenica dalle 10.00 alle 12.30 e dalle 16.00 alle 18.30;Chiese;0732.709223 Ufficio Cultura;;Fabriano;Oratorio di S. Maria della Carità;287;Ciclo di affreschi all'interno dell'Oratorio di S. Maria della Carità;Via Cesare Battisti;cultura@comune.fabriano.an.it
s.n.c.;12.9019;http://www.visit.marche.it/Portals/1/Immagini/Chiese/Fabriano_oratorio-del-gonfalone-small.jpg;43.3346;;Chiese;0732.625067 (I.A.T.);;Fabriano;Oratorio di S. Maria Annunziata del Gonfalone;288;Interno dell'Oratorio di S. Maria Annunziata del Gonfalone;Via Damiano Chiesa;
138;12.9067;http://www.visit.marche.it/Portals/1/Immagini/Chiese/Fabriano_oratbecchetti.jpg;43.3398;;Chiese;;;Fabriano;Oratorio dei Beati Becchetti;289;Altare del Monte Calvario nell'Oratorio dei Beati Becchetti;Via Ramelli;
;12904;http://www.visit.marche.it/Portals/1/Immagini/Chiese/Fabriano_loggiato_san_francesco.jpg;43.3363;;Chiese;;;Fabriano;Loggiato del Convento di S. Francesco;290;Loggiato del Convento di S. Francesco;Piazza della Repubblica;
;13.2439;http://www.visit.marche.it/Portals/1/Immagini/Chiese/Jesi_Chiesa-di-San-Nicolo-sec.jpg;43.5222;;Chiese;0731.538420 Ufficio Turismo;;Jesi;Chiesa di S. Nicolò;291;;Piazza Cairoli;turismo@comune.jesi.an.it
;13.5789;http://www.visit.marche.it/Portals/1/Immagini/Chiese/Ascoli_Battistero.jpg;42.8538;;Chiese;;;Ascoli Piceno;Battistero di S. Giovanni;292;Barristero su Piazza Arrigo;Piazza Arringo;
s.n.c.;13.5691;http://www.visit.marche.it/Portals/1/Immagini/Chiese/Ascoli_TempiettoEmidioRosso.jpg;42.8593;;Chiese;;;Ascoli Piceno;Tempietto di S. Emidio Rosso;293;Tempietto di S. Emidio Rosso;Via di S. Emidio Rosso;
;;http://www.visit.marche.it/Portals/1/Immagini/Chiese/Mondolfo_Agostino.jpg;;;Chiese;;;Mondolfo;Chiesa di Sant'Agostino;294;Chiesa di Sant'Agostino;;
s.n.c.;13.6217;http://www.visit.marche.it/Portals/1/Immagini/Chiese/Numana_Crocifisso.jpg;43.5136;;Chiese;071.9331026;;Numana;Chiesa del SS Crocifisso;295;Prospetto principale della Chiesa del SS Crocifisso sulla Piazza;Piazza Santuario;
1-2;12295;http://www.visit.marche.it/Portals/1/Immagini/Chiese/BorgoPace_MariaNuova.jpg;43.6577;;Chiese;;;Borgo Pace;Chiesa di Santa Maria Nuova;296;Prospetto della Chiesa di Santa Maria Nuova;Via delle Mura;
;12953;http://www.visit.marche.it/Portals/1/Immagini/Chiese/Genga_Saxa1.jpg;43.4031;;Chiese;;;Genga;Eremo di Santa Maria Infra Saxa;297;Eremo di Santa Maria Infra Saxa all'interno della Gola di Frasassi;;
;13.3278;http://www.visit.marche.it/Portals/1/Immagini/MonasteriConventi/CHIARAVALLE_ABBAZIA.jpg;43.6006;;Monasteri e conventi;071.94350;www.parrocchiachiaravalle.it;Chiaravalle;Chiesa di S. Maria in Castagnola;300;Chiesa di S. Maria in Castagnola;Piazza Garibaldi;
;12.9707;http://www.visit.marche.it/Portals/1/Immagini/MonasteriConventi/Genga_SanVittore_05.jpg;43.4022;;Monasteri e conventi;0732/3049/90241;http://80.19.92.5/cds/MO_mona/iti/visitare/7338.html;Genga;Abbazia di san Vittore delle Chiuse;301;Complesso dell'Abbazia di san Vittore delle Chiuse;Via S. Vittore;
;13.1843;http://www.visit.marche.it/Portals/1/Immagini/MonasteriConventi/MonteRoberto_Apollinare_copia.jpg;43.4836;;Monasteri e conventi;0731.702619 / 333.1708406 don Gianni Piersimoni;;Monte Roberto;Abbazia di S. Apollinare;302;Chiesa parrocchiale abbaziale di S. Apollinare;Via S. Apollinare;
s.n.c;13.5169;http://www.visit.marche.it/Portals/1/Immagini/MonasteriConventi/Corridonia_69 copia.JPG;43.2841;;Monasteri e conventi;0733.439901;;Corridonia;San Claudio al Chienti;303;San Claudio al Chienti;Contrada S. Claudio;cultura.sport@corridonia.sinp.net
;13.55;http://www.visit.marche.it/Portals/1/Immagini/MonasteriConventi/Montelupone_Gatta_2013_8003120_copia.jpg;43363;;Monasteri e conventi;0733.228055;http://web.tiscali.it/sanfirmano/;Montelupone;San Firmano;304;San Firmano, la Cripta;Via S. Firmano;
;13.3122;http://www.visit.marche.it/Portals/1/Immagini/MonasteriConventi/Pollenza_8.jpg;43.2658;"Dal Lunedì al Venerdì: 16:00 - 19:30; Sabato e Domenica: 10:00 - 12:00 e 15:00 - 19:30";Monasteri e conventi;Don Giuseppe 368.7162337 o T. Feliziani 335.442496;www.cartacanta.org/pollenza/rambona/index.htm;Pollenza;Abbazia di Santa Maria di Rambona;305;Absidi dell'Abbazia di Santa Maria di Rambona;S. C. di Rambona;info@cartacanta.org
12;12.9059;http://www.visit.marche.it/Portals/1/Immagini/MonasteriConventi/Fabriano_ConventoBiagioRomualdo.jpg;43.3368;;Monasteri e conventi;0732.625067 I.A.T. Fabriano;;Fabriano;Convento dei Ss. Biagio e Romualdo;306;Chiostro del Convento dei Ss. Biagio e Romualdo;Piazza Manin;iat.fabriano@regione.marche.it
36;12906;http://www.visit.marche.it/Portals/1/Immagini/MonasteriConventi/Fabriano_Luca.jpg;43.3386;;Monasteri e conventi;0732.21762;http://old.teologhe.org/sanluca/;Fabriano;Monastero di San Luca;307;Cortile Interno del Monastero di San Luca;Via A. Saffi;benedettine@teologhe.org
;12.8707;http://www.visit.marche.it/Portals/1/Immagini/MonasteriConventi/Fabriano_Biagio.jpg;43.2326;;Monasteri e conventi;0732.625067 (I.A.T.) / 249466 Monaci Benedettini;www.sanbiagioincaprile.it;Fabriano;Abbazia di S. Biagio in Caprile;308;Abbazia di S. Biagio in Caprile;Località Campodonico;iat.fabriano@regione.marche.it
;12.8111;http://www.visit.marche.it/Portals/1/Immagini/MonasteriConventi/Fabriano_Cassiano.jpg;43.3345;;Monasteri e conventi;0732.625067 I.A.T. Fabriano;www.fabrianostorica.it/abbazie/sancassiano.htm;Fabriano;Monastero di S. Cassiano in Val Bagnola (sec. XII);309;Chiesa di S. Cassiano in Val Bagnola (sec. XII);Val Bagnola, Fraz. San Cassiano;iat.fabriano@regione.marche.it
63;12.8674;http://www.visit.marche.it/Portals/1/Immagini/MonasteriConventi/Sassoferrato_chiesa_s_croce.jpg;43.4312;;Monasteri e conventi;0732.956205-218 oppure 338.4033204-347.3619286;http://80.19.92.5/cds/MO_mona/iti/visitare/7339.html;Sassoferrato;Abbazia di Santa Croce dei Conti;310;Abbazia di Santa Croce dei Conti;Strada Vicinale di S.Croce;info@comune.sassoferrato.an.it oppure prosassoferrato@tin.it
;13.2871;http://www.visit.marche.it/Portals/1/Immagini/MonasteriConventi/Tolentino_san-catervo.jpg;43.2106;;Monasteri e conventi;0733.972446 (Don Frediano Salvucci);;Tolentino;San Catervo;311;San Catervo di notte;Viale Cesare Battisti;
67;12.6974;http://www.visit.marche.it/Portals/1/Immagini/MonasteriConventi/Acqualagna_Furlo.jpg;43.6357;;Monasteri e conventi;0721.700016/700032(Don Renato)/700152(Martellani);http://80.19.92.5/cds/MO_mona/iti/visitare/7366.html;Acqualagna;Abbazia di S. Vincenzo al Furlo;312;Facciata dell'Abbazia di S. Vincenzo al Furlo;Via Pianacce;
7;12256;http://www.visit.marche.it/Portals/1/Immagini/MonasteriConventi/BorgoPace_Michele.jpg;43.6226;;Monasteri e conventi;0722.80133 (Sonia);http://80.19.92.5/cds/MO_mona/iti/visitare/7361.html;Borgo Pace;Abbazia di S. Michele Arcangelo;313;Veduta dell'abbazia di S. Michele Arcangelo;Via dell?Abbazia, loc. Lamoli;lamoli@oasisanbenedetto.it
37;12.7652;http://www.visit.marche.it/Portals/1/Immagini/MonasteriConventi/Montelabbate_Tommaso.jpg;43.8409;;Monasteri e conventi;0721.490706;;Montelabbate;Abbadia di S. Tommaso in Foglia;314;Facciata dell'Abbadia di S. Tommaso in Foglia;Via Apsella;
;12.5405;http://www.visit.marche.it/Portals/1/Immagini/MonasteriConventi/CagliAbbazia_di_Massa.jpg;43.5195;;Monasteri e conventi;0721.780773 Ufficio Informazioni Turistiche;;Cagli;Abbazia di S. Pietro di Massa;315;Abbazia di S. Pietro di Massa;Strada Pianello-Molino dei Cerri;info@cagliturismo.it
;12.5811;http://www.visit.marche.it/Portals/1/Immagini/MonasteriConventi/Cagli_Naro.jpg;43.6014;;Monasteri e conventi;G. Belpassi 0721.708174, Don Nazzareno 333.5959296;http://80.19.92.5/cds/MO_mona/iti/visitare/7364.html;Cagli;Abbazia di Santa Maria Nuova di Naro;316;Chiesa di S. Maria Nuova di Naro;Strade Case Sparse Naro;
4;12.9446;http://www.visit.marche.it/Portals/1/Immagini/MonasteriConventi/SanLorenzoincampo_abbazia.jpg;43.6057;;Monasteri e conventi;0721.776479;www.proloco-sanlorenzo.it;San Lorenzo in Campo;Abbazia di S.Lorenzo in campo;317;Chiesa dell'Abbazia di S.Lorenzo;Via S. Demetrio;info@proloco-sanlorenzo.it
;13.0924;http://www.visit.marche.it/Portals/1/Immagini/MonasteriConventi/SanSeverinoMarche_Fucina.jpg;43.3211;;Monasteri e conventi;0733.638414 (Pro Loco);;San Severino Marche;Cripta della Chiesa di S. Maria di Valle Fucina;318;Santa Maria di Valfucina;Strada vicinale di Elcito;
;13.1386;http://www.visit.marche.it/Portals/1/Immagini/MonasteriConventi/SanSeverinoMarche_Eustachio2.JPG;43.2098;;Monasteri e conventi;0733.638414 (Pro Loco);;San Severino Marche;San Michele e San Eustachio in Domora;319;San Michele e S. Eustachio in Domora;Strada vicinale delle Grotte di San Eustachio;
;13.1949;http://www.visit.marche.it/Portals/1/Immagini/MonasteriConventi/SanSeverino_Mariano2.JPG;43.1941;;Monasteri e conventi;0733.638414 (Pro Loco);;San Severino Marche;San Mariano in valle Fabiana;320;San Mariano in valle Fabiana;S. C. di Colleluce;
26;13.6164;http://www.visit.marche.it/Portals/1/Immagini/MonasteriConventi/Sirolo_SanPietro_NSC_7592.jpg;43.5474;;Monasteri e conventi;071.9330611 (I.A.T Sirolo);;Sirolo;Badia di San Pietro al Conero;321;Abbazia di San Pietro;Via Monte Conero;iat.sirolo@regione.marche.it
;13.3199;http://www.visit.marche.it/Portals/1/Immagini/MonasteriConventi/Filottrano_storaco.jpg;43.4438;;Monasteri e conventi;071.722781 Comune di Filottrano;;Filottrano;Abbazia di S. Maria di Storaco;322;Abbazia di S. Maria di Storaco;Via Storaco;info@comune.filotrano.an.it
;13.1692;http://www.visit.marche.it/Portals/1/Immagini/MonasteriConventi/Acquacanina_Rio.jpg;43.0285;;Monasteri e conventi;0737.52113 (Responsabile Taousi Nadia);;Acquacanina;Abbazia di S. Maria in Rio Sacro;323;Abbazia di S. Maria in Rio Sacro;Strada Comunale di Meriggio;prolocoacquacanina@libero.it
;13.0212;http://www.visit.marche.it/Portals/1/Immagini/MonasteriConventi/Arcevia_piana.jpg;43.5121;;Monasteri e conventi;0731.9444 (Don Sergio Zandri);;Arcevia;Chiesa di S. Maria della Piana;324;Chiesa di S. Maria della Piana;Via Madonna della Piana, Loc. Castiglioni;
;13.2522;http://www.visit.marche.it/Portals/1/Immagini/MonasteriConventi/Jesi_Piano.jpg;43.5184;;Monasteri e conventi;0731.58636;;Jesi;Santa Maria del Piano;325;Chiesa di Santa Maria del Piano;Via S. Maria;
7/ 8;13129;http://www.visit.marche.it/Portals/1/Immagini/MonasteriConventi/maiolati_moie_Maria.jpg;43.5013;;Monasteri e conventi;0731.700286 Don Giovanni Giuliani;http://80.19.92.5/cds/MO_mona/iti/visitare/7341.html;Maiolati Spontini;Abbazia di Santa Maria delle Moie;326;Abbazia di Santa Maria delle Moie;Piazza S. Maria;
34;13.0638;http://www.visit.marche.it/Portals/1/Immagini/MonasteriConventi/SerraSanQuirico_PASQUALINO_elena_est.jpg;43.4621;;Monasteri e conventi;0731.814730 oppure 330.912617;http://80.19.92.5/cds/MO_mona/iti/visitare/7333.html;Serra San Quirico;Abbazia di Sant?Elena;327;Abbazia di Sant?Elena;Strada di S.Elena;info@abbaziasantelena.com
;13.0813;http://www.visit.marche.it/Portals/1/Immagini/MonasteriConventi/Apiro_PASQUALINO_S_URBANO2.JPG;43.4101;;Monasteri e conventi;0733.611131 (Comune di Apiro);http://80.19.92.5/cds/MO_mona/iti/visitare/7359.html;Apiro;Abbazia di S. Urbano sull'Esinante;328;Abbazia di S. Urbano sull'Esinante;;
;13.0735;http://www.visit.marche.it/Portals/1/Immagini/MonasteriConventi/Matelica_Abbazia_di_Roti.jpg;43.2878;;Monasteri e conventi;0737.85671 - 85333;;Matelica;Abbazia di S. Maria de Rotis;329;Abbazia di S. Maria de Rotis;Fraz. Braccano;
31;13.0482;http://www.visit.marche.it/Portals/1/Immagini/MonasteriConventi/Fabriano_Salvatore.jpg;43.3652;;Monasteri e conventi;0732.74017 oppure 338.6128954 Coop. Agricola a.r.l;www.valdicastro.it;Fabriano;Abbazia di S. Salvatore in Valdicastro;330;Esterno dell'Abbazia di S. Salvatore in Valdicastro;Fraz. Poggio San Romualdo, Loc. Valdicastro;
;13.2349;http://www.visit.marche.it/Portals/1/Immagini/MonasteriConventi/Cessapalombo_Salvatore.jpg;43.0672;;Monasteri e conventi;0733.907132 Resp. Giampietro Saracca;;Cessapalombo;Abbazia di S. Salvatore di Rio Sacro o Santa Maria in Insula;331;Abbazia di S. Salvatore di Rio Sacro;;giampietro@cessapalombo.sinp.net
;13.3827;http://www.visit.marche.it/Portals/1/Immagini/MonasteriConventi/SanGinesio_Macchie.jpg;43.1293;;Monasteri e conventi;0733.663171 (Benedetta);;San Ginesio;Abbadia di S. Maria delle Macchie;332;Abbadia di S. Maria delle Macchie;Contrada Macchie;
;13.2698;http://www.visit.marche.it/Portals/1/Immagini/MonasteriConventi/Sarnano_Biagio.jpg;43.0058;;Monasteri e conventi;0733.651136 Don Alfredo Arcangeli (ore pasti);http://80.19.92.5/cds/MO_mona/iti/visitare/7357.html;Sarnano;Abbazia di Santa Maria e San Biagio;333;Abbazia di Santa Maria e San Biagio;Strada Vicinale dell'Abbadia, Loc. Abbadia di Piobbico;
;13.4054;http://www.visit.marche.it/Portals/1/Immagini/MonasteriConventi/123C.jpg;43.2219;;Monasteri e conventi;0733.202942 (Meridiana s.r.l);http://80.19.92.5/cds/MO_mona/iti/visitare/7356.html;Tolentino;Abbazia di S. Maria di Chiaravalle di Fiastra;334;Abbazia di S. Maria di Chiaravalle di Fiastra;Località Abbadia di Fiastra;
;13.6962;http://www.visit.marche.it/Portals/1/Immagini/MonasteriConventi/SantElpidioaMare_SantaCroce.jpg;43.2773;;Monasteri e conventi;;http://www.associazionesantacroce.it/storia.html;Sant'Elpidio a Mare (FM);Chiesa di S. Croce all'Ete;335;Chiesa di Santa Croce al Chienti;Strada Vicinale di S. Croce;info@associazionesantacroce.it
28-24;12.6374;http://www.visit.marche.it/Portals/1/Immagini/Chiese/Urbino_Ex_santChiara.jpg;43.7232;;Monasteri e conventi;;;Urbino;Monastero di S. Chiara;336;Ex Monastero di S. Chiara;Via S. Chiara;
;13.5724;http://www.visit.marche.it/Portals/1/Immagini/Chiese/Ascoli_ConventoAnnunziata.jpg;42.8518;;Monasteri e conventi;;;Ascoli Piceno;Monastero della SS. Annunziata;337;Chiostro grande del Monastero della SS. Annunziata;Viale della Rimembranza;
s.n.c;12.3922;http://www.visit.marche.it/Portals/1/Immagini/MonasteriConventi/Piandimeleto_Mutino.jpg;43.7615;;Monasteri e conventi;0722.721121/721528;http://80.19.92.5/cds/MO_mona/iti/visitare/7363.html;Piandimeleto;Abbazia di S. Maria del Mutino;338;Abbazia di S. Maria del Mutino;Via Monastero;
1;12.7281;http://www.visit.marche.it/Portals/1/Immagini/MonasteriConventi/SerraSantAbbondio_NSM_fontavelle.jpg;43.4714;;Monasteri e conventi;0721.730261;http://80.19.92.5/cds/MO_mona/iti/visitare/7365.html;Serra Sant'Abbondio;Abbazia di Santa Croce di Fonteavellana;339;Veduta generale dell'Abbazia di Santa Croce di Fonteavellana;Via Fonte Avellana, Loc. FonteAvellana;info@fonteavellana.it
90;12.9755;http://www.visit.marche.it/Portals/1/Immagini/Chiese/Fano_Eremo.jpg;43819;;Monasteri e conventi;0721.864090 - Padre Marino;www.eremomontegiove.it;Fano;Eremo di Monte Giove;340;Eremo di Monte Giove;Strada Comunale di Monte Giove, Località Rosciano;info@eremomontegiove.it
71, 73;13.1739;http://www.visit.marche.it/Portals/1/Immagini/MonasteriConventi/SanseverinoMarche_vistageneralelorenzo.jpg;43.2283;;Monasteri e conventi;0733.638414 (I.A.T. San Severino Marche);;San Severino Marche;Monastero di S. Lorenzo in Doliolo;341;Monastero di S. Lorenzo in Doliolo;Via Salimbeni;
s.n.c.;13.2757;http://www.visit.marche.it/Portals/1/Immagini/MonasteriConventi/Montefortino_Eremo.jpg;42922;;Monasteri e conventi;0736.859101 (Comune);http://80.19.92.5/cds/MO_mona/iti/visitare/7351.html;Montefortino (FM);Eremo di S. Leonardo;342;Eremo di San Leonardo al Volubrio;Strada Comunale dello Stretto delle Pisciarelle;
s.n.c.;13.8168;http://www.visit.marche.it/Portals/1/Immagini/MonasteriConventi/MONSAMPOLO_Mauro.jpg;42.8796;;Monasteri e conventi;0735.704116;;Monsampolo del Tronto;Abbazia dei Ss. Benedetto e Mauro sul Tronto;343;Facciata dell'Abbazia dei Ss. Benedetto e Mauro sul Tronto;Strada Comunale di S. Mauro;
;13.3087;http://www.visit.marche.it/Portals/1/Immagini/MonasteriConventi/Amandola_Vincenzo_Chiesa.jpg;42.9757;;Monasteri e conventi;0736.84071 (Comune);;Amandola (FM);Chiesa dei Ss. Vincenzo ed Anastasio;344;Chiesa dei Ss. Vincenzo ed Anastasio;;
;13.6941;http://www.visit.marche.it/Portals/1/Immagini/MonasteriConventi/SantaElpidioaMare_Monastero.jpg;43.2719;;Monasteri e conventi;;http://www.associazionesantacroce.it/storia.html;Sant'Elpidio a Mare (FM);Monastero di S. Croce all'Ete;345;Monastero di S. Croce all'Ete;Strada Vicinale di S. Croce;info@associazionesantacroce.it
;12.8243;http://www.visit.marche.it/Portals/1/Immagini/MonasteriConventi/Fabriano_Appennino.jpg;43.2924;;Monasteri e conventi;0732.625067 I.A.T. Fabriano;www.fabrianostorica.it/abbazie/appennino.htm;Fabriano;Monastero di S. Maria dell'Appennino;346;Ruderi del Monastero di S. Maria dell'Appennino;Monte Maggio, Fraz. Cancelli;iat.fabriano@regione.marche.it
1;13.4354;http://www.visit.marche.it/Portals/1/Immagini/MonasteriConventi/AcquasantaTerme_valledacqua.JPG;42.7729;;Monasteri e conventi;0736.801079;http://www.valledacqua.com/html/monastero.cfm;Acquasanta Terme;Abbazia di San Benedetto in Valledacqua;347;Abbazia di San Benedetto in Valledacqua;Contrada Valledacqua;benedettovalledacqua@yahoo.it
29;12.6388;http://www.visit.marche.it/Portals/1/Immagini/Chiese/Urbino_Chiara_uovo1.JPG;43.7213;;Monasteri e conventi;;;Urbino;Monastero di S. Chiara uovo;348;Facciata del Monastero di S. Chiara uovo;Strada Statale n. 73 bis di Bocca Trabaria;
40;13.3267;http://www.visit.marche.it/Portals/1/Immagini/MonasteriConventi/Chiaravalle_Monastero.jpg;43.6007;;Monasteri e conventi;071.94350;www.parrocchiachiaravalle.it;Chiaravalle;Monastero di S. Maria in Castagnola;349;Monastero di S. Maria in Castagnola;Piazza Garibaldi;
1;12.7295;http://www.visit.marche.it/Portals/1/Immagini/MonasteriConventi/SerraSantAbbondio_NSM_fontavelle.jpg;43.5136;;Monasteri e conventi;+39.0721.730261;www.fonteavellana.it;Serra Sant'Abbondio;L'Eremo di Fonte Avellana e il Monte Catria;350;L'Eremo di Fonte Avellana;Via Fonte Avellana;info@fonteavellana.it
18;13.4054;http://www.visit.marche.it/Portals/1/Immagini/MonasteriConventi/Fiastra_Urbisaglia_A_IV.jpg;43.2219;;Monasteri e conventi;0733.202190;www.abbadiafiastra.net;Tolentino;Tolentino - L'abbazia di S. Maria di Chiaravalle di Fiastra;351;L'abbazia di S. Maria di Chiaravalle di Fiastra;Contrada Abbadia;info.riserva@abbadiafiastra.net
s.n.c;12.6461;http://www.visit.marche.it/Portals/1/Immagini/MonasteriConventi/Fermignano_Cripta_.jpg;43.6762;;Monasteri e conventi;0722.330523;;Fermignano;Abbazia di S. Silvestro in Iscleto;353;Cripta dell'Abbazia di S. Silvestro in Iscleto;Strada Provinciale Metaurense;info@proloco-fermignano.it
s.n.c.;12.8833;;43.7646;;Monasteri e conventi;0721.898123;;Pergola;Abbazia di Santa Maria di Lastreta;354;;Loc. Cartoceto di Pergola;
s.n.c.;13.4936;http://www.visit.marche.it/Portals/1/Immagini/MonasteriConventi/SVittoriainMatenano_AbbaziaS_Vittoria_Matenano.jpg;43.0246;;Monasteri e conventi;0734.780111 (Comune);http://80.19.92.5/cds/MO_mona/iti/visitare/7355.html;Santa Vittoria in Matenano (FM);Priorato di Santa Vittoria in Matenano;355;Priorato di Santa Vittoria in Matenano;Largo S. Vittoria;
5;13.4034;http://www.visit.marche.it/Portals/1/Immagini/MonasteriConventi/Amandola_RuffinoeVitale.jpg;43.0077;;Monasteri e conventi;0736.847406 (Padre Benedetto Tosolini);www.abbaziasanruffino.it;Amandola (FM);Abbazia dei Ss. Ruffino e Vitale;356;Abbazia dei Ss. Ruffino e Vitale;Via Passari, C.da San Ruffino, strada provinciale 239;ben@abbaziasanruffino.it
s.n.c.;13356;http://www.visit.marche.it/Portals/1/Immagini/MonasteriConventi/Amandola_Anastasio.jpg;42.9804;;Monasteri e conventi;0736.84071 (Comune);;Amandola (FM);Abbadia Ss Vincenzo e Anastasio;357;Abbadia Ss Vincenzo e Anastasio;Strada comunale Contrada Badia;
;13.7437;http://www.visit.marche.it/Portals/1/Immagini/MonasteriConventi/Fermo_paludi1.jpg;43.2032;;Monasteri e conventi;0734.68391;;Fermo (FM);San Marco alle Paludi;358;Chiesa abbaziale di San Marco alle Paludi;Via San Marco alle paludi;
;;http://www.visit.marche.it/Portals/1/Immagini/Chiese/Mondolfo_Agostino.jpg;;;Monasteri e conventi;;;Mondolfo;Complesso di Sant'Agostino;359;Complesso Monumentale di S. Agostino;;
66;;http://www.visit.marche.it/Portals/1/Immagini/Spiritualita/Fabriano_Carmenati.jpg;;;Monasteri e conventi;+39.0732.21631;www.silvestrini.org;Fabriano;Eremo di S. Silvestro;360;Monaco nella Biblioteca del Monastero di San Silvestro;Via di San Silvestro Abate;sansilvestro@silvestrini.org
4;;http://www.visit.marche.it/Portals/1/Immagini/Spiritualita/Montefano_CentroStudi.jpg;;;Monasteri e conventi;0733.852760;www.studibiblici.it;Montefano;Centro Studi Biblici ?Giovanni Vannucci?;361;Interni del Centro Studi Biblici ?Giovanni Vannucci?;Via dei Servi;centro.bib@tin.it
90;;;;;Monasteri e conventi;+39.0721.864090;www.eremomontegiove.it;Fano;Eremo di Montegiove;362;;Strada Comunale Montegiove;info@eremomontegiove.it
