Id_museo,Denominazione,Localita,Indirizzo,Civico,CodIStatComune,Comune,Telefono,Email,SitoWeb,CategoriaPrinc,DescCategoria,CategoriaSecondaria,Latitudine,Longitudine,orario,noteorario,Ingresso,Pat_Immagine1,didascalia
1,"Civica Raccolta d’Arte “C. Ridolfi""",ex convento delle Benedettine,piazza del Cassero,SNC,042015,Corinaldo,071.67782,iat1@corinaldo.it; p.pirani@corinaldo.it,http://www.web.tiscali.it/pinacotecacorinaldo/,1,Arte,,43.6501,13.0467,,,"prezzo intero: 2,5 €; prezzo ridotto: 2 €",http://sirpac.cultura.marche.it/SirpacIntraWeb/storage/Label/1281/Thumbs/38A.jpg,"Claudio Ridolfi, Elemosina di San Tommaso di Villanova"
2,Sala del Costume e delle Tradizioni Popolari,ex convento degli Agostiniani,largo XVII Settembre 1860,6,042015,Corinaldo,071.67782/236,iat1@corinaldo.it; p.pirani@corinaldo.it,http://www.procorinaldo.it,6,Etnografia e antropologia,,43.649,13.048,Apertura su richiesta,,"prezzo intero: 2 €; prezzo ridotto: 1,5 €",,
3,Museo Internazionale dell'Etichetta del Vino,,Corso Leopardi,58,042016,Cupramontana,0731/780199,comune.cupramontana@provincia.ancona.it,,8,Specializzato,,43.4454,13.1171,Inverno sabato e domenica 10.00-12.30   15.30-18.30/ Estate giov.- dom. ore 17-20.,,"prezzo intero: 2 €; prezzo ridotto: 1,5 €",,
4,Museo della Carta e della Filigrana,Complesso di San Domenico,Largo F.lli Spacca,2,042017,Fabriano,0732.709297 / 0732.22334,info@museodellacarta.com,http://www.museodellacarta.com,8,Specializzato,Scienza e tecnica,43.3331,12.9025,"Dal 27 marzo al 27 maggio: dal martedì alla domenica 9.30 -13.30, 14.30 - 18.30. Dal 29 maggio al 28 ottobre: 10 - 13, 14.30 - 19.30.","Visite guidate (incluse nel biglietto) con partenza alle ore 10, 11, 11.45, 15, 16 e 17.","prezzo intero: 5,70 €; prezzo ridotto: 4,60 €; scolaresche: 3,50€",,
5,Museo della Città,,Piazza del Plebiscito, SNC,042002,Ancona,071. 2225037,museodellacittà@comune.ancona.it; pinacoteca@comune.ancona.it,www.comune.ancona.it; www.anconacultura.it,3,Storia,Archeologia,43.6195,13.5122,"Orario invernale: da martedì a domenica: 10-13, 16-19. Lunedì chiuso. Orario estivo: 15 giugno - 15 settembre: da martedì a venerdì 17-20, sabato, domenica e festivi: 10-13, 17-20. Chiuso i lunedì non festivi, 1 gennaio, 1 maggio, 25 dicembre.",Ogni prima domenica del mese è prevista una visita guidata gratuita del Museo alle ore 17.30.,Ingresso gratuito,http://sirpac.cultura.marche.it/SirpacIntraWeb/storage/Label/1281/Thumbs/13A.jpg,"Museo della Città, interno"
6,Museo Diocesano,Palazzo del Vecchio Episcopio,Piazza Duomo,9,042002,Ancona,071.200391,museo.ancona@diocesi.ancona.it,www.museodiocesanoancona.it,1,Arte,Storia,43.6255,13.5101,"Da ottobre ad aprile: sabato, domenica e festivi 10-12.30 e 16-19. Da maggio a settembre: sabato, domenica e festivi 10-12.30 e 16-19.",,,http://sirpac.cultura.marche.it/SirpacIntraWeb/storage/Label/1407/Thumbs/Roma_27.jpg,"manifattura fiamminga (da Pieter Paul Rubens), Assunzione della Vergine"
7,"Pinacoteca Civica  ""F. Podesti”",Palazzo Bosdari,Via C. Pizzecolli,17,042002,Ancona,071.2225041Biglietteria;071.2225045/5055 Direzione,pinacoteca@comune.ancona.it,www.comune.ancona.it; www.anconacultura.it,1,Arte,,43.6208,13.5111,CHIUSO PER AMPLIAMENTO,,"Intero: 4.7 €; ridotto: 3,6 €; cumulativo (con il museo della città): 4,8 €; croceristi: intero 3€, cumulativo 4€; itinerario lottesco intero: 10 €, cumulativo: 6 €",http://sirpac.cultura.marche.it/SirpacIntraWeb/storage/Label/0212/Thumbs/C1110.jpg,"Pinacoteca Podesti, Sala ""Pietro Zampetti"""
8,Centro Culturale San Francesco - Raccolta civica di Arte Contemporanea,Ex convento San Francesco,corso Mazzini,64,042003,Arcevia,0731 984561,info@arceviaweb.it,http://www.arceviaweb.it,1,Arte,Specializzato,43.5001,12.9406,lunedì 9-13; da martedì a venerdì 9-13/15-19; sabato e domenica 10.30-12.30/15.30-18.30.,Aperto su richiesta fuori dagli orari prestabiliti.,,,
9,Raccolta della Collegiata di San Medardo,Collegiata San Medardo,via San Medardo,snc,042003,Arcevia,0731 9444,donsergiozandri@alice.it,http://www.arceviaweb.it/hostarceviaweb/Turismo/SanMedardo/museo_parrocchiale.htm,1,Arte,,43.5007,12.9406,Non vi è orario di apertura.,Su richiesta.,,http://sirpac.cultura.marche.it/SirpacIntraWeb/storage/Label/1281/Thumbs/21A.jpg,"Luca Signorelli, Battesimo di Gesù"
10,Raccolta parrocchiale di Santa Maria Assunta,Chiesa di Santa Maria Assunta,Borgo Mazzini,,042004,Barbara,071 9674213,,http://www.comune.barbara.an.it,1,Arte,,43.5838,13.0258,Apertura su richiesta,,,,
11,Museo Internazionale dell’Immagine Postale,Belvedere Ostrense,via Vannini,7,042005,Belvedere Ostrense,0731/617003,comune.belvedereostrense@regione.marche.it,,8,Specializzato,,43.5811,13.1666,su richiesta,,,,
12,Civiche Raccolte Museali,Ex convento MM. Conventuali San Francesco,via San Francesco,24,042006,Camerano,071730301,info@comune.camerano.an.it,http://www.comune.camerano.an.it,1,Arte,Specializzato,43.531,13.5526,Lunedì 11.00 - 13.00; mercoledì 09.00 12.00; giovedì 15.30 - 18.00.,,,http://sirpac.cultura.marche.it/SirpacIntraWeb/storage/Label/1281/Thumbs/26A.jpg,Stamnos a figure rosse
13,Museo Comunale di Villa Coppetti,,Via Guglielmo Marconi,30,042008,Castelbellino,0731-77881,costarelli@castelbellino.pannet.it,,1,Arte,Archeologia,43.4873,13.1452,"aperto su richiesta, orari d’ufficio",,ingresso gratuito,http://sirpac.cultura.marche.it/SirpacIntraWeb/storage/Label/1281/Thumbs/32A.jpg,"Benedetto Nucci, Madonna del Rosario e Santi"
14,Museo del Risorgimento,Palazzo Mordini,via Mazzini,5,042010,Castelfidardo,071 7206592,castelfidardo@italianostra.org,http://www.castelfidardo.it/visitatore,3,Storia,Specializzato,43.4649,13.5451," da martedi a sabato,dalle 16.30 alle 19.30","Il museo è aperto anche al di fuori di tale orario, su debita richiesta e per visite guidate",,http://sirpac.cultura.marche.it/SirpacIntraWeb/storage/Label/1281/Thumbs/35A.jpg,"Museo del Risorgimento, interno"
15,Museo Internazionale della Fisarmonica,palazzo comunale,via Mordini,1,042010,Castelfidardo,071 7808288,accordionsmuseum@tiscali.it,http://www.castelfidardo.it/visitatore,8,Specializzato,,43.4645,13.5465,"lunedi 15.30-18.30, da martedi a domenica 10.00-12.00, 15.30-18.30",,"prezzo intero: 3 €; prezzo ridotto: 1,5 €",http://sirpac.cultura.marche.it/SirpacIntraWeb/storage/Label/1281/Thumbs/33A.jpg,"Museo della Fisarmonica, interno"
16,"Museo Civico Archeologico ""A. Casagrande""",palazzo Della Rovere (S.I.R.Pa.C. palazzo Albani-Compiano),piazza Livia della Rovere,2,042011,Castelleone di Suasa,071966770,info@consorziosuasa.com,http://www.consorziosuasa.it,2,Archeologia,,43.6091,12.9772,"dom palme-30/6 e 1/9-8/12:sab,dom e fest ore 15,30-19,30; 1/7-31/8:mart-dom 16-20; dom anche 10-12",aperto su prenotazione per gruppi e in occasione di numerose ricorrenze locali e nazionali.,"prezzo intero: 3 €; prezzo ridotto: 2,5 €",http://sirpac.cultura.marche.it/SirpacIntraWeb/storage/Label/0877/Thumbs/CRBC60422.jpg,Ritratto di Augusto
17,Civica Raccolta di Palazzo Fossa Mancini,Palazzo Fossa Mancini,Piazza Mazzini,1,042012,Castelplanio,0731-813401,comune@comune.castelplanio.an.it;anagrafe@comune.castelplanio.an.it,http://www.comune.castelplanio.an.it  www.musan.it,1,Arte,,43.4945,13.0809,ven lun pas 15-19; fino 30 06 e 1 09 -31 12 dom 10.3-12.3-15.3 18.3; 1 07 -31 08 ven sab dom 17-20,,"prezzo intero: 2 €; prezzo ridotto: 1,5 €",,
18,Raccolta di opere d’arte Antica Farmacia Giuli,,piazza Marconi,8,042013,Cerreto d'Esi,0732679000,segreteria@comune.cerretodesi.an.it,http://www.cerretodesi.pannet.it,1,Arte,Specializzato,43.321,12.9841,fine settimana 15.00/19.00; apertura straordinaria in occasione di festività e sagre e su richiesta,,,http://sirpac.cultura.marche.it/SirpacIntraWeb/storage/Label/1281/Thumbs/37A.jpg,"Luca delle Fibbie, Annunciazione"
19,Museo della Civiltà Contadina,"Fattoria ""la Ginestra""",Via Serraloggia,203,042017,Fabriano,0732.24013; 338.9322997,museolaginestra@libero.it,www.museolaginestra.it,6,Etnografia e antropologia,,43.3308,12.9166,aperto da Maggio a Ottobre su prenotazione.,,,,
20,1896 - Museo della Farmacia Mazzolini Giuseppucci,,Corso della Repubblica,33/a,042017,Fabriano,0732.627081 /0732.629859,info@1896.it,,8,Specializzato,Arte,43.3364,12.9044,dal martedì al sabato ore 10.00-13.00/16.30-20.00,riaperto secondo gli orari sopra descritti dal 12/12/2009,,,
21,"Pinacoteca Civica ""Bruno Molajoli""",Spedale di Santa Maria del Buon Gesù,Piazza Papa Giovanni Paolo II,2,042017,Fabriano,0732/250658,pinacoteca.molajoli@comune.fabriano.an.it,http://www.fabrianoturismo.it,1,Arte,,43.3358,12.904,dal martedì alla domenica 10.00-13.00/16.00-19.00,,"Intero: 4 €; ridotto: 2,50 €; scolaresche: 2 €",http://sirpac.cultura.marche.it/SirpacIntraWeb/storage/Label/0220/Thumbs/C1354.jpg,"Orazio Gentileschi, Madonna del Rosario, Fabriano"
22,Museo della Resistenza,Castello di Falconara Alta,Via Cameranesi,snc,042018,Falconara Marittima,071.9177336,cultura@comune.falconara-marittima.an.it,http://www.museoresistenza.it,3,Storia,,43.6232,13.3938,da Pasqua al 31 maggio e dal 1 settembre al 31 dicembre sabato e domenica 15.30-18.30,Il museo è aperto su richiesta dal 1 gennaio al giovedì di Pasqua e nei mesi di luglio e agosto,"prezzo intero: 2 €; prezzo ridotto: 1,5 €",,
23,Museo del Telefono,,Via Matteotti,24,042041,San Marcello,0731 267014,museidascoprire@libero.it,http://www.musan.it,8,Specializzato,,43.5768,13.2057,,,,,
24,"Pinacoteca Internazionale d'Arte Francescana contemporanea ""in nome di Francesco""",,Piazza S. Antonio,5,042018,Falconara Marittima,0719161480,picena01@bibliotecaofm.191.it,http://www.musan.it,1,Arte,,43.629,13.3925,lunedì e venerdì 8.30-12.30/14.30-17.30 martedì 8.30-12.30 aperto su prenotazione per scuole/gruppi,,,,
25,Museo Beltrami,Palazzo Beltrami Luchetti,Vicolo Beltrami,2,042019,Filottrano,071.2072828,info@museiluchettigentiloni.com ; marzialuchetti@libero.it,http://www.museiluchettigentiloni.com,6,Etnografia e antropologia,,43.4357,13.3505,su appuntamento,,,,
26,Museo del Biroccio Marchigiano,Palazzo Beltrami Luchetti,Vicolo Beltrami,2,042019,Filottrano,071.2072828,info@museiluchettigentiloni.com,http://www.museiluchettigentiloni.com,6,Etnografia e antropologia,,43.4358,13.3507,su appuntamento.,,,,
27,Museo Speleopaleontologico ed Archeologico,ex monastero di San Vittore,fraz. San Vittore delle chiuse,7,042020,Genga,0732 90241,grotte@frasassi.com,http://www.frasassi.com,4,Storia naturale e scienze naturali,Archeologia,43.4022,12.9704,"10.30-13.30/15-18; chiuso i lunedì da ottobre a marzo, 4 e 25 dicembre, 1 e 10-30 gennaio.",L'orario è adeguato a quello delle Grotte di Frasassi.,prezzo intero: 4 €; prezzo ridotto: 1 €,http://sirpac.cultura.marche.it/SirpacIntraWeb/storage/Label/1281/Thumbs/60A.jpg,Ittiosauro
28,Museo Diocesano,Palazzo Ripanti Nuovo,P.zza Federico II,7,042021,Jesi,0731/226749,museo@jesi.chiesacattolica.it,http://www2.glauco.it/jesi/diocesi/home.htm,1,Arte,Territoriale,43.5245,13.2456,Tutto l'anno lun-ven 9:30-13. Estate (15 giugno - 8 settembre) anche sab-dom 16-19. Inverno dom 17-20,"14 agosto: Notte dell'Assunta visite guidate in notturna; 22 settembre Conosciamo San Settimio, laboratori pomeridiani per bambini",,http://sirpac.cultura.marche.it/SirpacIntraWeb/storage/Label/1281/Thumbs/73A.jpg,Ercole Ramazzani
29,Pinacoteca e Musei Civici,Palazzo Pianetti,Via XV Settembre,10,042021,Jesi,0731. 538342,pinacoteca@comune.jesi.an.it,http://www.comune.jesi.an.it,1,Arte,,43.5216,13.2425,Or.Inv. 10-13/16-19 festivi ore 10-13/17-20. Or.Est. (dalla terza dom di giugno alla terza dom di settembre) 10-20. Lunedì non fest. chiuso,,"Intero: € 6.00; ridotto € 2.00 (scolaresche); gratuito (under 12, giornalisti, universitari)",http://sirpac.cultura.marche.it/SirpacIntraWeb/storage/Label/1407/Thumbs/73_Alcova.jpg,"Fortunato Morini, Alcova del secondo piano"
30,Studio per le Arti della Stampa,Palazzo Pianetti vecchio,via Valle,3,042021,Jesi,073164272,sas@comune.jesi.an.it,http://www.comune.jesi.an.it/opencms/export/jesiit/sito-JesiItaliano/MenuPrincipale/VivereInCitta/ArteCultura/arti_stampa/index.html,8,Specializzato,,43.5228,13.2463,Da mercoledì a sabato 10-13; mercoledì e venerdì 10-13 e 16-19.,L'apertura su richiesta è prevista in particolare per le scolaresche.,,,
31,Museo Storico Aeronautico,Palazzo del Comune,Corso Boccalini,36,042022,Loreto,338.1249298; 393.4996490,assoarma.loreto@hotmail.com,,8,Specializzato,,43.4407,13.6085,Da martedì a venerdì 16-19; sabato domenica 10-13 e 16-19.,Per visite su richiesta tel. 338.1249298; 393.4996490,ingresso gratuito,http://sirpac.cultura.marche.it/SirpacIntraWeb/storage/Label/1407/Thumbs/Museo 3.jpg,Divise militari dell’Aeronautica
32,Museo Antico Tesoro della Santa Casa,Palazzo Apostolico,Piazza della Madonna,1,042022,Loreto,071/9747198; 071/9747160. 071/977748 (pro loco),palazzoapostolicoloreto@alice.it; info@prolocoloreto.com,www.santuarioloreto.it,1,Arte,,43.4413,13.6097,"aprile-giugno: martedì-venerdì 10-13, 15-18, sabato domenica festivi 10-13, 15-19. 1 luglio-9 settembre:10-20. Novembre-marzo: 10-13, 15-18. Lunedì chiuso.","""Loreto Unica"" per gruppi (min.15 persone, accompagnatore gratis) €10: Ingresso al Museo con guida, Ingresso ai camminamenti di ronda, visita con guida e auricolari alla Basilica.","Intero:€4;ridotto:€3(under 14 over 65, militari, studenti);Family card: €8;gruppi: €3;scuola: €2",http://sirpac.cultura.marche.it/SirpacIntraWeb/storage/Label/1412/Thumbs/MaiolicheUrbinati_BottegaOrazioFontana.jpg,"bottega di Orazio Fontana, Maiolica urbinate"
33,"Archivio, Biblioteca, Museo ""Gaspare Spontini""",Casa Gaspare Spontini,Via Gaspare Spontini,15/17,042023,Maiolati Spontini,0731 704451; 0731 70751,spontini@alice.it; comune@maiolati.spontini.it,http://www.maiolati.spontini.it,8,Specializzato,,43.4763,13.1172,"inverno e luglio: sab.dom. 15-19, agosto: tutti i giorni 16-20, settembre 10-13/17-20 tutti giorni. A causa di lavori in corso da luglio 2011 è possibile visitare il Museo solo previa prenotazione al 3336688998.",Il tempo necessario per la visita è di circa 30'; per ragioni di spazio e sicurezza i visitatori non possono superare le sei unità per ogni turno di visita. Per prenotare tel. 3336688998,"prezzo intero: 2,5 €; prezzo ridotto: 1,5 €",http://sirpac.cultura.marche.it/SirpacIntraWeb/storage/Label/1281/Thumbs/79A.jpg,"Ambito francese, Scena de La Vestale di Gaspare Spontini"
34,Museo Comunale e della Mail Art,Teatro comunale,Via Circonvallazione,41,042026,Montecarotto,0731/89131,anagrafe@comune.montecarotto.an.it,http://www.comune.montecarotto.an.it  www.musan.it,1,Arte,,43.5263,13.0643,ven-lun pasqua 15-19;fino 30/06 e 1/9-31/12 dom 10.3-12.3 15.3-18.3; 1/7-31/8 ven sab dom 17-20,,"prezzo intero: 2 €; prezzo ridotto: 1,5 €",http://sirpac.cultura.marche.it/SirpacIntraWeb/storage/Label/1281/Thumbs/81A.jpg,Manifesto
35,"Museo della Cultura Mezzadrile ""Utensilia""",Camminamento La Scarpa,Piazza Romagnoli,6,042031,Morro d'Alba,0731.63000,comune@comune.morrodalba.an.it,http://comune.morrodalba.an.it,6,Etnografia e antropologia,,43.6015,13.2139,"Dal 15 al 30 aprile: domenica 15.30-19.30.Dal 1 maggio al 30 giugno: domenica 16-20. Dal 1 luglio al 1 settembre: ven, sab, dom 17-20. Dal 2 al 30 settembre: 16-20. Dal 1 al 31 ottobre: domenica 15.30-19.30. Dal 1 novembre al 6 gennaio: domenica 15.30 - 1","Chiuso 15 agosto, 1 novembre, 25 e 31 dicembre.","prezzo intero: 2 €; prezzo ridotto: 1,5 €",,
36,Museo delle Armi Antiche e della Rocca Medievale,Rocca di Offagna,Piazza del Maniero,snc,042033,Offagna,0717107552,offagna@festemedievali.it,http://www.festemedievali.it,8,Specializzato,,43.5276,13.4409,"25/04 - 30/06: sab e dom 10-12; 16-19; 01/07 15/09   10-12, 17-20; 16/09, 30/09 10-12, 16.30-19.30.",,prezzo intero: 5 €; prezzo ridotto: 3 €,,
37,Museo di Scienze Naturali “L. Paolucci”,,via del Monastero,8,042033,Offagna,0717107611,museopaolucci@tiscali.it,http://www.museopaolucci.it,4,Storia naturale e scienze naturali,Scienza e tecnica,43.5274,13.4405,Mar-24 Ap.16 S.-Dic. sab. dom. 16-19; 25 Ap.-G. sab. dom. 10-12 16.30-19.30; Lu-15 Set. 10-12 17-20,Nel 2010 2 Ap-31 Lug. da mart. a dom. 3 ore; Agosto-Dic. sab. dom. 3 ore.,"prezzo intero: 3 €; prezzo ridotto: 1,5 €",,
38,Museo Civico Città di Osimo (Sezioni artistica e archeologica),Palazzo Campana,Via Campana,6,042034,Osimo,071 7231773,biblioteca@comune.osimo.an.it,http://www.comune.osimo.an.it,1,Arte,Archeologia,43.4867,13.4857,"Ottobre-maggio: ven e sab: 17.30-19.30; dom: 10-12.30 e 17.30-19.30. Giugno-settembre: ven sab 18-20, dom 10-12.30, 18-20. Lapidario: inverno, ven 17.30-19, Estate: ven 18-19.",Per visite guidate è prevista l'apertura su prenotazione.,Intero: 2 €; ridotto: 1 €,http://sirpac.cultura.marche.it/SirpacIntraWeb/storage/Label/1281/Thumbs/86A.jpg,Ritratto di anziano
39,Museo Diocesano,,Piazza Duomo,7,042034,Osimo,0717231808,info@duomodiosimo.it,http://www.duomodiosimo.it,3,Storia,Arte,43.4863,13.4806,"sabato: 16.00 - 19.00, domenica: 10.00 - 12.00  16.00 - 19.00",,,http://sirpac.cultura.marche.it/SirpacIntraWeb/storage/Label/1281/Thumbs/90A.jpg,"Manifattura italiana inizi XVII secolo, Pianeta"
40,"""Città di Ostra "" - Pinacoteca Comunale",Palazzo dei Padri Conventuali,Via Gramsci,10,042035,Ostra,0731 7980606,cultura.ostra@provincia.ancona.it,http://comune.ostra.an.it,1,Arte,Storia naturale e scienze naturali,43.6149,13.1592,MUSEO CHIUSO,MUSEO CHIUSO,,http://sirpac.cultura.marche.it/SirpacIntraWeb/storage/Label/1281/Thumbs/95A.jpg,"Palazzo dei Conventuali, interno"
41,"Raccolta di Fossili ""Padre Francesco Angellotti""",Palazzo dei Conventuali,via A. Gramsci,10,042035,Ostra,071 7980606,,,4,Storia naturale e scienze naturali,,43.6149,13.1592,MUSEO CHIUSO,MUSEO CHIUSO,,,
42,Museo Civico Parrocchiale Maria Crocifisso Satellico,Ostra Vetere,P.zza Satellico,3,042036,Ostra Vetere,071/965963,seg.ostravetere@provincia.ancona.it,http://www.sistemamuseale.provincia.ancona.it,1,Arte,,43.6036,13.0577,"da marzo a giugno,settembre,ottobre : lun e mart 9-12; dal lun al ven 15-19.Novembre,dicembre: lun,mart,giov 16-19","orario estivo: Luglio, agosto: tutti i giorni: 9-12; 16-20 (chiuso domenica mattina).",,http://sirpac.cultura.marche.it/SirpacIntraWeb/storage/Label/1281/Thumbs/109A.jpg,"Formella di terracotta, Natività, XV secolo"
43,Civica Raccolta d'Arte,Palazzo Oliva,piazza Matteotti,4,042044,Sassoferrato,0732.956218; 0732.956205,info@comune.sassoferrato.an.it,www.sassoferratocultura.it; www.comune.sassoferrato.an.it,1,Arte,,43.435,12.8583,,,,http://sirpac.cultura.marche.it/SirpacIntraWeb/storage/Label/1281/Thumbs/118A.jpg,Una delle sale della Civica Raccolta d'Arte
44,Museo Archeologico Sentinate e Sala Perottiana,Palazzo dei Priori,piazza Matteotti,10,042044,Sassoferrato,0732 956231,info@comune.sassoferrato.an.it,http://www.comune.sassoferrato.an.it,2,Archeologia,Arte,43.4357,12.8583,"Martedì-domenica 10.30-12.30, martedì, giovedì, sabato e domenica 16-19.",,"prezzo intero: 3 €; prezzo ridotto: 1,5 €",http://sirpac.cultura.marche.it/SirpacIntraWeb/storage/Label/1281/Thumbs/114A.jpg,"Busto della dea Iside, II sec. d. C."
45,Museo della Miniera di Zolfo di Cabernardi,Frazione Cabernardi,Via Contrada Nuova,1,042044,Sassoferrato,,,www.minieracabernardi.it,8,Specializzato,Territoriale,43.5074,12.8663,"Dal 01/01 al 15/06  e dal 16/09 al 31/12 sab., dom. e fest. 15-18; dal 16/06 al 15/09 mart.-dom. 10.30-12.30, 16-19 sab. 21-23",,,http://sirpac.cultura.marche.it/SirpacIntraWeb/storage/Label/1281/Thumbs/117A.jpg,"Museo della miniera di zolfo di Cabernardi, interno"
46,Museo delle Arti e Tradizioni Popolari,ex convento di Santa Margherita - Palazzo Montanari,via Montanari,1,042044,Sassoferrato,0732 9561,info@comune.sassoferrato.an.it,http://www.comune.sassoferrato.an.it,6,Etnografia e antropologia,Territoriale,43.4329,12.8578,"Martedì-domenica 10,30-12,30, martedì, giovedì, sabato e domenica anche 16-19.",,"prezzo intero: 3 €; prezzo ridotto: 1,5 €",http://sirpac.cultura.marche.it/SirpacIntraWeb/storage/Label/1151/Thumbs/CRBC12424YL.jpg,camera da letto
48,"Area archeologica e Museo ""La Fenice""",,Viale Leopardi,,042045,Senigallia,071.6629348,beni.culturali@comune.senigallia.an.it,http://www.comune.senigallia.an.it,2,Archeologia,Territoriale,43.7124,13.2185,Dal 1 gennaio al 15 giugno e dal 16 settembre al 31 dicembre: sabato domenica e festivi 16.30-19.30. Dal 16 giugno al 15 settembre: tutti i giorni 21.30-23.30.,Nei mesi invernali l'apertura infrasettimanale è su prenotazione.,,,
49,Casa Museo Palazzetto Baviera,,Piazza del Duca,1,042045,Senigallia,071.6629348,beni.culturali@comune.senigallia.an.it,http://www.senigallia.org,1,Arte,Storia,43.715,13.2196,MUSEO CHIUSO Il museo è attualmente in fase di ristrutturazione e di adeguamento,MUSEO CHIUSOIl museo è attualmente in fase di ristrutturazione e di adeguamento,,,
50,"Museo di Arte Moderna, dell'Informazione e della Fotografia",,Via Pisacane,84,042045,Senigallia,071.60424,artemoderna@musinf-senigallia.it,http://www.musinf-senigallia.it,1,Arte,Specializzato,43.7126,13.2178,Martedì-Venerdì ore 8.30-12.30; 15.45-18.30Sabato ore 8.30-12.30,,,http://sirpac.cultura.marche.it/SirpacIntraWeb/storage/Label/1281/Thumbs/120A.jpg,"Enzo Cucchi, Bozzetto del sipario del teatro ""La Fenice"" di Senigallia"
51,Museo di Storia della Mezzadria “Sergio Anselmi”,Convento delle Grazie,Strada Comunale delle Grazie,2,042045,Senigallia,071.7923127,m.storiamezzadria@libero.it,http://www.comune.senigallia.an.it,6,Etnografia e antropologia,Territoriale,43.7065,13.1873,Da martedì a domenica 8.30-12.00/venerdì 8.30-12.00 e 16.00-18.00,"da aggiungere anche aperture straordinarie pomeridiane o nelle festività come Pasqua, Natale, ecc.",,http://sirpac.cultura.marche.it/SirpacIntraWeb/storage/Label/1151/Thumbs/CRBC12403XA.jpg,Ruota in pietra per frantoio
52,Museo Pio IX -Palazzo Mastai,Palazzo Mastai,Via G. M. Mastai,14,042045,Senigallia,071.60649,palazzomastai@pionono.it,http://www.diocesisenigallia.it/,1,Arte,Storia,43.7147,13.2174,Tutti i giorni feriali 9-12 e 17-19,,,http://sirpac.cultura.marche.it/SirpacIntraWeb/storage/Label/1281/Thumbs/123A.jpg,"Museo Pio IX, Camera da letto"
53,Pinacoteca Diocesana d’Arte Sacra,Episcopio,Piazza Garibaldi,3,042045,Senigallia,071.65758,diocesi@senigallia.chiesacattolica.it,http://www.diocesisenigallia.it,1,Arte,,43.7141,13.2148,"Dal 1 aprile al 31 maggio: sabato e domenica 9-12, 16-19. Dal 1 giugno al 30 settembre: mercoledì 21-24, sabato 16.30-19.30, domenica 21-24. Dal 1 ottobre al 30 dicembre: sabato e domenica 9-12, 16-19. Gennaio, febbraio, marzo: chiuso.",,Ingresso gratuito,http://sirpac.cultura.marche.it/SirpacIntraWeb/storage/Label/1281/Thumbs/127A.jpg,"Federico Barocci, Madonna del Rosario, part."
54,"Museo delle Arti Monastiche ""Le stanze del tempo sospeso""",ex Convento di S. Francesco,Via Armellini,snc,042046,Serra De' Conti,0731/871739,info@museoartimonastiche.it,http://www.museoartimonastiche.it ; www.musan.it,6,Etnografia e antropologia,Territoriale,43.5424,13.038,"Da 1/1 a 30/6 e da 1/9 a 31/12: sab15.30-19.30 dom/fest 10.30-12.30/ 15.30-19.30. Da 1-7 a 31/8: mart-sab17-20, dom anche 10.30-12.30",,prezzo intero: 3 €; prezzo ridotto: 2 €,,
55,Cartoteca Storica delle Marche,Ex Convento di Santa Lucia,Via Marcellini,snc,042047,Serra San Quirico,800439392,sistemamuseale@provincia.ancona.it,http://www.musan.it,7,Territoriale,,43.4478,13.014,MUSEO CHIUSO,MUSEO CHIUSO,"prezzo intero: 2 €; prezzo ridotto: 1,5 €",,
56,Museo del Vino Enoteca Comunale,Ex Ospedale degli Infermi,"Via Ex Ospedale degli Infermi, Via G. Marconi 29/31",SNC,042049,Staffolo,338.1350308,enotecabrocani@hotmail.it,,6,Etnografia e antropologia,,43.4321,13.1868,,apertura solo dell'enoteca - non del museo - al pianoterra,,,
57,"Museo d’Arte Immanente ""Villa Papi""",,Via Valle Romana,21,044006,Arquata del Tronto,0736/809556,segreteria@comune.arquatadeltronto.ap.it,www.arteimmanente.com,1,Arte,,42.7722,13.2965,9/18 tutti i giorni,Il proprietario è disponibile anche in orari diversi da quello riferito,,,
58,"Galleria d'Arte Contemporanea ""Osvaldo Licini""",Ascoli Piceno,Corso Mazzini,90,044007,Ascoli Piceno,0736/248262,musei.civici@comune.ascolipiceno.it,http://www.ascolimusei.it,1,Arte,,42.855,13.572,10/19 martedì-domenica,,prezzo intero: 8 €; prezzo ridotto: 5 €,http://sirpac.cultura.marche.it/SirpacIntraWeb/storage/Label/0676/Thumbs/CRBC044007XC.jpg,"Osvaldo Licini, Ritratto femminile"
59,Musei della Cartiera Papale - ll processo produttivo della carta – Museo naturalistico “A. Orsini” – Raccolta delle incisioni “N. Gulino”,,Via della Cartiera,1,044007,Ascoli Piceno,0736/277548,museidellacartiera@provincia.ap.it,http://www.provincia.ap.it,5,Scienza e tecnica,Storia naturale e scienze naturali,42.8495,13.5699,"Sabato/domenica/festivi dalle 16 alle 19 (inverno), dalle 17 alle 20 (estate).",Il museo è sempre aperto nei gioni festivi.,prezzo intero: 4 €; prezzo ridotto: 2 €,,
60,Museo Diocesano,Palazzo Roverella,P.zza Arringo,10/b,044007,Ascoli Piceno,0736/252883,museodiocesano.ap@libero.it,http://www.ascolipiceno.chiesacattolica.it,1,Arte,,42.8533,13.5784,sabato e domenica,,"Intero: 3,5 €; ridotto: 2,5 €",http://sirpac.cultura.marche.it/SirpacIntraWeb/storage/Label/1282/Thumbs/14E.jpg,"Manifattura dell’Italia Settentrionale, cofanetto"
61,Pinacoteca Civica,,Piazza Arringo,7,044007,Ascoli Piceno,0736/298213,musei.civici@comune.ascolipiceno.it,http://www.ascolimusei.it,1,Arte,,42.8535,13.5779,10/19 martedì-domenica,,Intero: 8 €; ridotto: 5 €,http://sirpac.cultura.marche.it/SirpacIntraWeb/storage/Label/1282/Thumbs/6E.jpg,"Pinacoteca Civica, interno"
62,Museo Civico Archeologico,Palazzo Comunale,Piazza Matteotti,8,044010,Carassai,0734.919002,info@comune.carassai.ap.it,,2,Archeologia,,43.0321,13.6843,"Da 1/2/2012 a 10/6/2012 e da 17/9/2012 A 31/10/2012: mar 16.30-19.30; mer 10-12, 15.30-19.30; sab e dom 14-19.30. Da 11/06/2012 a 16/09/2012: mar mer ven sab e dom: 17-19.30, 21-22.30",Apre anche a richiesta a cura dell'Archeoclub di Carassai in giorni e orari diversi da quelli indicati sopra (per scuole e turisti),,,
63,Deposito Archeologico Comunale,Castel di Lama,Via Largo Petrarca,158,044011,Castel di Lama,0736/812456,,,2,Archeologia,,43.3332,13.1671,"Settimane alterne:( lun. al sab.), 10.00-13.00. Sett. succ. (lu. me.Ve.)10.00-13.00 pm. 16.00-19.00",,,,
64,"Raccolta d’Arte Contemporanea ""Arte On""",complesso ex Sacet,Via Alcide De Gasperi,6,044011,Castel di Lama,0736/811220,info@arteon.it,http://www.arteon.it,1,Arte,,42.8706,13.7136,L'orario viene concordato con l'utente,Orario feriale  adeguato all'utenza,,,
65,Museo d'arte sacra di Castignano - Musei Sistini del Piceno,Chiesa San Pietro Apostolo,P.zza San Pietro,snc,044012,Castignano,0735/594960; 347.3804444,info@museisistini.it,www.museisistini.it,1,Arte,Specializzato,42.9384,13.6225,"Aperture programmate nei periodi di Natale, Pasqua fino al 1° maggio ed estate. Luglio, agosto e fino al 16 settembre: 17-20. Dal 16 al 19 agosto ""Templaria"" ore 18-23. Per orari specifici consultare il sito o 347.3804444.",,,http://sirpac.cultura.marche.it/SirpacIntraWeb/storage/Label/1412/Thumbs/IMG_1930.jpg,Sala del museo
66,Museo di arte sacra di Comunanza - Musei Sistini del Piceno,Palazzo Pascali,via Rossini,2,044015,Comunanza,0735/594960; 347.3804444,info@museisistini.it,www.museisistini.it,1,Arte,Specializzato,42.9576,13.4138,"Nei periodi di Natale, Pasqua fino al 1° maggio ed estate. Luglio fino al 22 sabato e domenica, dal 23 luglio al 31 agosto tutti i giorni 10.30-12, 17.30-19. Dal 13 al 15 luglio: ""Mazzumaja"" anche 21.30-23. Per orari specifici consultare il sito o 347.380",,,http://sirpac.cultura.marche.it/SirpacIntraWeb/storage/Label/1412/Thumbs/01_Crocifisso stellato.jpg,"Pietro Vannini; bottega orafa dell'Italia centrale, Cristo"
67,"Antiquarium Comunale ""N. Pansoni""",chiesa Annunziata -,Via Verdi,SNC,044016,Cossignano,0735/98130,anagrafe.cossignano@libero.it,http://www.comune.cossignano.ap.it,2,Archeologia,,42.984,13.6882,MUSEO CHIUSO,MUSEO CHIUSO,,,
68,Museo Archeologico del Territorio,Palazzo Cipolletti,via Castello,5,044017,Cupra Marittima,0735/778561,info@comune.cupra-marittima.ap.it - archeo@siscom.it,http://www.archeocupra.it,2,Archeologia,Territoriale,43.031,13.8589,"Giu-sett: tutti i giorni tranne il lunedì. Periodo pasquale, natalizio e durante le altre festività",i giorni e gli orari di apertura variano a seconda del periodo dell' anno,,http://sirpac.cultura.marche.it/SirpacIntraWeb/storage/Label/1282/Thumbs/24E.jpg,"Tazza-attingitoio con anse a testa di animale stilizzato, VI sec. a.C."
69,Museo Malacologico Piceno,,via Adriatica,240,044017,Cupra Marittima,0735/777550; 3473704310,malacologia@fastnet.it,http://www.malacologia.org,4,Storia naturale e scienze naturali,Etnografia e antropologia,43.0336,13.8564,"Giugno-agosto: tutti i giorni (giugno: 16-20, luglio-agosto: 16-22). Aprile-maggio-settembre: mar-giov-sab-dom. Ottobre-marzo:gio-sab-dom","I giorni e gli orari di apertura variano a seconda del periodo dell' anno, con elasticità per i gruppi","prezzo intero: 7,50 €; prezzo ridotto: 5 €; ridotto over 65: 6€",http://sirpac.cultura.marche.it/SirpacIntraWeb/storage/Label/1407/Thumbs/Museo_Malacologico.jpg,Veduta esterna del museo
70,Museo di arte sacra di Force - Musei Sistini del Piceno,Palazzo Canestrari,Via Beata Assunta Pallotta,27,044021,Force,0735/594960; 347.3804444,info@museisistini.it,www.museisistini.it,1,Arte,Specializzato,42.9623,13.4886,"Aperture programmate nei periodi di Natale, Pasqua fino al 1° maggio ed estate. Luglio e agosto 17-19.30 (25-26 agosto ""Antichi sapori"", 11-12 agosto ""festa del Crocifisso"" anche 21.30-23). Per orari specifici consultare il sito o 347.3804444.",,,http://sirpac.cultura.marche.it/SirpacIntraWeb/storage/Label/1412/Thumbs/FOTO_019.jpg,"Museo di arte sacra, interno"
71,Museo del Torrione della Battaglia,torrione della battaglia,Largo Il Tarpato,0,044023,Grottammare,0735/739224,cultura@comune.grottammare.ap.it,http://www.comune.grottammare.ap.it,1,Arte,Territoriale,42.9936,13.8694, lug e ago tutti i giorni (lunedì chiuso); da sett a giugno sabato e domenica,,,,
72,MIC - Museo dell'Illustrazione Comica,Kursaal,P.zza Kursaal,snc,044023,Grottammare,0735/736483,cultura@comune.grottammare.ap.it,http://www.comune.grottammare.ap.it,1,Arte,,42.9914,13.8711,"da sett a giu  sab dom ore 16-19; lug e ago da mar a dom ore  21.30-23.30, ven sab e dom anche18-20",,,,
73,Museo Sistino di Grottammare - Musei  Sistini del Piceno,"Chiesa di San Giovanni Battista, paese alto",P.zza Peretti,snc,044023,Grottammare,0735/594960,info@museisistini.it,www.museisistini.it,1,Arte,Specializzato,42.9893,13.8687,"Natale, Pasqua fino al 1° maggio ed estate. Luglio, agosto e fino al 16 settembre: 21.30-23.30. Per orari specifici consultare il sito o 347.3804444.",,,http://sirpac.cultura.marche.it/SirpacIntraWeb/storage/Label/1412/Thumbs/13-agenda.jpg,Calice di Felice Peretti (Sisto V) e medaglia della sorella Camilla Peretti
74,Museo Civico,Convento San Francesco,Piazza Marconi,2,044031,Monsampolo del Tronto,0735/704116,urbanistica@comune.monsampolodeltronto.ap.it,http://www.comune.monsampolodeltronto.ap.it,1,Arte,,42.8987,13.7913,Servizio su richiesta e a richiesta con orari prestabiliti.Chiuso per inagibilità nel 2009.,Il servizio è  gratuito.Chiuso nel 2009 per inagibilità.,,,
75,Museo Laboratorio di Archeologia,Palazzo  Comunale,Via Sotto I Torrioni,SNC,044031,Monsampolo del Tronto,0735704116,urbanistica@comune.monsamplodeltronto.ap.it,http://www.comune.monsampolodeltronto.ap.it,2,Archeologia,,42.8976,13.7942,concordato con l'utenza. Museo chiuso nel 2009 per nuovo allestimento.,concordato con l'utenza.Chiuso nel 2009 per nuovo allestimento a seguito di nuove campagne di scavo,,http://sirpac.cultura.marche.it/SirpacIntraWeb/storage/Label/1282/Thumbs/28E.jpg,Logo del Museo
76,"Musei Civici - Pinacoteca – Museo Archeologico – Museo “L’Acqua, la Terra, la Tela” – Antiche Carceri Sistine",Palazzo Comunale,Piazza Umberto I,12,044032,Montalto delle Marche,0736828015,com.montalto@provincia.ap.it,,1,Arte,Archeologia,42.9873,13.6073,in inverno sab e dom h15-17 e la matt su richiesta; in estate h 17-19 e 16-24 in occasione di feste,E' aperto su richiesta anche in giorni diversi da quelli indicati sopra,,,
77,Museo Sistino Vescovile di Montalto Marche - Musei Sistini del Piceno,Palazzo ex Seminario,P.zza Sisto V,1,044032,Montalto delle Marche,0736/828688; 0735/594960; 347.3804444,info@museisistini.it,www.museisistini.it,1,Arte,Specializzato,42.9888,13.6085,"Nei periodi di Natale, Pasqua fino al 1° maggio ed estate. Luglio, agosto e fino al 16 settembre: 17-19.30. 14 agosto: ""Notte delle streghe e dei folletti"" dalle 18 alle 23.",,,http://sirpac.cultura.marche.it/SirpacIntraWeb/storage/Label/1412/Thumbs/alto6.jpg,"pittore spoletino, sec. XIII, Crocifisso"
78,Polo Museale di San Francesco,Convento di San Francesco,piazza San Francesco,6,044036,Montefiore dell'Aso,0734.938743,direzione@museipiceni.it; montefiore@museipiceni.it,http://www.museipiceni.it,1,Arte,Etnografia e antropologia,43.0516,13.7501,"Ultima settimana di Settembre - Maggio: sab, dom. e festivi 10-13, 15-18; Giugno: sab, dom e festivi 10-13, 17-20; Luglio: dal mar al ven 17-20; Agosto: da lun a ven 17-20, sab, dom e festivi 10-13, 17-20.","Audioguida: gratuita. Il biglietto Musei Piceni consente l'accesso ai 4 poli museali di Offida, Ripatransone, Montefiore dell'Aso, Monterubbiano. Per attività didattica tel. 349.8336403.","Intero 3,5€; ridotto 2€; Musei Piceni 10€. Riduzione per chi si presenti con biglietto di un altro dei Poli della rete Musei Piceni.",http://sirpac.cultura.marche.it/SirpacIntraWeb/storage/Label/1282/Thumbs/31E.jpg,"Polo Museale San Francesco, Sala Giancarlo Basili"
79,Museo di arte sacra di Montemonaco - Musei Sistini del Piceno,Chiesa di San Biagio,Viale Italia,snc,044044,Montemonaco,0735/594960,info@museisistini.it,www.museisistini.it,1,Arte,Specializzato,42.8994,13.3339,"Nei periodi di Natale, Pasqua fino al 1° maggio ed estate. Luglio e agosto: 16-19. Le domeniche di luglio e agosto e fino al 16 settembre anche 10.45-12.45. Per orari specifici consultare il sito o 347.3804444.",,,http://sirpac.cultura.marche.it/SirpacIntraWeb/storage/Label/1412/Thumbs/MG_4113.jpg,"scultore napoletano, Angelo custode"
80,Museo del santuario di San Giacomo della Marca di Monteprandone - Musei Sistini del Piceno,Chiesa di Santa Maria delle Grazie,C.da S. Maria delle Grazie,snc,044045,Monteprandone,0735/99301; 0735.594960; 347.3804444,info@museisistini.it,www.museisistini.it,8,Specializzato,Arte,42.9204,13.8381,"Nei periodi di Natale, Pasqua fino al 1° maggio ed estate. Dal 15 luglio e agosto: 17.30-19.30",Fino al 15 settembre 2013 aperto tutti i giorni 17 - 19.30 e la domenica anche 10.30 - 12.30.,,http://sirpac.cultura.marche.it/SirpacIntraWeb/storage/Label/1412/Thumbs/prandone1.jpg,"bottega degli Embriachi sec. XV, Trittico in avorio appartenuto a San Giacomo della Marca"
81,Museo dell'Arte Ceramica,Chiostro di San Tommaso,Piazza San Tommaso,11,044007,Ascoli Piceno,0736/240290,musei.civici@comune.ascolipiceno.it,http://www.ascolimusei.it,1,Arte,,42.8556,13.571,10/19 martedì-domenica,,prezzo intero: 8 €; prezzo ridotto: 5 €,,
82,"Museo della Civiltà Contadina ""Stefano Cardarelli""",,Frazione Uscerno,,044038,Montegallo,0736.806122,infoposta@comune.montegallo.ap.it,,6,Etnografia e antropologia,,42.8611,13.3856,su richiesta,,,,
83,Museo della Grotta della Sibilla,Villa Curi,Via Trieste,SNC,044044,Montemonaco,0736/856141,com.montemonaco@provincia.ap.it; proloco@montemonaco.com,http://musei.sibillini.net,8,Specializzato,,42.8992,13.3269,,,,,
84,Polo Museale di Palazzo De Castellotti,Palazzo De Castellotti,Via Roma,17,044054,Offida,0736.888609,direzione@museipiceni.it ; offida@museipiceni.it,http://www.museipiceni.it,8,Specializzato,Archeologia,42.934,13.6898,"13 giugno- 15 settembre tutti i giorni 10-12.30, 15.30-19.30 (ven. anche 21-24), inverno: sab. dom. fest. prefest. Natale e Pasqua:10-12.30, 15-19.","Audioguida: gratuita. Il biglietto Musei Piceni consente l'accesso ai 4 poli museali di Offida, Ripatransone, Montefiore dell'Aso, Monterubbiano.","Intero: 3,50 €; ridotto: 2€; polo civico (S. Maria della Rocca e Teatro) 6€; Musei Piceni 10€",http://sirpac.cultura.marche.it/SirpacIntraWeb/storage/Label/1282/Thumbs/35E.jpg,"Museo del Merletto, percorso per i non vedenti"
85,"Museo Civico Archeologico ""C. Cellini""",Palazzo comunale,Piazza XX Settembre,SNC,044063,Ripatransone,0735.99329,direzione@museipiceni.it; ripatransone@museipiceni.it,http://www.museipiceni.it; www.comune.ripatransone.ap.it,2,Archeologia,,43.0007,13.7624,"Il museo è aperto tutti i giorni: 10-12, 16-19. Chiuso il lunedì.","Il biglietto Musei Piceni consente l'accesso ai 4 poli museali di Offida, Ripatransone, Montefiore dell'Aso, Monterubbiano.","Intero: 2,5 €; ridotto: 1,5€; Polo civico (con Palazzo Bonomi Gera e Teatro) 5€; Musei Piceni: 10€",http://sirpac.cultura.marche.it/SirpacIntraWeb/storage/Label/1156/Thumbs/CRBC61364XA.jpg,"Testa di Venere, da Cupra Marittima"
86,"Museo Civico di Palazzo Bonomi Gera - Pinacoteca Civica – Gipsoteca ""U. Gera"" – Museo Storico Etnografico",Palazzo Bonomi-Gera,Corso Vittorio Emanuele,SNC,044063,Ripatransone,0735.99720,direzione@museipiceni.it; ripatransone@museipiceni.it,http://www.museipiceni.it; www.comune.ripatransone.ap.it,1,Arte,Etnografia e antropologia,43.0004,13.7625,Gennaio-Giugno: sab e dom 10.30-18.30; luglio-agosto: da mar a dom 16-19; settembre-dicembre: sab e dom 15.30-18.30. Visite su prenotazione (338.2842217).,"Audioguida: gratuita. Il biglietto Musei Piceni consente l'accesso ai 4 poli museali di Offida, Ripatransone, Montefiore dell'Aso, Monterubbiano.","Intero: 3,5 €; ridotto: 2,5 €; Polo civico (con Museo archeologico e Teatro): 5€; Musei Piceni: 10€",http://sirpac.cultura.marche.it/SirpacIntraWeb/storage/Label/0538/Thumbs/IMG0001.jpg,"Vincenzo Pagani, Madonna in gloria con Bambino e Santi Martino, Michele Arcangelo e Giorgio"
87,Museo del Vasaio e del Fischietto,,Via Roma,SNC,044063,Ripatransone,07359338,,,8,Specializzato,,42.9993,13.762,Su richiesta,,,,
88,Museo della Civiltà Contadina e Artigiana,Cripta della Chiesa di San Filippo,Piazzale F.lli Fedeli,SNC,044063,Ripatransone,,,,6,Etnografia e antropologia,Specializzato,43.0006,13.7638,"Non ci sono orari certi di apertura, ma dovrebbe essere aperto la domenica e i festivi, ore 15-19.",,,,
89,Museo e Bottega delle Sculture in legno,,Piazza Matteotti,SNC,044063,Ripatransone,073599288,,,8,Specializzato,,43.0028,13.7649,"È aperto tutti i giorni, al mattino e al pomeriggio, ma è privo di un orario certo di apertura.",,,,
90,Museo Vescovile di Ripatransone - Musei Sistini del Piceno,Chiesa Sant'Agostino e ambienti dell'ex Episcopio,C.so Vittorio Emanuele II,snc,044063,Ripatransone,0735/99301; 0735.594960; 347.3804444,info@museisistini.it,www.museisistini.it,1,Arte,Specializzato,43.0012,13.7626,"Dal 1° giugno al 30 settembre: 15.30-19.30. Il 14-15 agosto ""Puzzle gastronomico"": 21-23.",,,http://sirpac.cultura.marche.it/SirpacIntraWeb/storage/Label/1412/Thumbs/Maddalenas_intra.jpg,"scultore e pittore dell'Italia nord-orientale sec. XV, Santa Maria Maddalena sollevata dagli angeli"
91,Museo di arte sacra di Rotella - Musei Sistini del Piceno,Ambienti attigui alla chiesa di Santa Viviana,Via Ciccolini,5,044065,Rotella,0735/594960; 347.3804444,info@museisistini.it,www.museisistini.it,1,Arte,Specializzato,42.9544,13.5603,"Aperture programmate nei periodi di Natale, Pasqua fino al 1° maggio ed estate. Luglio e agosto: 17-19. Per orari specifici consultare il sito o 347.3804444",,,http://sirpac.cultura.marche.it/SirpacIntraWeb/storage/Label/1412/Thumbs/Fotomuseo005.jpg,"Museo di arte sacra, interno"
92,Museo d’Arte Sacra di San Benedetto del Tronto - Musei Sistini del Piceno,Palazzo Radicioni,Via Pizzi,25,044066,San Benedetto del Tronto,0735/594960; 347.3804444,info@museisistini.it,www.museisistini.it,1,Arte,Specializzato,42.9495,13.8781,"nei periodi di Natale, Pasqua fino al primo maggio. Luglio e agosto: 18-20, la domenica anche 10.30-12.30. Per orari specifici consultare il sito o 347.3804444",Fino al 15 settembre 2013 aperto tutti i giorni 18 - 20 e la domenica anche 10.30 - 12.30.,,http://sirpac.cultura.marche.it/SirpacIntraWeb/storage/Label/1282/Thumbs/48E.jpg,"Ignoto sec. XVIII, I quattro Evangelisti"
93,Museo delle Anfore,Palazzo del Mercato Ittico,Viale Colombo,92,044066,San Benedetto del Tronto,0735/592177,musei@comune.san-benedetto-del-tronto.ap.it,,2,Archeologia,,42.9569,13.8825,Inverno: da lunedì a sabato h.9-12/16-19Estate: da martedì a domenica h. 18-24,,,http://sirpac.cultura.marche.it/SirpacIntraWeb/storage/Label/1282/Thumbs/46E.jpg,Anfora
94,"Museo Ittico ""A. Capriotti""",Palazzo del Mercato Ittico,Banchina di Riva Malfizia,19,044066,San Benedetto del Tronto,0735/588550,info@museoitticocapriotti.it,http://www.museoitticocapriotti.it,4,Storia naturale e scienze naturali,,42.9574,13.8841,"Da settembre a giugno: da martedì a sabato, 9-13Lugkio e agosto: da martedì a domenica, 18-24",,,,
95,Museo della Civiltà Contadina,Spinetoli,Corso Umberto I,34,044071,Spinetoli,0736/890298,munspin@topnet.it,,7,Territoriale,Etnografia e antropologia,42.8892,13.7742,su  richiesta con orari prestabiliti,Il servizio è gratuito.,,,
96,Museo della Scultura,Spinetoli,Via Michelessi,11,044071,Spinetoli,0736/890298,munspin@topnet.it,,1,Arte,,42.8895,13.7738,Aperto su richiesta e a richiesta. il servizio è gratuito,,,,
97,Museo Antropogeografico,Complesso di San Francesco,Largo Leopardi,1,044004,Amandola,0736/848598,chirocef@tin.it,http://www.sibillini.net,6,Etnografia e antropologia,Territoriale,42.9803,13.3601,Mercoledì-venerdì: 9.30-12.30; sabato- domenica: 9.30-12.30/15.30-18.30Luglio/agosto tutti i giorni: 10-12.30/16.30-19. A luglio chiuso il lunedì.,,prezzo intero: 3 €; prezzo ridotto: 2 €,,
98,"Musei scientifici di Villa Vitali: Museo ornitologico “T. Salvadori”, Sala della meteorite, Museo Polare “S. Zavatti”, Museo della Pipa “N. Rizzi”, Raccolta materiale fotografico “A. Matacotta Cordella”",Villa Vitali,Viale Trento,29,044019,Fermo,0734.226166,info@museiscientifici.it,http://www.museiscientifici.it; www.fermomusei.it,6,Etnografia e antropologia,Storia naturale e scienze naturali,43.1656,13.7245,"Luglio-agosto: lunedì, mercoledì, venerdì 9 -12.30, 15.30-18.30; martedì e giovedì 9-12.30; sabato domenica e festivi 16-20; settembre-maggio dal lunedì al venerdì 9-12.30, lun. mer. ven. anche 15.30-18.30, sabato 15.30-18, domenica 15.30-19","Biglietto di Rete Civica (7 gg.): accesso a Polo Mus. Pal. Priori, Cisterne, Museo Dioces., Cattedrale, Oratorio S. Monica, riduzione per musei S. Elpidio a Mare e sconti in esercizi convenzionati.","Biglietto di Rete Civica: intero 7,50€, ridotto 4,50€. Biglietto singolo: intero 2€;ridotto (6-14 anni, over 65, gruppi superiori a 15) 1€",http://sirpac.cultura.marche.it/SirpacIntraWeb/storage/Label/1283/Thumbs/20D.jpg,"Museo di Villa Vitali, esterno"
100,Pinacoteca Comunale,Palazzo Comunale,Via G. Garibaldi,60,044028,Massa Fermana,0734 760127,com.massafermana@provincia.ap.it,,1,Arte,,43.1504,13.4756,"Luglio-agosto: da lunedì a sabato 9-12.30.  Su richiesta tutti i giorni dalle 9,00 alle 13,00.",,,http://sirpac.cultura.marche.it/SirpacIntraWeb/storage/Label/0543/Thumbs/IMG0028.jpg,Pagani Vincenzo
101,Museo del Cappello,,Borgo XX settembre,45,044033,Montappone,0734/760379,info@ilcappellodipaglia.it,http://ilcappellodipaglia.it,8,Specializzato,,43.1371,13.4696,Apertura su richiesta,,Ingresso gratuito,,
102,"Centro studi ""Osvaldo Licini""",Palazzo Comunale,Piazza Osvaldo Licini,9,044051,Monte Vidon Corrado,0734.759348,info@centrostudiosvaldolicini.it,http://www.centrostudiosvaldolicini.org,1,Arte,,43.1215,13.4846,"Luglio- 18 agosto: da martedì a domenica 10-12, 17-19. Venerdì: 10-12, 17-23. Settembre: Sabato e domenica 17-20.","Per informazioni e visite fuori orario, chiamare il numero 334 9276790.",,http://sirpac.cultura.marche.it/SirpacIntraWeb/storage/Label/1283/Thumbs/32D.jpg,"Osvaldo Licini, Fanciullo (?)"
103,Museo dei Fossili e dei Minerali - Museo dell'Alamanno,Palazzo Felici,Via Roma,42,044035,Montefalcone Appennino,0734.79136,info@montefalcone.it,http://www.montefalcone.it,4,Storia naturale e scienze naturali,Arte,42.9887,13.4588,"Luglio - agosto: da giovedì a domenica 10-13, 15-18. 15 agosto: 10-13, 15-18. Settembre: festivi 16-19.",Info: 339.3466752 (0734.79136 nei giorni di apertura).,"Intero: 2,5 €; ridotto: 1,5 €",http://sirpac.cultura.marche.it/SirpacIntraWeb/storage/Label/1407/Thumbs/02701002.jpg,"Pietro Alemanno, Madonna col Bambino"
104,Complesso museale: Pinacoteca Civica “F. Duranti” – Museo d’Arte sacra – Museo faunistico dei Monti Sibillini,Palazzo Leopardi,L.go Duranti,snc,044037,Montefortino,0736/859101,com.montefortino@provincia.ap.it; <br/> info@pinacotecafortunatoduranti.it,http://www.pinacotecafortunatoduranti.it,1,Arte,Territoriale,42.942,13.3422,"Luglio e agosto: tutti i giorni 10-13, 16-19; settembre e ottobre: domenica 10.30-12.30, 16-18. Novembre-giugno: su prenotazione.",Per prenotazioni rivolgersi a: D&P Turismo e Cultura 3393466752,Intero: €3; ridotto: €1.50; visita guidata € 2; gratuito fino a 6 anni e residenti,http://sirpac.cultura.marche.it/SirpacIntraWeb/storage/Label/0536/Thumbs/IMG0057.jpg,"Fortunato Duranti, Autoritratto"
105,"Museo di Arte Sacra e Mostra permanente ""Gli antichi mestieri ambulanti""",Palazzo Agostiniano,L.go Marconi,5,044043,Montelparo,0734/780141,com.montelparo@provincia.ap.it,http://www.tecuting.it/c044043,1,Arte,Etnografia e antropologia,43.0184,13.5367,"Luglio - agosto: tutti i giorni 10-12.30, 16.30-19.",,,,
106,Polo Culturale  San Francesco – Museo Civico Archeologico,Complesso conventuale di San Francesco,via Pagani,25,044047,Monterubbiano,0734.259980; 0734.257396,direzione@museipiceni.it; monterubbiano@museipiceni.it,http://www.museipiceni.it; www.monterubbiano.com,2,Archeologia,Storia naturale e scienze naturali,43.0858,13.7169,"Inverno: sabato e domenica 10-12, 15-17.Luglio-agosto: da martedì a domenica e festivi 10-12, 17-19.","Audioguida: gratuita. Il biglietto Musei Piceni consente l'accesso ai 4 poli museali di Offida, Ripatransone, Montefiore dell'Aso, Monterubbiano.","Intero: 2,5 €; ridotto: 2€; Polo civico: intero 3,5€ ridotto 3€; Musei Piceni: 10€",http://sirpac.cultura.marche.it/SirpacIntraWeb/storage/Label/1283/Thumbs/29D.jpg,"Sala Comunale, interno"
107,Museo della ceramica e civiltà contadina,Scuola Media Statale,Via Galileo Galilei,1-3,044052,Montottone,0734.775135,comune@pec.montottone.eu,http://www.montottone.eu/,8,Specializzato,Specializzato,43.0601,13.5876,Apertura su richiesta.,,,,
109,Antica Stamperia Fabiani,,Vicolo del Forno,3,044058,Petritoli,0734.658213,stampatore8151@alice.it,http://www.anticastamperiafabiani.it,8,Specializzato,,43.0678,13.6556,"Tutti i giorni: 9-13, 14-19",,,,
110,Pinacoteca Civica “Vittore Crivelli”,Palazzo Ex Convento dei Filippini,Corso Baccio,31,044068,Sant'Elpidio a Mare,0734.859279/ 8196372,sem@sistemamuseo.it; culturaeturismo@santelpidioamare.it,http://www.santelpidioamare.it/turismo,1,Arte,,43.2302,13.6849,"Dal 1 aprile al 6 gennaio venerdì: 10-12/16-19, sabato: 16-19, domenica e festivi: 16-19. Luglio-agosto: da mercoledì a domenica 16-19.30, venerdì 10-12.","Chiuso dal 7 gennaio al 31 marzo, 25 dicembre, 1 gennaio. I musei di Sant'Elpidio a Mare aderendo alla Rete museale del Polo Fermano danno diritto a tariffa ridotta per i Musei di Fermo.","Intero: 4.50€; ridotto: 3.50 €(studenti con insegnanti, gruppi da 10, Biglietti Musei di Fermo,ACI, TCI, Italia nostra, FAI), gratuito (under 15 over 65, studiosi)",http://sirpac.cultura.marche.it/SirpacIntraWeb/storage/Label/1283/Thumbs/36D.jpg,"Vittore Crivelli, Polittico"
111,Museo dei fossili,Palazzo Montalto Nannerini,Piazzale Marconi,16,044068,Sant'Elpidio a Mare,0734.859811,ppierleoni1950@libero.it,,4,Storia naturale e scienze naturali,,43.2323,13.6825,Tutto l'anno su richiesta.,"Apertura: in occasione delle Feste di contrada e durante ""Città medievo"".",Ingresso gratuito,,
113,Mostra permanente “Filippo Marchetti”,Palazzo Comunale,via Luigi Maurizi,24,043005,Bolognola,0737/520225,comune@bolognola.sinp.net,http://www.bolognola.sinp.net,8,Specializzato,,42.9933,13.2288,"Su richiesta: dal lun.al sab.,dalle 8.30 alle13.00,domenica e festivi chiuso.",Su richiesta durante gli orari di apertura degli Uffici Comunali.,Ingresso gratuito,,
115,"Museo Civico ""L'Arte nella Resistenza""","sotterranei del Palazzo dei Cardinali Pallotta, ora sede municipale",Piazza Vittorio Emanuele II,13,043006,Caldarola,0733.905529,angelo.seri@caldarola.sinp.net,http://www.caldarola.sinp.net,8,Specializzato,,43.1381,13.2264,Apertura su richiesta,,Ingresso a pagamento,http://sirpac.cultura.marche.it/SirpacIntraWeb/storage/Label/1284/Thumbs/6C.jpg,"Ciro Stajano, Scena di Fucilazione"
116,"Museo e Pinacoteca Diocesana ""G. Boccanera""",Palazzo Arcivescovile,P.zza Cavour,12,043007,Camerino,0737-630400,museo@arcidiocesicamerino.it; curia@arcidiocesicamerino.it,http://www.museiciviciediocesanimarche.it,1,Arte,,43.1358,13.0682,aprile-settembre: da giov a dom 10-13 16-19. ottobre-marzo  sab dom 10-13 15-18,,"Intero: 3,1 €; ridotto: 2,1 €",http://sirpac.cultura.marche.it/SirpacIntraWeb/storage/Label/1284/Thumbs/17C.jpg,"Maestro della Madonna di Macereto, Santa Lucia (part.)"
117,Polo museale di San Domenico - Museo civico e archeologico – Pinacoteca civica “Girolamo di Giovanni”,Convento di San Domenico,piazza dei Costanti,4,043007,Camerino,0737.402310,musei.civici@unicam.it,http://www.museicivicicamerino.it,1,Arte,Archeologia,43.1378,13.0713,10-13 16-19 dal martedì alla domenica  estivo 10-13 15-18 dal martedì alla domenica invernale,,"Intero: 3,1 €; ridotto: 2,1 €",http://sirpac.cultura.marche.it/SirpacIntraWeb/storage/Label/0285/Thumbs/S 13.jpg,"Giovanni Angelo di Antonio, Annunciazione"
118,Castello di Lanciano e Museo Maria Sofia Giustiniani Bandini,Castello di Lanciano,Località Lanciano,3,043009,Castelraimondo,0737.641663 (orario di apertura); 335.7589251,castellolanciano@gmail.com,http://www.museiciviciediocesanimarche.it,1,Arte,,43.1893,13.038,Apertura nei fine settimana e festivi 10-12.30/15-18.30,,prezzo intero: 5 €; prezzo ridotto: 3 €,http://sirpac.cultura.marche.it/SirpacIntraWeb/storage/Label/1284/Thumbs/22C.jpg,"Castello di Lanciano e Museo ""Maria Sofia Giustiniani Bandini"", esterno"
119,Museo del Sidecar,località Valcarecce,Via Valcarecce,13,043012,Cingoli,0733/602651,info@sidecar.it,http://www.sidecar.it,8,Specializzato,Scienza e tecnica,43.3998,13.1753,aperto su richiesta,IL MUSEO E’ TEMPORANEAMENTE INAGIBILE,Ingresso gratuito,,
120,"Pinacoteca Comunale ""D. Stefanucci"" e Chiesa di San Domenico",Centro storico,Via Mazzini,10,043012,Cingoli,0733.602877- 0733.603146 - 0733.601909,comune@cingoli.sinp.net,www.cingoli.sinp.net,1,Arte,Storia,43.3738,13.2158,"dal LUN-al VEN ore 8,30-12,30/15,30-18,30-il SAB 8,30-12,30-DOM su richiesta",,Ingresso a pagamento. Biglietto integrato per visitare gli altri musei e chiese delle Marche che conservano opere di Lorenzo Lotto.,,
121,Raccolta della collegiata di Sant’Esuperanzio,collegiata di  Sant'Esuperanzio,Piazza Zucconi,1,043012,Cingoli,0733/602473,salvuccis@libero.it,,1,Arte,,43.3743,13.2032,"tutti i giorni dalle 8 alle 19,chiesa e sagrestia; su richiesta archivio e cripta",,Ingresso gratuito,http://sirpac.cultura.marche.it/SirpacIntraWeb/storage/Label/1284/Thumbs/29C.jpg,"Bottega marchigiana, Croce astile"
122,Palazzo Castiglioni,Palazzo Pio VIII Castiglioni,C.so Garibaldi,87,043012,Cingoli,0733/602531,vineria@email.it,http://cingoli.sinp.net,1,Arte,Storia,43.3764,13.2146,"Non ci sono orari prestabiliti,vengono definiti con i visitatori",,Ingresso a pagamento,,
123,Pinacoteca civica – Galleria d’Arte Moderna “M. Moretti”,Civitanova Marche Alta,Via Annibal caro,24,043013,Civitanova Marche,0733.891019,info@pinacotecamoretti.it,http://www.pinacotecamoretti.it,1,Arte,,43.3164,13.6788,Da lunedì a sabato 9 - 13. Per gruppi di minimo 10 persone anche su appuntamento il sabato e la domenica.,Le aperture straordinarie sono comunicate sul sito.,Ingresso gratuito,http://sirpac.cultura.marche.it/SirpacIntraWeb/storage/Label/1284/Thumbs/31C.jpg,"Galleria d'arte moderna ""Moretti"", interno"
124,Fondazione Mori - Museo Storico del Trotto,Zona Ippodromo Mori,C.da Asola,24,043013,Civitanova Marche,0733.1871163,info@museodeltrotto.it,www.museodeltrotto.it,8,Specializzato,Arte,43.3383,13.6792,Dal lunedì al venerdì: 9-12/15-18; sabato e domenica aperto su prenotazione telefonica o in occasione di particolari eventi (consultare sito),,Ingresso 2 € (ingresso gratuito in occasione di particolari giornate culturali),http://sirpac.cultura.marche.it/SirpacIntraWeb/storage/Label/1407/Thumbs/LOGO FONDAZIONE in verticale.jpg,Logo del Museo Storico del Trotto
125,Museo della Memoria “Renzo Contratti Ventura”,"Colmurano, Ex Chiesa Ss. Ap. Petro et Paullo",Viale De Amicis,SNC,043014,Colmurano,0733508287,comune@colmurano.sinp.net,http://www.museoventura.sinp.net,1,Arte,,43.1642,13.3578,10-13; 16-19,,,http://sirpac.cultura.marche.it/SirpacIntraWeb/storage/Label/1284/Thumbs/33C.jpg,"Renzo C. Ventura, copertina de Le adolescenti di Mario Mariani, Modernissima, Milano 1919"
126,Pinacoteca Comunale,Palazzo Persichetti Ugolini,Piazza del Popolo,SNC,043015,Corridonia,0733.439901,segreteria@comune.corridonia.mc.it; labirinto@cheapnet.it,http://www.comune.corridonia.mc.it,1,Arte,,43.2482,13.5088,"Sabato e domenica 17-19, oppure su richiesta.",,,http://sirpac.cultura.marche.it/SirpacIntraWeb/storage/Label/1284/Thumbs/34C.jpg,"Durante Nobili, Madonna con il Bambino in gloria e santi"
127,"Museo Casa Natale ""Filippo Corridoni""",Archivio Storico - Palazzo Municipale,Via Trincea delle Frasche,29,043015,Corridonia,0733/439901,segreteria@comune.corridonia.mc.it,www.museocorridoni.it,8,Specializzato,Storia,43.2505,13.5138,"Domenica 17-19, oppure su richiesta",,,http://sirpac.cultura.marche.it/SirpacIntraWeb/storage/Label/1407/Thumbs/Museo1.jpg,Veduta interna del museo
128,Esposizione Archeologica Permanente,Palazzo Comunale Fiastra,Via Roma,1,043017,Fiastra,0737/52112,comune@fiastra.sinp.net,http://www.fiastra.sinp.net,2,Archeologia,,43.0359,13.1559,apertura su richiesta,,Ingresso gratuito,,
129,Museo di Storia Naturale,,Via Tripoli,9,043020,Gagliole,0737 640031,m.storianaturale@libero.it,http://www.museostorianaturalegagliole.it,4,Storia naturale e scienze naturali,,43.2382,13.0675,da Sett. a Giu. 15.00/19.00 sab.dom.festiviLuglio ed Agosto 10.00/13.00-16.00/19.00 chiuso il lunedì,aperture straordinarie su richiesta,"prezzo intero: 2,5 €; prezzo ridotto: 1,5 €",http://sirpac.cultura.marche.it/SirpacIntraWeb/storage/Label/1284/Thumbs/39C.jpg,"Ursus spelaeus, risalente al Quaternario"
130,Museo delle due guerre mondiali,"Loro Piceno, Castello di Brunforte",Piazza San Liberato,SNC,043022,Loro Piceno,0733509112,comune@loropiceno.sinp.net,http://www.loropiceno.sinp.net; www.sistemamuseale-mc.it,3,Storia,,43.1658,13.4158,"Aperto da metà Giugno a metà Settembre: Sabato, Domenica e festivi dalle 10.00 alle 13.00 e dalle 16.00 alle 19.00.",Apertura a richiesta con preavviso,"prezzo intero: 2,5 €; prezzo ridotto: 1,5 €",,
131,Museo Diocesano - Raccolta del Santuario della Beata Vergine Madre della Misericordia,,Piazza Strambi,2,043023,Macerata,0733-230660,,www.sistemamuseale–mc.it,1,Arte,,43.3008,13.4563,Apertura a richiesta,,Ingresso gratuito,,
132,Musei Civici di Palazzo Buonaccorsi,,Via Don Minzoni,24,043023,Macerata,0733.256361,pinacoteca@comune.macerata.it,http://www.maceratamusei.it  http://musei.comune.macerata.it:81/index.asp,1,Arte,Specializzato,43.3006,13.4554,Da martedì a domenica: 10-18. Chiuso il lunedì e il 25 dicembre. 1 gennaio 15-18.,,,http://sirpac.cultura.marche.it/SirpacIntraWeb/storage/Label/1407/Thumbs/35.jpg,"Carlo Crivelli, Madonna con Bambino"
133,Museo “V.F. Piersanti”,Palazzo Piersanti,Via Umberto I,11,043024,Matelica,0737.84445,museopiersantimatelica@virgilio.it,http://www.comune.matelica.mc.it,1,Arte,Specializzato,43.2561,13.0083,"Ottobre-Marzo: sabato, domenica e festivi 10-12/15-17; Aprile-Settembre: martedì-domenica 10-12/15,30-18.",,prezzo intero: 4 €; prezzo ridotto: 2 €,http://sirpac.cultura.marche.it/SirpacIntraWeb/storage/Label/1407/Thumbs/Ritratto_Venanzio_Filippo_Piersanti.jpg,"Gian Domenico Porta, Ritratto di monsignor Venanzio Filippo Piersanti"
134,Museo Civico Archeologico,Palazzo Finaguerra,Via San Francesco,snc,043024,Matelica,0737.787244,museoarcheo@comune.matelica.mc.it,http://www.comune.matelica.mc.it,2,Archeologia,Arte,43.2573,13.0106,Invernale: 16.30-19.30 CHIUSO IL MARTEDI'estivo: 10.30-13/16.30/19 CHIUSO IL MARTEDI',,prezzo intero: 3 €; prezzo ridotto: 2 €,http://sirpac.cultura.marche.it/SirpacIntraWeb/storage/Label/1284/Thumbs/41C.jpg,"Orologio solare sferico detto ""Globo di Matelica"", I-II sec. d. C."
135,"Pinacoteca Comunale ""R. Fidanza""",Palazzo Ottoni,Piazza Enrico Mattei,1,043024,Matelica,0737 781830,biblioteca@comune.matelica.mc.it,http://www.comune.matelica.mc.it/,1,Arte,Storia,43.255,13.0116,inv. sab.-dom. festivi e prefestivi 10-12; 16-18est. lun-ven. 16-18; sab.dom. 10-12; 16-18,giorno di chiusura il martedì,Ingresso a pagamento,http://sirpac.cultura.marche.it/SirpacIntraWeb/storage/Label/0176/Thumbs/73267-H.jpg,"Raffaele Fidanza, Autoritratto"
136,Museo parrocchiale di Santa Maria di Piazza,Oratorio Madonna della Misericordia,Vicolo Boninfanti,SNC,043025,Mogliano,0733.557771,protocollo@comune.mogliano.mc.it,http://www.comune.mogliano.mc.it,1,Arte,,43.1865,13.4803,MUSEO CHIUSO,MUSEO CHIUSO,Ingresso gratuito,,
137,"""Collezione""A. Maggiori"":  Disegni dal '500 al '700",Palazzo dei Priori,via Garibaldi,1,043031,Monte San Giusto,0733/839000,centromaggiori@montesangiusto.sinp.net,www.montesangiusto.org,1,Arte,,43.2366,13.5952,feriali 9-13; festivi 9-13 \ 14-18,Il museo rimane aperto anche in giorni prestabiliti durante le festività (Natale e Pasqua).,Ingresso gratuito,,
138,Pinacoteca Civica “Mons. Armindo Ricci”,Palazzo Ricci,Via A. Ricci,10,043032,Monte San Martino,0733-660107,servizi.demografici@montesanmartino.sinp.net,http://www.montesanmartino.sinp.net,1,Arte,,43.0323,13.4425,Il museo è aperto su richiesta.,,prezzo intero: 5 €; prezzo ridotto: 4 €,http://sirpac.cultura.marche.it/SirpacIntraWeb/storage/Label/1284/Thumbs/82C.jpg,"Ignoto, Ritratto di Monsignor Armindo Ricci"
139,Pinacoteca della chiesa di San Martino Vescovo,,Viale della Vittoria,SNC,043032,Monte San Martino,0733/660107,comune@montesanmartino.sinp.net,http://www.comune.montesanmartino.mc.it,1,Arte,,43.0319,13.4378,Periodo estivo: aperto domenica pomeriggioPeriodo invernale: su richiesta,,,http://sirpac.cultura.marche.it/SirpacIntraWeb/storage/Label/1407/Thumbs/polittico_fondo_nero.jpg,"Carlo e Vittore Crivelli, Polittico"
140,Museo Civico Pinacoteca “Palazzo Lazzarini”,Palazzo Lazzarini,Piazza Vittorio Emanuele II,8,043033,Morrovalle,0733/223437,biblioteca.morrovalle@virgilio.it,www.comune.morrovalle.mc.it,1,Arte,Storia,43.3145,13.579,Giugno-luglio-agosto: sabato e domenica 10-12; 16-19. Settembre-maggio: sabato e domenica 16 -19.,,,http://sirpac.cultura.marche.it/SirpacIntraWeb/storage/Label/1284/Thumbs/83C.jpg,"Marchisiano di Giorgio, Madonna del Soccorso"
141,Museo Archeologico “Muccia:  antico crocevia dell’Appennino”,Chiesa di S.Maria di Varano - Muccia,Contrada Varano,,043034,Muccia,0737/646135,comune@muccia.sinp.net,http://www.archeologia.muccia.sinp.net,2,Archeologia,,43.0801,13.051,apertura su richiesta,Lunedì chiuso,Ingresso a pagamento,,
142,Museo della Nostra Terra e Mulino del fiume,Pieve Torina,Via S.Agostino,1,043038,Pieve Torina,0737/518032,visso@lycosmail.com,http://www.musei.sibillini.net,7,Territoriale,Etnografia e antropologia,43.0403,13.047,Periodo invernale: tutti i giorni anche i festiviAgosto: tutti i giorni anche i festivi,,prezzo intero: 2 €; prezzo ridotto: 1 €,,
144,"""Pievebovigliana-Museo"" (Museo Archeologico, Museo Civico, R.Campelli  -Museo storico del territorio, Coll.  xilografie M. Ciccotti e Racc. G. Marotta)",Palazzo comunale di Pievebovigliana,Piazza Vittorio Veneto,90,043037,Pievebovigliana,0737/44126,comune@pievebovigliana.sinp.net,http://www.pievebovigliana.sinp.net,1,Arte,Archeologia,43.0621,13.0844,Dal lun al sab 8:30/14:00 - estivo anche il pomeriggio 15:30 /18:30+su richiesta,La domenica e festivi su richiesta,,http://sirpac.cultura.marche.it/SirpacIntraWeb/storage/Label/1284/Thumbs/84C.jpg,Testina femminile
145,Musei Civici di Pioraco,Palazzo Comunale,Largo Giacomo Leopardi,1,043039,Pioraco,0737.42485 - 0737.42142,,www.comune.pioraco.mc.it,4,Storia naturale e scienze naturali,,43.1788,12.9846,Prefestivi dalle 15.30 alle 18.00; Festivi dalle 10.30 alle 12.00 e dalle 15.30 alle 18.00,,Ingresso a pagamento,,
146,Museo Civico di Palazzo Cento,Palazzo Cento,Via Roma,32,043041,Pollenza,0733 549387,assessorecultura@pollenza.sinp.net,http://www.pollenza.mc.it,2,Archeologia,Storia,43.2669,13.3486,Orario invernale:10.00-13.00/15.00-18.00.Orario estivo:10.00-13.00/16.00-19.00.,"Apertura:mag-giugno(sab-dom-festivi),lug-agosto(ven-sab-dom)e tutti i giorni dal 10 al 19 agosto.",prezzo intero: 2 €; prezzo ridotto: 1 €,http://sirpac.cultura.marche.it/SirpacIntraWeb/storage/Label/1284/Thumbs/85C.jpg,Figura femminile rappresentata come Artemide
147,"Civica Raccolta d'Arte ""B. Biancolini""",Convento San Francesco,Via Trento,7,043043,Potenza Picena,0733679260,cultura@comune.potenza-picena.mc.it,http://comune.potenza-picena.mc.it,1,Arte,,43.3675,13.6207,MUSEO CHIUSO,MUSEO CHIUSO,Ingresso gratuito,,
148,Museo Didattico-Artistico G. Leopardi del Centro Nazionale di Studi Leopardiani,c/o Centro Nazionale di Studi Leopardiani,Via Monte Tabor,2,043044,Recanati,071/7570604,www.centrostudileopardiani.it,http://www.leopardi.it,8,Specializzato,,43.398,13.5514,Lunedì - Venerdì: 10/13.30 - 17/19.30; Sabato: 10/13.30,,Ingresso a pagamento,,
149,"Museo ""B. Gigli"" e Museo della chitarra",Teatro Giuseppe Persiani,Corso Cavour,s.n.c.,043044,Recanati,071/7579445,spaziocultura@virgilio.it,,8,Specializzato,,43.4026,13.5494,Dal Martedì alla Domenica. Giugno - Settembre: 10/13 - 15/18; Luglio e Agosto: 10/13 - 15/19.,,"Intero: 2,5 €; ridotto: 1,5 €",,
150,Museo Civico Villa Colloredo Mels,Villa Colloredo Mels,"Via Gregorio XII, già Via del Duomo",snc,043044,Recanati,071/7570410,spaziocultura@virgilio.it,http://www.villacolloredomels.it,1,Arte,Archeologia,43.4062,13.5432,Martedì - Domenica. ORARIO INVERNALE: 10/13 - 15/19  ORARIO ESTIVO: 10/13 - 16/20,Orario Invernale: Giugno/Settembre - Orario Estivo: Luglio/Agosto,a pagamento. Biglietto integrato per visitare gli altri musei e chiese delle Marche che conservano opere di Lorenzo Lotto,http://sirpac.cultura.marche.it/SirpacIntraWeb/storage/Label/0221/Thumbs/C1408.jpg,"Lorenzo Lotto, Annunciazione"
151,Museo di Arte Contemporanea e dei Pittori dell'Emigrazione,Villa Colloredo Mels,via Gregorio XII,s.n.,043044,Recanati,071/7570410,spaziocultura@virgilio.it,www.comune.recanati.mc.it,1,Arte,,43.4061,13.5432,INVERNALE: martedì a domenica 9/12 e15/19; ESTIVO: da Martedì a Domenica dalle 16 alle 20.,,"prezzo intero: 1 €; prezzo ridotto: 0,5 €",,
152,Museo Diocesano - sezione di Recanati,Palazzo episcopale,via Gregorio XII,2,043044,Recanati,071/7574278,museodiocsezrecanati@tiscali.it; spaziocultura@virgilio.it,www.comune.recanati.mc.it,1,Arte,Storia,43.4062,13.544,"da Venerdì a Domenica: 10,30-12.20/ 15,30/18,30",,Offerta libera,http://sirpac.cultura.marche.it/SirpacIntraWeb/storage/Label/1284/Thumbs/92C.jpg,"Ambito umbro, Crocifissione e Natività"
154,"Museo e Pinacoteca ""S. Gentili""",ex Chiesa di San Sebastiano,Via Raffaele Merelli,14,043046,San Ginesio,0733.656022 - 0733.652056 (IAT) - 334.3068305,info@sanginesio.sinp.net,http://www.sanginesio.sinp.net,1,Arte,Archeologia,43.1077,13.3264,Periodo pasquale - periodo estivo (lug.- set.) - periodo natalizio: 10-13 / 16-19. Chiuso lunedì.,,"prezzo intero: 1,5 €; prezzo ridotto: 1 €",http://sirpac.cultura.marche.it/SirpacIntraWeb/storage/Label/1284/Thumbs/97C.jpg,"Simone De Magistris, Pietà e Santi"
155,Galleria Comunale d’Arte Moderna - Collezione Filippo Bigioli,Palazzo Comunale,Piazza del Popolo,45,043047,San Severino Marche,07336411,info@comune.sanseverinomarche.mc.it,http://www.comune.sanseverinomarche.mc.it,1,Arte,Territoriale,43.2289,13.1771,aperto tutti i giorni su richiesta dalle 09.00 alle 19.00,,,,
156,"Museo Archeologico ""G. Moretti""",Antico Episcopio di Castello al Monte,Via Castello al Monte,0,043047,San Severino Marche,0733633919,info@comune.sanseverinomarche.mc.it,http://www.comune.sanseverinomarche.mc.it,2,Archeologia,,43.2258,13.1767,"inv. 09.00.13.00, est. 19.00-13.00, 16.00-19.00 lun. chiuso",apertura tutti i giorni feriali festivi anche infrasettimanali chiuso solo il lunedì,Ingresso a pagamento,http://sirpac.cultura.marche.it/SirpacIntraWeb/storage/Label/1284/Thumbs/98C.jpg,Base con iscrizione onoraria romana
157,"Museo del Territorio ""Oberdan Poletti""",scuola,Viale Collio,,043047,San Severino Marche,0733638377,presidenza@ictacchiventuri.it,www.sanseverino.sinp.net,6,Etnografia e antropologia,Territoriale,43.2293,13.1758,aperto tutti i giorni dalle 9.00 alle 13.00; Chiuso il Lunedì,,Ingresso gratuito,,
158,"Pinacoteca Comunale ""Tacchi-Venturi""",Palazzo Manuzzini,Via Salimbeni,39,043047,San Severino Marche,0733638095,DISANS10@pinacotecasanseverinomarche.191.it,http://www.comune.sanseverinomarche.mc.it,1,Arte,,43.2282,13.1742,"INVERNALE 9.00-13.00    ESTIVO 9.00-13.00, 16.00-19.00. CHIUSO IL LUNEDI'","Aperto il sabato, la domenica e le festività infrasettimanali",Ingresso a pagamento,http://sirpac.cultura.marche.it/SirpacIntraWeb/storage/Label/1284/Thumbs/100C.jpg,"Lorenzo Salimbeni, Nozze mistiche di Santa Caterina d’Alessandria"
159,Pinacoteca Comunale e Musei Civici,ex Monastero di Santa Chiara,Via Giacomo Leopardi,179,043049,Sarnano,0733.659923,beniculturali@scoccogabrielli.it,http://www.scoccogabrielli.it,1,Arte,Scienza e tecnica,43.0358,13.2992,"Festività fr 16-19 pf-fs 10-13/16-19 Estate 10-12/17-19.30 Mostra Mercato fr 17-21 pf-fs 9-13/15-22.Dall'8/12 al 7/1 l'orario è: feriali 16-19; festivi e prefestivi 10-12, 16-19","Fino al 6 novembre 2011 presso il Palazzo del Popolo è allestita la mostra ""Vittore Crivelli"" www.vittorecrivelli.it","Intero: 5 €; ridotto: 3,5 €",http://sirpac.cultura.marche.it/SirpacIntraWeb/storage/Label/1284/Thumbs/110C.jpg,"Vincenzo Pagani, Santa Lucia"
160,"Museo della civiltà contadina ""Ferretti Florindo""",Torre Varano,Via Castello,,043050,Sefro,,,,6,Etnografia e antropologia,,43.1475,12.9496,aperto su richiesta. Agosto aperto tutti i giorni. Luglio aperto solo la domenica,,Ingresso gratuito,,
161,Museo dell'Uomo,centro storico-Torre di Guardia,Via Castello,2,043051,Serrapetrona,0733.908321,comune@serrapetrona.sinp.net,http://www.serrapetrona.sinp.net,6,Etnografia e antropologia,,43.1762,13.1888,Apertura su richiesta,,Ingresso gratuito,http://sirpac.cultura.marche.it/SirpacIntraWeb/storage/Label/1407/Thumbs/interno_museo_uomo.jpg,Strumenti da lavoro
162,Pinacoteca Nazionale d' Arte Sacra Contemporanea,Centro storico,Via San Francesco,1,043051,Serrapetrona,0733.908321,comune@serrapetrona.sinp.net,http://www.serrapetrona.sinp.net,1,Arte,,43.1759,13.1883,"giugno-luglio-agosto 09.00-12.30, 16.00-19.00 i restanti mesi su richiesta",,,http://sirpac.cultura.marche.it/SirpacIntraWeb/storage/Label/1407/Thumbs/interno_pinacoteca.jpg,"Pinacoteca Nazionale d' Arte Sacra Contemporanea, interno"
163,Museo  Archeologico dell’Abbazia di Santa Maria di Chiaravalle di Fiastra,Abbadia di S. Maria di Chiaravalle di Fiastra,Contrada Abbadia di Fiastra (Strada Statale78),2,043053,Tolentino,0733/202122,riserva@abbadiafiastra.net,http://www.abbadiafiastra.net,2,Archeologia,,43.2215,13.4036,periodi estivi: 10.00-13.00/15.00-19.00periodi invernali:10.00-13.00/15.00-18.00,,prezzo intero: 3 €; prezzo ridotto: 3 €,http://sirpac.cultura.marche.it/SirpacIntraWeb/storage/Label/1284/Thumbs/122C.jpg,Ritratto di Druso Maggiore
164,"Museo Archeologico ""Aristide Gentiloni Silverj""",Castello della Rancia,Contrada Rancia,snc,043053,Tolentino,0733/973349,info@biennaleumorismo.org; agnese.paoloni@comune.tolentino.mc.it,http://www.comune.tolentino.mc.it,2,Archeologia,,43.2308,13.3558,Orario invernale:10.00-13.00/15.00-18.00. Orario estivo:10.00-13.00/15.00-19.00.,Aperture mesi invernali:sab-dom-festivi(6 ore);aprile-ottobre:chiuso solo il lunedi.,"prezzo intero: 4 €; prezzo ridotto: 2,5 €",http://sirpac.cultura.marche.it/SirpacIntraWeb/storage/Label/1284/Thumbs/120C.jpg,Statua femminile
165,Museo del Santuario della Basilica di San Nicola,Basilica di San Nicola,Piazza San Nicola,3,043053,Tolentino,0733/976311,agostiniani@sannicoladatolentino.it; libreria@sannicoladatolentino.it,http://sannicoladatolentino.it,1,Arte,,43.2083,13.2862,Tutti i giorni dalle 9.30-12.00/16.00-19.00,,Ingresso gratuito,http://sirpac.cultura.marche.it/SirpacIntraWeb/storage/Label/1284/Thumbs/115C.jpg,"Cappellone di San Nicola, Scuola riminese, Angeli musicanti (part.)"
167,Museo Internazionale dell'Umorismo nell'Arte (Miumor),Palazzo Sangallo,Piazza della Libertà,18,043053,Tolentino,0733 969797,info@biennaleumorismo.org,http://www.biennaleumorismo.org,8,Specializzato,Arte,43.209,13.285,Orario invernale:10.00-13.00/15.00-18.00.Orario estivo:10.00-13.00/15.00-19.00.,Aperture mesi invernali:sab-dom-festivi(6 ore);aprile-ottobre:chiuso solo il lunedi.,"prezzo intero: 3 €; prezzo ridotto: 1,5 €",,
168,Palazzo Parisani Bezzi - Sale Napoleoniche,Palazzo Parisani Bezzi,Via Della Pace,20,043053,Tolentino,0733 960613,info@biennaleumorismo.org; museo.napoleonico@libero.it,http://www.comune.tolentino.mc.it,3,Storia,Arte,43.2101,13.2848,Orario invernale:10.00-13.00/15.00-18.00.Orario estivo:10.00-13.00/15.00-19.00.,Aperture:nov-dicembre (sab-dom-festivi);aprile-ottobre chiuso solo il lunedi.,"prezzo intero: 3 €; prezzo ridotto: 1,5 €",,
169,Museo delle Armi e delle Uniformi,Ex Chiesa di San Biagio,Via Sacrario,SNC,043055,Urbisaglia,0733 512648,ufficiosegreteria@urbisaglia.sinp.net,http://www.urbisaglia.sinp.net,3,Storia,,43.1981,13.3781,"Inverno: sabato e domenica 10.00-13.00/14.30-16.30.Prim e aut 10-13/15-18,30. estate tutti i giorni",,prezzo intero: 2 €; prezzo ridotto: 1 €,,
170,Museo del Cardinal Gasparri,Palazzo Comunale,piazza XI Febbraio,5,043056,Ussita,0737/971211,comune@ussita.sinp.net,http://www.ussita.sinp.net,3,Storia,,42.944,13.1388,Apertura su richiesta,,Ingresso gratuito,,
171,Museo Civico Diocesano Museo dei manoscritti leopardiani,Ex Chiesa di Sant'Agostino,Piazza Martiri Vissani,snc,043057,Visso,335/7589254,protocollo@visso.sinp.net,www.museiciviciediocesanimarche.it,1,Arte,Specializzato,42.9314,13.0871,Inverno:sab.(15.30-18.30)dom./festivi(10.30-12.30/15.30-18.30) Dal15/7al15/9:tutti i gg(lun.matt.chiuso),Apertura dal 27/12 al 4/01 tutti i giorni dalle 15.30 alle 18.30.,"prezzo intero: 5 €; prezzo ridotto: 3,5 €",http://sirpac.cultura.marche.it/SirpacIntraWeb/storage/Label/1284/Thumbs/130C.jpg,"Maestro della Madonna di Macereto, Madonna col Bambino"
172,Mostra permanente delle attrezzature per il Vino Cotto,"Loro Piceno, Chiostro di San Francesco",Piazza San Francesco,2,043022,Loro Piceno,0733.509112,comune@loropiceno.sinp.net,http://www.loropiceno.sinp.net,6,Etnografia e antropologia,,43.1671,13.4153,"Giugno aperto il Sabato e Domenica dalle 10.00 alle 13.00 e dalle 16.00 alle 19.00; Luglio aperto il Venerdì dalle 16.00 alle 19.00 e il Sabato e Domenica dalle 10.00 alle 13.00 e dalle 16.00 alle 19.00; Agosto aperto il Venerdì, Sabato e Domenica dalle 1",,"prezzo intero: 2,5 €; prezzo ridotto: 1,5 €",,
173,Museo della Storia Postale dei 15 Comuni della Comunità Montana dei Monti Azzurri,,Piazza San Francesco,1,043022,Loro Piceno,327.2320853 - 0733.509112,comune@loropiceno.sinp.net,www.comune.loropiceno.mc.it,3,Storia,,43.1671,13.4156,Apertura su richiesta,,Ingresso a pagamento,,
174,Museo interattivo della tradizione locale,Chiostro di San Francesco,Piazza San Francesco,2,043022,Loro Piceno,0733509112,comune@loropiceno.sinp.net,http://www.loropiceno.sinp.net,7,Territoriale,,43.1663,13.4158,10-13; 16-19,Numero totale di ore di apertura per il 2007:351. N. tot. di ore periodo estivo:232.,"prezzo intero: 2,5 €; prezzo ridotto: 1,5 €",,
175,Raccolta Archeologica Raccolte Civiche Chiesa di San Marco,Palazzo Compagnucci,Via Peranzone,1,043026,Montecassiano,0733.299811,ufficio.segreteria@comune.montecassiano.mc.it,http://www.comune.montecassiano.mc.it,1,Arte,Archeologia,43.3635,13.4355,MUSEO CHIUSO,MUSEO CHIUSO,,,
180,"Museo ""CAM - Complesso Agostiniano Montecosaro"" - Museo d'Arte antica ""Sergio Graziosi"" - Pinacoteca ""Graziosi-Peschi"" - Museo del Fossile - Collezione opere grafiche di G. De Chirico e M. Maccari",,via E. Gatti,3,043028,Montecosaro,0733/560711,comune.montecosaro.mc@libero.it,http://www.comune.montecosaro.mc.it,1,Arte,Archeologia,43.317,13.6353,periodo estivo e festività:10.30-12.30/16.30-18.30 lun. chiuso; resto dell'anno: sab/dom: 16.30-18.30,,,,
181,Museo dell'Olio,,Via Borgo,1,043051,Serrapetrona,0733.908321,comune@serrapetrona.sinp.net,http://www.serrapetrona.sinp.net,6,Etnografia e antropologia,,43.1776,13.1906,Apertura su richiesta,,ingresso gratuito,http://sirpac.cultura.marche.it/SirpacIntraWeb/storage/Label/1407/Thumbs/interno_archivio_storico.jpg,Sala del museo
182,Museo degli ori e argenti della chiesa di S. Francesco,Centro storico,Piazzale San Francesco,8,043051,Serrapetrona,0733-908321,comune@serrapetrona.sinp.net,http://www.serrapetrona.sinp.net,1,Arte,,43.1759,13.1869,Apertura su richiesta,,,http://sirpac.cultura.marche.it/SirpacIntraWeb/storage/Label/1407/Thumbs/particolare_2.jpg,Ostensori
185,Antiquarium Pitinum Mergens,,Corso Roma,47,041001,Acqualagna,"0721.79671, 0721.799040 (biblioteca)",comune.acqualagna@provincia.ps.it,http://www.comune.acqualagna.ps.it,2,Archeologia,,43.6166,12.6722,Ottobre-maggio: martedì-sabato: 9-14; giugno- settembre: 14-19,"Nel periodo delle 3 fiere del tartufo, il museo rimane aperto anche nei festivi con orario 9-19",ingresso gratuito,,
186,Museo dei Fossili e Minerali del monte Nerone,,via XX  Settembre,25,041002,Apecchio,0722.989005,info@comune.apecchio.ps.it,http://www.comune.apecchio.ps.it,4,Storia naturale e scienze naturali,Archeologia,43.5585,12.4193,"Luglio-7 ottobre: martedì-venerdì 10.30-12.30, 16.30-18.30; festivi e prefestivi: 16-19; 7 ottobre-30 giugno: festivi e prefestivi 10.30-12.30, 16.30-18.30; altri giorni a richiesta.",,ingresso gratuito,,
188,Museo delle Terrecotte e Banda Grossi,,Corso Umberto,17,041004,Barchi,0721.97152,comune.barchi@provincia.ps.it,http://www.vallediculture.it,6,Etnografia e antropologia,,43.6725,12.9288,Apertura su richiesta,Attività didattiche e visite guidate su prenotazione: contattare Comune di Barchi 0721.97152.,,,
189,Museo delle cose di ieri. Mostra permanente  Museo della Civiltà Contadina Appenninica ed Attrezzi Agricoli,Agriturismo Sacchia,Località Sacchia,4,041006,Borgo Pace,0722/89358,info@sacchiafarm.it,http://www.sacchiafarm.it,6,Etnografia e antropologia,,43.6666,12.2914,Giugno-Settembre: 10.00-12.00  17.00-19.00Ottobre-Maggio: Su richiesta,Nel periodo estivo è programmata ogni anno un'esposizione temporanea.,Gratuito,,
191,Museo del Carbonaio – Centro di Educazione ambientale,Ex Conceria - Borgo Pace,Località Le Conce,SNC,041006,Borgo Pace,0722/816048,turismo@comune.borgo-pace.ps.it,,6,Etnografia e antropologia,Storia naturale e scienze naturali,43.6586,12.2961,Aperto solo su richiesta,,gratuito,,
192,Centro per la  Scultura Contemporanea. Torre martiniana,Torrione di Francesco di Giorgio Martini,Via del Torrione,SNC,041007,Cagli,,polomuseale@comune.cagli.ps.it,,1,Arte,,43.5452,12.6469,"Da aprile a giugno e settembre: sab e dom 10-12.30/16.30-19.30,luglio,agosto aperto tutti i giorni",,"Intero: 3 €; ridotto: 2,5 €",http://sirpac.cultura.marche.it/SirpacIntraWeb/storage/Label/1285/Thumbs/59B.jpg,"Francesco di Giorgio Martini, Torrione"
193,Museo Archeologico e della Via Flaminia,Palazzo pubblico,Piazza Matteotti,1,041007,Cagli,,polomuseale@comune.cagli.ps.it,,2,Archeologia,,43.5467,12.6481,MUSEO CHIUSO,MUSEO CHIUSO,gratuito,http://sirpac.cultura.marche.it/SirpacIntraWeb/storage/Label/1285/Thumbs/61B.jpg,Capitello
194,"Museo Archeologico e della Via Flaminia ""G. C. Corsi"". Museo Geo Territoriale.",Ex Convento Chiesa di Sant'Agostino,Via IV Novembre,22,041008,Cantiano,"0721/788493, 0721/788484",museocantiano@comune.cantiano.pu.it; info@museo-cantiano.it,http://www.museo-cantiano.it,2,Archeologia,Territoriale,43.474,12.6283,"Tranne il mese di agosto, domenica e festivi: 15/18, agosto tutti i giorni: 16/19.",Il 17 e 18 novembre in occasione della mostra del Tartufo Bianco apertura 15-18.,Intero: € 1,,
196,El paternal mio nido – Centro di documentazione Giovanni Santi,Colbordolo,Via Roma,13,041012,Colbordolo,0721-496201,biblio.colbordolo@provincia.ps.it,http://www.comune.colbordolo.pu.it/,1,Arte,,43.8205,12.7216,,,gratuito,,
197,"Pinacoteca  e Museo Civico ""Malatestiano""",Palazzo Malatestiano,Piazza XX Settembre,4,041013,Fano,0721/828362; 0721/839098,museocivico@comune.fano.ps.it,http://www.comune.fano.ps.it/cultura,1,Arte,Archeologia,43.8445,13.0183,"Orario invernale (dal 16/9 al 14/6): da martedì a domenica 9-13, martedì giovedì domenica 15-18. Chiuso lunedì. Orario estivo: dal martedì a sabato 9-13, martedì giovedì domenica 17-20. Luglio-agosto: martedì e giovedì apertura serale 17-23. Chiuso lunedì",,"Intero: 3,5 €; ridotto: 2 € (gruppi min. 10 persone + guida e over 65); gruppi scolastici:gratuito.",http://sirpac.cultura.marche.it/SirpacIntraWeb/storage/Label/1285/Thumbs/63B.jpg,Statua virile
199,Musei di Palazzo Ducale: Museo Civico “A. Vernarecci” e Pinacoteca Civica,,Via Conte Federico da Montefeltro,16,041015,Fossombrone,0721 740291,puntoiat@comune.fossombrone.ps.it,http://www.comune.fossombrone.ps.it,2,Archeologia,Arte,43.6902,12.8068,"sabato e domenica, dalle 16 alle 19 fino al 31 dicembre(aperture straordinarie tel.0721 72 32 63)",,Intero: 4 €; ridotto: 3 €,http://sirpac.cultura.marche.it/SirpacIntraWeb/storage/Label/1151/Thumbs/CRBC12538YT.jpg,Testa di Adriano
200,Quadreria Cesarini. Casa Museo,,Via Pergamino,32,041015,Fossombrone,0721/714650,puntoiat@comune.fossombrone.ps.it,http://www.comune.fossombrone.ps.it,1,Arte,,43.689,12.802,"sabato e domenica, dalle 16 alle 19(aperture straordinarie tel.0721 72 32 63)",,Intero: 4 €; ridotto: 3 €,http://sirpac.cultura.marche.it/SirpacIntraWeb/storage/Label/1285/Thumbs/75B.jpg,"Quadreria ""Cesarini"", interno"
201,"Museo  Demoetnoantropologico della ""Terracotta e della Terra Cruda""",Complesso Conventuale Santa Vittoria,Via del Convento,7,041016,Fratte Rosa,0721.771014,musei@terracottefratterosa.it,http://www.terrecottefratterosa.it,8,Specializzato,Territoriale,43.6459,12.8939,Dal 21 aprile al 31 dicembre aperto sabato e domenica dalle 17.00 - 20.00,Il museo effettua aperture su prenotazione per gruppi di almeno 15 persone,prezzo intero: 3 €; prezzo ridotto: 2 €,,
202,"Museo ""F. Assetto""",,C.so Giovanni XXIII,16,041017,Frontino,0722/71131,,www.frontinomontefeltro.it/arte-e-cultura/museo-f-assetto/,1,Arte,,,,"Da lunedì a venerdì 9-13, lunedì e mercoledì 15.30-17.30",,gratuito (rivolgersi al Comune),http://sirpac.cultura.marche.it/SirpacIntraWeb/storage/Label/1285/Thumbs/81B.jpg,"Museo ""Assetto"", interno"
203,Mulino di Ponte Vecchio,Mulino Ponte Vecchio,Mulino di Frontino,,041017,Frontino,0722/71135; 0722/75350,comune.frontino@provincia.ps.it,http://www.comune.frontino.pu.it,6,Etnografia e antropologia,,43.7648,12.3788,su prenotazione,,Gratuito,http://sirpac.cultura.marche.it/SirpacIntraWeb/storage/Label/1285/Thumbs/84B.jpg,Mulino alimentato dalle acque del Torrente Mutino
204,"Raccolta Comunale d’Arte della ""Rocca di Frontone""",Castello di Frontone,Piazzale della Rocca,1,041018,Frontone,0721/790716,comune.frontone@provincia.ps.it; frontone5@interfree.it,,1,Arte,,43.5171,12.7277,"Settembre-Maggio sab 15-19, dom e fest 11-13, 15-19; Giugno sab 15-20, dom e fest 11-13, 15-20; Luglio sab 16-20, dom e fest 11-13, 16-20; Agosto da lun a sab 16-20, dom e fest 11-13, 16-20",Per info e visite fuori orario (max 4 persone) tel. 338.3805478/ 339.8429426,"Intero: 3 €; ridotto: 2,5 €",http://sirpac.cultura.marche.it/SirpacIntraWeb/storage/Label/1285/Thumbs/86B.jpg,"Rocca di Frontone, esterno"
205,Sulle Tracce dei Nostri Padri,Monastero di Montebello,via Montebello,1,041021,Isola del Piano,0721/720334,fondazione@alcenerocooperativa.it,www.comune.isola-del-piano.ps.it,7,Territoriale,,43.7375,12.7837,"tutti i giorni dalle 9 alle 12 e dalle 15 alle 18, esclusi i festivi",,gratuito,,
206,Trecce e Intrecci,Castelgagliardo,,,041021,Isola del Piano,0721.720127,comune.isola-piano@provincia.ps.it,,7,Territoriale,,43.7427,12.8043,Estate: aperto la domenica 16-19,Per visite su richiesta tel. 0721.720127,,,
207,Museo Civico Archeologico e Paleontologico,Palazzo del Podestà,via Abstemio Castello,2,041023,Macerata Feltria,0722/73231,comune.macerataf@provincia.ps.it,http://www.comune.maceratafeltria.pu.it,2,Archeologia,Storia naturale e scienze naturali,43.8058,12.4462,"dal 15 giugno al 30 settembre: tutti i giorni (escluso il Lunedì) ore 10-12,30, 16,30 - 19,30 dal periodo pasquale al 1° maggio: sabato - domenica e festivi ore 15,30 - 18,30 in altri giorni e orari, su prenotazione solo per gite scolastiche e gruppi orga",Per prenotazioni tel. Sig. Rossi Giuseppe 340 3454102 - 0722 74546,"Intero: 2 €; ridotto: 1,5 €",http://sirpac.cultura.marche.it/SirpacIntraWeb/storage/Label/1285/Thumbs/98B.jpg,"Museo Civico, interno"
208,Museo Diocesano di San Francesco,Ex Convento di San Francesco,Piazza San Francesco,6,041025,Mercatello sul Metauro,0722.89819; 345.5626403,mercatello@museodelmetauro.it,http://www.museodelmetauro.it/,1,Arte,Archeologia,43.6462,12.336,"10.00-12.30, 16.30-19.00, chiuso i lunedì non festivi",Da settembre 2011 a giugno 2012 il museo sarà oggetto di lavori di ampliamento e adeguamento funzionale. Per effettuare visite in tale periodo contattare la Pro Loco.,Intero: 3 €; ridotto: 2 €,http://sirpac.cultura.marche.it/SirpacIntraWeb/storage/Label/1285/Thumbs/105B.jpg,"Claudio Ridolfi, Battesimo di Gesù"
209,Museo Diocesano della Collegiata,,piazza Garibaldi,SNC,041025,Mercatello sul Metauro,0722.89593,donnico@wooow.it,http://www.museodelmetauro.it,1,Arte,,43.6473,12.3371,"Apertura solo su prenotazione, la Chiesa è sempre aperta.",La chiesa è servita dalle guide ed audioguide disponibili presso presso il Museo di San Francesco; visite guidate su prenotazione.,ingresso gratuito,,
210,Museo della Civiltà Contadina,,P.zza Barocci,2,041027,Mombaroccio,0721.470799,proloco_mombaroccio@libero.it,http://digilander.libero.it/proloco_mombaroccio,6,Etnografia e antropologia,Storia,43.7968,12.855,INVERNO 15-18 ESTATE 9-12 /16-19,,ingresso gratuito,http://sirpac.cultura.marche.it/SirpacIntraWeb/storage/Label/1151/Thumbs/CRBC12418XA.jpg,"sotterranei dell'ex Convento di San Marco, MOMBAROCCIO"
211,Pinacoteca conventuale “Beato Sante”,,via Passo,22,041027,Mombaroccio,0721/471122,beatosanteofm@libero.it,www.mombaroccio.eu,1,Arte,Storia,43.7896,12.8615,su richiesta,,ingresso gratuito,http://sirpac.cultura.marche.it/SirpacIntraWeb/storage/Label/1285/Thumbs/106B.jpg,Maestro dell’Incoronazione Bellpuig
212,Pinacoteca Comunale,ex Convento di San Francesco,Piazza Matteotti,3,041028,Mondavio,0721.97101,comune.mondavio@provincia.ps.it,http://comune.mondavio.pu.it,1,Arte,,43.6744,12.9689,9 - 12 / 15 - 19,,prezzo intero: 4 €; prezzo ridotto: 3 €,,
213,Museo di Rievocazione Storica  della Rocca Roveresca,Centro Storico,Piazza Giovanni della Rovere,snc,041028,Mondavio,0721/97101,comune.mondavio@provincia.ps.it,http://www.comune.mondavio.pu.it,3,Storia,,43.6742,12.9685,9 - 12  /  15 - 19,,"5 € intero; 3 € ridotto (gruppi 15 persone, ultra 65, ragazzi 6-14 anni); scuole che svolgono laboratori €2.50",http://sirpac.cultura.marche.it/SirpacIntraWeb/storage/Label/1267/Thumbs/41028006ft08.jpg,MONDAVIO
214,Centro per l’arte contemporanea “Il Conventino”,,via Conventino,3,041032,Monteciccardo,0721/910586,comune.monteciccardo@provincia.ps.it,http://www.comune.monteciccardo.pu.it,1,Arte,,43.8157,12.8052,aperto su richiesta,,ingresso gratuito,,
215,"Museo Civico - Storico -  Ambientale del fiume Metauro -""Winston Churchill""",,Via Roma,SNC,041037,Montemaggiore al Metauro,0721895312,comune.montemaggiore@provincia.ps.it,http://comune.montemaggiore.pu.it,3,Storia,,43.7369,12.9468,dalle 09:00 alle 12:00 ogni sabato,,ingresso gratuito,,
220,"Gabinetto Geologico e Botanico ""Raffaele Piccinini  - Raccolta di fossili “R. Piccinini”",Biblioteca Comunale Bruto Enrico Giuppi,Piazza Garibaldi,16,041043,Pergola,0721/778786,,,4,Storia naturale e scienze naturali,Territoriale,43.5644,12.8344,MUSEO CHIUSO,MUSEO CHIUSO,Chiuso - in allestimento,,
221,Museo dei Bronzi Dorati e della Città di Pergola,Ex-convento di San Giacomo,Largo San Giacomo,1,041043,Pergola,0721/734090; 0721/7373278; 0721/7373274,museo.bronzidorati@libero.it,http://www.bronzidorati.com,2,Archeologia,Arte,43.5642,12.8344,"Dalle 10 alle 12.30 e dalle 15.30 alle 18.30. Chiuso lunedì, 25 dicembre e 1 gennaio. Luglio e agosto aperto tutti i giorni: 10 -12.30, 15.30-19.",Sono previste aperture straordinarie su prenotazione,"Intero: 6 €; ridotto: 5 € (over 65, gruppi >15 pax, soci coop e Touring); scolaresche 4 €; bambini 6-11 anni 3 €; gratuito < 6 anni, invalidi civili sup. 2/3, grandi invalidi di guerra e del lavoro",http://sirpac.cultura.marche.it/SirpacIntraWeb/storage/Label/1412/Thumbs/gruppo.jpg,Bronzi dorati da Cartoceto di Pergola
222,I Musei Civici di Palazzo Mosca,Palazzo Toschi Mosca,Piazza Toschi Mosca,29,041044,Pesaro,0721.387541; callcenter 199 151 123 (a pagamento),musei@comune.pesaro.pu.it,www.pesaromusei.it; www.pesarocultura.it,1,Arte,,43.9112,12.9132,"Giugno-settembre: mart-dom 10-13,16.30-19.30, luglio-agosto: mar mer ven sab dom 10-13,16.30-19.30, gio 10-13,16.30-19.30,21.30-23.30; ottobre-maggio:mar-gio 10-13, ven-dom e festivi 10-13,15.30-18.30. Chiuso: lunedì, 25 dicembre,1 gennaio.","Biglietto unico Pesaro Musei vale 7 giorni e comprende Musei Civici, Casa Rossini e mostre temporanee all'interno delle strutture. Numero verde 800961993 per prenotazioni per le scuole","Intero: 9 €; ridotto: 7,50 € gruppi, over 65, FAI, TCI, Coop, 5€ titolari card Pesaro Cult; gratuito: fino a 19 anni, portatori handicap e accompagnatore, ICOM, giornalisti, III dom nov-mag con card/",http://sirpac.cultura.marche.it/SirpacIntraWeb/storage/Label/1285/Thumbs/1B.jpg,"Giovanni Bellini, Incoronazione della Vergine (Pala di Pesaro)"
223,Morbidelli Museo,Zona industriale,Via Fermo,39,041044,Pesaro,0721.24307,info@museomorbidelli.it,http://www.museomorbidelli.it,8,Specializzato,,43.9026,12.8881,"1 gennaio- 31 maggio: sabato ore 15-19; 1 giugno - 30 settembre: martedì 9.30-12.30, sabato 15-19; 1 ottobre - 31 dicembre: sabato 15-19",Sono previste visite su richiesta.,"Intero: 10 €; ridotto (gruppi scolastici, under 14): 5 €",,
224,Museo Archeologico Oliveriano,Palazzo Almerici,via Mazza,97,041044,Pesaro,0721.33344,biblio.oliveriana@provincia.pu.it,http://www.oliveriana.pu.it,2,Archeologia,,43.9098,12.9098,Dal lunedì al venerdì dalle 15 alle 18. Sabato dalle 9 alle 12. Ogni sabato alle ore 10.30 visite guidate ad ingresso libero.,L'apertura è possibile grazie alla borsa lavoro assegnata dalla Provincia di Pesaro e Urbino su finanziamento della Regione Marche.,ingresso gratuito,http://sirpac.cultura.marche.it/SirpacIntraWeb/storage/Label/1412/Thumbs/SalaIII_idolino.jpg,"Veduta della Sala III, Sezione II con l'Idolino di Pesaro"
225,"Museo della Marineria ""W. Patrignani""",Villa Molaroni,viale Pola,9,041044,Pesaro,0721.387541/35588/387393;call center 199151123,museomarineria@comune.pesaro.pu.it,www.museomarineriapesaro.info; www.pesarocultura.it,6,Etnografia e antropologia,,43.9165,12.9084,"Da giugno a settembre: venerdì sabato domenica e festivi 10-13, 16-19. Da ottobre a maggio: venerdì sabato domenica e festivi 16-19. Chiuso 1 gennaio e 25 dicembre.",Durante tutto l'anno aperto su prenotazione da lunedì a giovedì per visite guidate di gruppi e percorsi didattici con le scuole (call center 199 151 123),ingresso gratuito,http://sirpac.cultura.marche.it/SirpacIntraWeb/storage/Label/1407/Thumbs/sala_Maestri_dascia.jpg,Interno del museo
226,Museo Diocesano,Palazzo Lazzarini,via Rossini,53,041044,Pesaro,0721 371219,museo@arcidiocesipesaro.it,http://www.arcidiocesipesaro.it,1,Arte,Archeologia,43.9114,12.9146,"Inverno (1 ottobre-30 maggio): sabato e domenica 16-19; Estate (1 giugno-15 settembre): martedì, mercoledì, venerdì, sabato e domenica 16-19; giovedì 16-22. Chiuso lunedì, 1 gennaio, 15 agosto, 16-30 settembre eccetto il 24, 25-26 e 31 dicembre.","Apert.straord.:1 nov,8 dic,6 gen,Pasqua e lun, 25 apr,2 giu,settim cult, giorn FAI:16-19, ogni 3 dom (no ag):9.30-12.30,16-19, lug.16-22; ROF 9.30-12.30,16-19; 24 sett:15.30-19.30 gratis.","Intero: 3 €; ridotto: 2 €; contributo attività didattica € 1, vis. guid. €1. Riduzioni over 65 under 25, 3 dom. gruppi, sett. cult,FAI, gratuità ICOM, handicap e accomp., giornalisti, guide e interpr",,
227,Casa Rossini,,via Rossini,34,041044,Pesaro,0721 387357; infoline 199 151 123,casarossini@comune.pesaro.pu.it,www.museicivicipesaro.it; www.pesarocultura.it,8,Specializzato,,43.9108,12.9141,"Giugno-settembre: mart. giov. ven. sab. dom. 10-13, 16-19.30, merc. 10-13. Ottobre-maggio: mart. merc. giov. 10-13, ven. sab. dom. 10-13, 15.30-19. Lunedì chiuso.","Dal 10 al 23 agosto durante il Rossini Opera Festival, Casa Rossini sarà sempre aperta (anche il lunedì) aggiungendo al consueto orario l'apertura serale dalle 21 alle 23.",Intero: 4 €; ridotto: 2 €; gratuito: fino a 14 anni e ogni terza domenica del mese,,
228,Museo del Fungo,Loc. San Sisto,,,041047,Piandimeleto,0722.75350 - 0722.721121,info@museimontefeltro.it,http://www.museimontefeltro.it; http://www.comune.piandimeleto.pu.it,4,Storia naturale e scienze naturali,,43.7493,12.3552,Su richiesta,,ingresso gratuito,,
229,Musei del Castello dei Conti Oliva. Museo del Lavoro Contadino Museo di Scienze della Terra,Castello dei Conti Oliva,Piazza Conti Oliva,2,041047,Piandimeleto,0722.721528 - 0722.721808,info@museimontefeltro.it; centrovisite@libero.it,www.museimontefeltro.it,6,Etnografia e antropologia,,43.7496,12.3531,Su richiesta,"Aperto tutti i giorni su prenotazione: 30 minuti di preavviso per visite individuali, 24 ore per gruppi superiori a 15 unità",Ingresso a pagamento,http://sirpac.cultura.marche.it/SirpacIntraWeb/storage/Label/1285/Thumbs/114B.jpg,"Castello dei Conti Oliva, esterno"
230,"Raccolta d’Arte ""Ugo Ubaldi""",Biblioteca Comunale,Via Dante Alighieri,15,041047,Piandimeleto,0722.721808,biblio.piandimeleto@provincia.ps.it,www.comune.piandimeleto.pu.it,1,Arte,Archeologia,43.7249,12.4124,Lunedì e Venerdì dalle 15.00 alle 19.00; Mercoledì dalle 9.00 alle 12.00 e dalle 15.00 alle 19.00Gli altri giorni su prenotazione.,,ingresso gratuito,,
231,"Museo Civico Statale ""Brancaleoni""",Castello Brancaleoni,Via Brancaleoni,6,041049,Piobbico,0722/985418,servizioturismo@comune.piobbico.pu.it,http://www.comune.piobbico.pu.it,4,Storia naturale e scienze naturali,Archeologia,43.5902,12.5127,"Feriali 9:00-12:00, 14:30-18:30    Festivi 10:30-13:00, 15:30-18:30",,Intero: 4 €; ridotto: 2 €,http://sirpac.cultura.marche.it/SirpacIntraWeb/storage/Label/1151/Thumbs/CRBC12482YJ.jpg,"Museo Geopaleontologico Naturalistico Antropico Ornitologico ""Brancaleoni"", PIOBBICO"
232,Museo del Balì,,Località San Martino,sn,041050,Saltara,0721.892390,info@museodelbali.it,http://www.museodelbali.it,8,Specializzato,,43.7561,12.8901,Apertura per il pubblico tutte le domeniche e festivi. Il museo è stagionale e gli orari variano in funzione del periodo; consultare il sito per conoscere i dettagli. Durante l'anno scolastico il museo lavora su prenotazione con le scuole di ogni ordine e,,"Intero: 5€ (ingresso museo), 7€ (ingresso museo+planetario); ridotto (under 10 anni): 2€, riduz. 20% (escl. osservatorio) over 65, insegnanti, universitari; 5€ osservatorio.",http://sirpac.cultura.marche.it/SirpacIntraWeb/storage/Label/1394/Thumbs/209t.jpg,"Museo del Balì, sala per attività didattica"
233,Quadreria Comunale e Sala archeologica dell'abitato protostorico e della necropoli picena,Palazzo Cassi,Piazza della Vittoria,9,041051,San Costanzo,0721.950110 (ProLoco) - 0721.951212 (Comune),cultura@comune.san-costanzo.pu.it,www.comune.sancostanzo.pu.it,2,Archeologia,Arte,43.7625,13.0685,"inverno:martedì e giovedì:16-18, sabato:9-12, domenica:10-12; estate: tutti i giorni tranne lunedì:17-22.30",,ingresso gratuito,http://sirpac.cultura.marche.it/SirpacIntraWeb/storage/Label/1412/Thumbs/cassi_5700.jpg,"esterno di Palazzo Cassi, sede del Museo"
234,MuSa Museo Storico Ambientale marchigiano,,Via Castello San Giorgio,5,041052,San Giorgio di Pesaro,0721.970027 - 0721.970102 (Comune),comune.san-giorgio@provincia.ps.it,www.vallediculture.it,6,Etnografia e antropologia,,43.7167,12.9753,"aperto Sabato, Domenica e festivi da Aprile a Settembre dalle 16.00 alle 19.00, da Ottobre a Marzo dalle 15.00 alle 18.00Apertura su prenotazioni per gruppi",,Ingresso a pagamento,,
237,Museo Archeologico del Territorio e Museo Etnografico Africano,Palazzo Della Rovere,via Giuseppe Mazzini,2,041054,San Lorenzo in Campo,0721.776516 - 333.4766569,comune.san-lorenzo@provincia.ps.it,http://www.consorziosuasa.it; www.comune.sanlorenzoincampo.pu.it,2,Archeologia,Etnografia e antropologia,43.604,12.9442,Pasqua-settembre: 10-12/15-18. Inverno a richiesta,,Ingresso a pagamento,http://sirpac.cultura.marche.it/SirpacIntraWeb/storage/Label/1151/Thumbs/CRBC12465XA.jpg,"Museo Comunale Laurentino - Museo etnografico africano (Sierra Leone), SAN LORENZO IN CAMPO"
238,Museo delle Terre Marchigiane. Collezione Straccini,,Via Leopardi,SNC,041054,San Lorenzo in Campo,0721.776904,informazioni@museoterremarchigiane.it; duemilamusei@gmail.com,http://www.museoterremarchigiane.it,6,Etnografia e antropologia,Storia,43.5999,12.9449,"15 Settembre-30 Maggio: sabato domenica e festivi 15.30-18.30; 1 Giugno - 14 Settembre: sabato domenica e festivi 10-12, 16.30-19.30",Visite su prenotazione. Per attività didattica tel. 3357333830.,Intero: 3 €; ridotto: 2 €,http://sirpac.cultura.marche.it/SirpacIntraWeb/storage/Label/1285/Thumbs/130B.jpg,"Museo delle Terre Marchigiane, Cucina"
239,Museo Demoantropologico “I vecchi mestieri”,Palazzo Mercuri,Piazza Umberto I,4,041057,Sant'Angelo in Vado,0722/ 819914,cultura@comune.sant-angelo-in-vado.ps.it; info@museipartecipati.it,http://www.comune.sant-angelo-in-vado.it; www.museipartecipati.it,6,Etnografia e antropologia,,43.6646,12.413,Tutti i giorni: 9-12/ 15-19,,Intero: 2 €; ridotto: 1 €,,
240,Museo Civico Antiquarium e area archeologica Domus del mito,Località Pradello,Via Pratello Santa Maria,SNC,041057,Sant'Angelo in Vado,0722/ 88455,comune.sangelo-vado@provincia.ps.it; cultura@comune.sant-angelo-in-vado.ps.it,http://www.comune.sant-angelo-in-vado.it,2,Archeologia,Arte,43.6663,12.4113,Tutti i giorni: 9-13/ 15-19,,Intero: 2 €; ridotto: 1 €,http://sirpac.cultura.marche.it/SirpacIntraWeb/storage/Label/1407/Thumbs/Roma_23.jpg,"Taddeo e Federico Zuccari, Madonna con Bambino in gloria e angeli"
241,Museo del Territorio – Arte degli Scalpellini,Palazzo Bracci,Piazza Garibaldi,1,041058,Sant'Ippolito,0721.728144,comune.santippolito@provincia.ps.it; scolpireinpiazza@gmail.com,http://www.scalpellini.org,8,Specializzato,,43.6857,12.8705,in occasione di eventi,apertura riferita al periodo di svolgimento degli eventi,ingresso gratuito,,
242,Pinacoteca della Rocca Ubaldinesca,Rocca Ubaldinesca,Piazza Battelli,1,041059,Sassocorvaro,0722/76177,pro_loco.sassocorvaro@yahoo.it,www.montefeltro.net/sassocorvaro.it,1,Arte,Specializzato,43.7811,12.4954,estate: 9.30-12.30;15.00-19.00;inverno: 9.30-12.30;14.30-18.00;,,"Intero: 4 €; ridotto: 2,5 €",http://sirpac.cultura.marche.it/SirpacIntraWeb/storage/Label/1407/Thumbs/IMG_4900.jpg,"Francesco Di Giorgio Martini, Rocca Ubaldinesca, corte interna"
245,"Musei di Palazzo Ducale. Museo Civico, Pinacoteca, Collezione di grafica",Palazzo Ducale,Corso Vittorio Emanuele,23,041066,Urbania,0722/313151,museo@marcheweb.com,http://www.marcheweb.com/museourbania,1,Arte,Storia,43.6682,12.5229,Ore 10-12 e 15-18; chiuso il lunedì.,,Intero: 4 €; ridotto: 2 €,http://sirpac.cultura.marche.it/SirpacIntraWeb/storage/Label/1407/Thumbs/13.jpg,"Nicolaus Hogenberg, Il trionfo di Carlo V (particolare)"
246,Museo Diocesano,ex- Palazzo Vescovile,via Urbano VIII,7,041066,Urbania,0722/312020,museodiocesano@casteldurante.it,www.provincia.ps.it,1,Arte,Storia,43.6676,12.5243,"aperto tutti i giorni 10-12, 15-18 nel periodo estivo",,Ingresso a pagamento,http://sirpac.cultura.marche.it/SirpacIntraWeb/storage/Label/1285/Thumbs/138B.jpg,Codice miniato
247,Casa Natale di Raffaello,,Via Raffaello,57,041067,Urbino,0722.320105,segreteria@accademiaraffaello.it,http://www.accademiaraffaello.it,1,Arte,,43.7271,12.6353,"dall'1novembre al 28 febbraio, dal lunedì al sabato ore 9-14, domenica e festivi 10-13, 15-18; dal 1 marzo al 31 ottobre, dal lunedì al sabato 9-13, 15-19, domenica e festivi 10-13, 15-18. Chiuso Natale e 1 gennaio.",,prezzo intero: 3 €; prezzo ridotto: 2 €; scolaresche: 1€; under 15 gratuito,http://sirpac.cultura.marche.it/SirpacIntraWeb/storage/Label/1285/Thumbs/52B.jpg,"Raffaello, Madonna con Bambino"
248,Museo della Città,Palazzo Bonaventura Odasi,Via Valerio,1,041067,Urbino,0722/ 309270,museodellacittà@comune.urbino.ps.it,http://www.urbinoculturaturismo.it,7,Territoriale,Arte,43.7252,12.6377,Lunedì-venerdì 9.30-13.30 _ Sabato e domenia 10-18 _ Martedì chiuso.,,libero,http://sirpac.cultura.marche.it/SirpacIntraWeb/storage/Label/1285/Thumbs/56B.jpg,"Museo della Città, interno"
249,Museo Diocesano “Albani”,,Piazza Pascoli,2,041067,Urbino,0722.2214,museoalbani@arcidiocesiurbino.it,http://www.arcidiocesiurbino.it,1,Arte,Arte,43.7251,12.6367,"Tutti i giorni 9.30 -13.00, 14.30 - 18.30. Chiuso martedì. Orario in vigore fino al 5 novembre 2012.",,"prezzo intero: 3,50 €; prezzo ridotto: 2,50 € (gruppi, 10 px); scuole: 1,50 €",http://sirpac.cultura.marche.it/SirpacIntraWeb/storage/Label/1285/Thumbs/46B.jpg,"Antonio Alberti da Ferrara, Il ritrovamento e l'esaltazione della croce"
250,Museo del Gabinetto di Fisica dell’Università,,Piazza della Repubblica,3,041067,Urbino,07224146,flavio.vetrano@uniurb.it,http://www.uniurb.it/physlab/museum.html,8,Specializzato,,43.7263,12.6364,da lunedì a giovedì 9-13 15-19 e venerdì 9-13,,gratuito,,
251,Museum Graphia -Museo Internazionale della Stampa,,Via Della Miniera,10,041067,Urbino,0722.345322,info@cortedellaminiera.it,http://cortedellaminiera.it,5,Scienza e tecnica,Specializzato,43.7799,12.5889,su richiesta,,gratuito,,
252,Oratorio di San Giovanni,,Via Barocci,31,041067,Urbino,0722.328806,,,1,Arte,,43.7258,12.6346,dal lunedì al sabato 10-12.30 e 15-18 domenica 10-12.30,,"Intero: 2 €; ridotto: 1,5 €",http://sirpac.cultura.marche.it/SirpacIntraWeb/storage/Label/0615/Thumbs/29801.jpg,Salimbeni Lorenzo e Jacopo
253,Oratorio di San Giuseppe,,Via Barocci,42,041067,Urbino,0722.328352,serpret@alice.it,,1,Arte,,43.7258,12.6348,"ore 10-12,30 e 15,30-18 tutto lanno - chiusura il lunedì",,Intero: 2 €; ridotto: 1 €,,
259,I Muri. Esposizione permanente del Maestro Oscar Piattella,Ex Convento Chiesa di Sant'Agostino,Via IV Novembre,22,041008,Cantiano,0721/789934; 0721/789936,info@museo-cantiano.it; museocantiano@comune.cantiano.pu.it,http://www.comunecantiano.eu/OscarPiattella/OscarPiattella5.htm,1,Arte,,43.4727,12.6284,"Tranne il mese di agosto, domenica e festivi:15.00/18.00, agosto tutti i giorni: 16.00/19.00",E' possibile effettuare visite guidate con la presenza del Maestro; e-mail info@oscarpiattella.it; www.oscarpiattella.it,Gratuito,,
261,Fondazione Pescheria - Centro Arti Visive,ex Pescheria; ex Chiesa del Suffragio,Corso XI Settembre,184,041044,Pesaro,0721/387651,centroartivisive@comune.pesaro.pu.it,http://www.centroartivisivepescheria.it,1,Arte,,43.912,12.9083,"Estate: dal martedì al venerdì 10-12.30, 16.30-20; sabato domenica e festivi 10-12.30, 16.30-22. Inverno 10-12,17.30-19.30. Lunedì chiuso.",,,http://sirpac.cultura.marche.it/SirpacIntraWeb/storage/Label/1412/Thumbs/Pescheria_fronte_1.jpg,"Fondazione Pescheria Centro Arti Visive, esterno"
262,Museo delle Scienze,Convento di San Domenico,Piazza dei Costanti,7,043007,Camerino,0737- 403100,musnat@unicam.it,http://web.unicam.it/museodellescienze/,4,Storia naturale e scienze naturali,Etnografia e antropologia,43.1379,13.0714,"Da martedì a domenica: 10-13/16-19 (dal 1°aprile); 15-18 (dal 1° ottobre). Lunedì su prenotazione; chiuso i lunedì, 25 dicembre, 1 gennaio",,"Intero € 2,50; gratuito under 18 over 65, capigruppo, insegnanti con scolaresca, studenti Unicam, residenti,guide turistiche, disabili e accompagnatore, militari in divisa, giornalisti",http://sirpac.cultura.marche.it/SirpacIntraWeb/storage/Label/1407/Thumbs/Ambienti terrestri.jpg,Ambienti terrestri
263,Museo della Calzatura “Cav. Vincenzo Andolfi”,Palazzo Ex Convento dei Filippini,Corso Baccio,31,044068,Sant'Elpidio a Mare,0734.859279/ 8196372,sem@sistemamuseo.it; culturaeturismo@santelpidioamare.it,http://www.santelpidioamare.it/turismo,8,Specializzato,,43.2302,13.6849,"Dal 1 aprile al 6 gennaio venerdì: 10-12/16-19, sabato: 16-19, domenica e festivi: 16-19. Luglio-agosto: da mercoledì a domenica 16-19.30, venerdì 10-12.","Chiuso dal 7 gennaio al 31 marzo, 25 dicembre, 1 gennaio. I musei di Sant'Elpidio a Mare aderendo alla Rete museale del Polo Fermano danno diritto a tariffa ridotta per i Musei di Fermo.","Intero: 4.50€; ridotto: 3.50 €(studenti con insegnanti, gruppi da 10, Biglietti Musei di Fermo,ACI, TCI, Italia nostra, FAI), gratuito (under 15 over 65, studiosi)",http://sirpac.cultura.marche.it/SirpacIntraWeb/storage/Label/1283/Thumbs/39D.jpg,Calzature
264,Museo degli antichi mestieri,,Via Guerrieri,15,044028,Massa Fermana,0734 760108,info@comunemassafermana.it,,5,Scienza e tecnica,Etnografia e antropologia,43.1503,13.4758,Tutti i giorni su richiesta.,,,,
265,Museo del Cappello di Paglia,Palazzo Orologio,Via Guerrieri,1,044028,Massa Fermana,0736.760099,,http://www.museodelcappello.it,8,Specializzato,,43.1503,13.4755,Apertura su richiesta,,,,
271,Polo museale di Palazzo dei Priori - Pinacoteca civica – Museo Archeologico Sezione picena - Sala del mappamondo,Palazzo dei Priori,Piazza del Popolo,5,044019,Fermo,0734-217140,museidifermo@comune.fermo.it,http://www.fermomusei.it,1,Arte,Archeologia,43.1617,13.7182,"Settembre-maggio: da martedì a venerdì 10-13, 15.30-18; sabato e domenica 10-13, 15.30-19. Chiuso lunedì. Dal 1 luglio al 31 agosto: tutti i giorni 10-13, 16.00-20, tutti i giovedì di luglio e agosto apertura serale 21-24. dal 10 al 20 agosto: apertura se","Biglietto di Rete Civica (7 gg.): accesso a Musei Villa Vitali, Cisterne, Museo Dioces., Cattedrale, Oratorio S. Monica, riduzione per musei S. Elpidio a Mare e sconti in esercizi convenzionati.","Biglietto di Rete Civica: intero 7,50€, ridotto 4,50€. Biglietto singolo: intero 3€, ridotto (6-14 anni, over 65, gruppi superiori a 15) 2€.",http://sirpac.cultura.marche.it/SirpacIntraWeb/storage/Label/1407/Thumbs/RUBENS_ALTA_DOPO_RESTAURO.jpg,"Peter Paul Rubens, Adorazione dei pastori"
272,"Musei di San Marco: Museo d'arte sacra, Museo della civiltà contadina, Mostra del ricamo",Chiesa di San Marco,piazza Barocci,2,041027,Mombaroccio,0721/470799,proloco_mombaroccio@libero.it,http://digilander.libero.it/proloco.mombaroccio,1,Arte,Storia,43.7968,12.855,stagione invernale: 15-18; stagione estiva: 9-12/16-19,,ingresso gratuito,http://sirpac.cultura.marche.it/SirpacIntraWeb/storage/Label/1285/Thumbs/106B.jpg,"Maestro dell’Incoronazione Bellpuig, Crocifisso"
274,Museo della Civiltà Contadina dell’Abbazia di Santa Maria di Chiaravalle di Fiastra,Abbadia di S. Maria di Chiaravalle di Fiastra,Contrada Abbadia di Fiastra (Strada Statale78),2,043053,Tolentino,0733/202122,riserva@abbadiafiastra.net,http://www.abbadiafiastra.net,6,Etnografia e antropologia,,43.2215,13.4037,Periodi Estivi: 10.00-13.00/ 15.30-18.30Periodi Invernali (sabato e Domenica)10.00-13.00/ 15-18.,,Ingresso a pagamento,,
275,Cisterne Romane,,Via degli Aceti,,044019,Fermo,0734.217140,museidifermo@comune.fermo.it,http://www.fermomusei.it,2,Archeologia,,43.1611,13.7193,"Settembre-maggio: da martedì a venerdì visite guidate ore 10.30, 11.30, 12.30, 16, 17. Sabato e domenica visite guidate ore:10.30, 11.30, 12.30, 16, 17, 18. Chiuso lunedì. Luglio-agosto: tutti i giorni visite guidate: 10.30, 11.30, 12.30, 16.30, 17.30, 18","Biglietto di Rete Civica (7 gg.): accesso a Polo Mus. Pal. Priori, Musei Villa Vitali, Museo Dioces., Cattedrale, Oratorio S. Monica, riduz. musei S. Elpidio a Mare, sconti in esercizi convenzionati.","Biglietto di Rete Civica: intero 7,50€, ridotto 4,50€. Biglietto singolo (ingresso e visita guidata): intero 3€, ridotto (6-14 anni, over 65, gruppi superiori a 15) 2€.",,
276,Museo Archeologico di Jesi e del territorio,Jesi/Complesso San Floriano,Piazza Federico II,7,042021,Jesi,,,http://www.comune.jesi.an.it,2,Archeologia,,43.5248,13.2454,MUSEO CHIUSO,MUSEO CHIUSO,,http://sirpac.cultura.marche.it/SirpacIntraWeb/storage/Label/1281/Thumbs/75A.jpg,Testa virile
277,"Museo ""A. Colocci""",Palazzo Colocci,Piazza Colocci,SNC,042021,Jesi,,,http://www.comune.jesi.an.it,1,Arte,Storia,43.5234,13.2444,MUSEO CHIUSO,MUSEO CHIUSO,,,
278,Museo dei Colori Naturali,"Abbazia Benedettina di S. Michele Arcangelo, Lamoli di Borgo Pace",via dell'Abbazia,7,041006,Borgo Pace,0722/80133,lamoli@oasisanbenedetto.it,http://www.oasisanbenedetto.it/museocolori.htm,8,Specializzato,Scienza e tecnica,43.6226,12.2562,Sab. dom. e fes. Lug. Ago. 10.00-13.00 e 15.00-18.00. Altri giorni da mar. e dic. su richiesta.,Essendo gestito dall'albergo di cui fa parte è facilmente visitabile a tutte le ore.,a pagamento.,,
279,"Pinacoteca ""Patrizio Gennari""",Palazzo Comunale,Piazza Castello,15,044053,Moresco,0734.259983,cultura.moresco@ucvaldaso.it,http://www.comune.moresco.fm.it,1,Arte,,43.0856,13.7315,"Inverno: sabato e domenica 15-17; estate: tutti i giorni 17-20, 21-23.",,Ingresso gratuito,http://sirpac.cultura.marche.it/SirpacIntraWeb/storage/Label/1283/Thumbs/35D.jpg,"Vincenzo Pagani, Madonna in Gloria e Santi"
281,Lapidario,Palazzo Arringo,Piazza Arringo,7,044007,Ascoli Piceno,0736/298282,musei.civici@comune.ascolipiceno.it,http://www.ascolimusei.it,2,Archeologia,Arte,42.8535,13.5779,mart-giov 10/13; merc-ven 15/18; sab-dom (festivi e prefestivi) 10-19. Chiuso lunedì.,,prezzo intero: 4 €; prezzo ridotto: 2 €,,
283,Castello Pallotta,,via del Cassero,,043006,Caldarola,0733.905242  0733.906505  0733.903471,beniculturali@scoccogabrielli.it,www.castellopallotta.it,1,Arte,Specializzato,43.1376,13.2248,visitabile su appuntamento,,Ingresso a pagamento,http://sirpac.cultura.marche.it/SirpacIntraWeb/storage/Label/1284/Thumbs/8C.jpg,"Castello di Caldarola, esterno"
284,"Museo Archeologico ""Pompilio Bonvicini""",ex convento San Francesco,Piazza della Libertà,1,044018,Falerone,0734759670,info@parcoarcheologico.it,http://www.parcoarcheologico.it,2,Archeologia,,43.1055,13.4702,"dal 7 luglio al 4 agosto: tutti i giorni 16-19. dal 4 al 31 agosto: domeniche e festivi 16-19. Giugno e ottobre: sabato domenica e festivi 10-12, 17-19;  settembre: venerdì sabato domenica e festivi 10-12, 17-19; festività di Natale e Pasqua 10-12, 15-17;",,prezzo intero: 5 €; prezzo ridotto: 3 €,http://sirpac.cultura.marche.it/SirpacIntraWeb/storage/Label/1283/Thumbs/26D.jpg,"Testa di Demetra – Cerere, II sec. d. C."
285,Museo della Basilica di San Venanzio,,Piazza San Venanzio,10,043007,Camerino,0737.630400 - 0737.632752,curia@arcidiocesicamerino.it,,1,Arte,,43.1378,13.0736,apertura su richiesta,,Ingresso gratuito,http://sirpac.cultura.marche.it/SirpacIntraWeb/storage/Label/1284/Thumbs/19C.jpg,"Bottega marchigiana, Croce astile (part.)"
286,Museo Storico Cappuccino,convento dei Cappuccini,Località S. Gregorio,,043007,Camerino,0737.644480,,www.camerino.sinp.net,3,Storia,Arte,43.1494,13.1028,aperto su richiesta,,Ingresso gratuito,,
287,Museo del Convento di Santa Chiara,Monastero di Santa Chiara,Via Medici,20,043007,Camerino,0737/633305,clarissecamerino@tiscali.it,http://www.sorellepoveredisantachiara.it,1,Arte,Storia,43.1391,13.0729,dal lunedì alla domenica  dalle 10:00 alle  12:00 e dalle 15:30 alle 17:30 (su prenotazione),il numero delle ore di apertura non è quantificabile perchè dipende dalle richieste dei visitatori,Ingresso gratuito,,
288,"Orto Botanico ""Carmela Cortini"" Università di Camerino",,Viale Guglielmo Oberdan,SNC,043007,Camerino,0737.403084,ortobotanico@unicam.it,http://www.unicam.it/ortobotanico/,8,Specializzato,Storia naturale e scienze naturali,43.1363,13.0704,Lunedì-sabato dalle 9.00 alle 13.00 e dalle 15.00 alle 18.00 escluso il mercoledì e il sabato pomeriggio,Solo su prenotazione la domenica,"Ingresso libero, visite guidate a pagamento",http://sirpac.cultura.marche.it/SirpacIntraWeb/storage/Label/1151/Thumbs/CRBC12385YH.jpg,interno
289,Museo Diocesano,Oratorio Confraternita del Suffragio,Piazzale Girfalco,snc,044019,Fermo,0734.229350,beniculturali@fermo.chiesacattolica.it,http://www.fermodiocesi.it; www.fermomusei.it,1,Arte,Archeologia,43.1613,13.7166,"Settembre-maggio: su prenotazione e durante i fine settimana; luglio-agosto: tutti i giorni 10-13, 16-20. Il 15 agosto: 10-13, chiuso pomeriggio.","Biglietto di Rete Civica (7 gg.): accesso a Polo Mus. Pal. Priori, Cisterne, Musei Villa Vitali, Cattedrale, Oratorio S. Monica, riduzione musei S. Elpidio a Mare e sconti in esercizi convenzionati.","Biglietto di Rete Civica: intero 7,50€, ridotto 4,50€. Biglietto singolo: intero 3€, ridotto (6-14 anni, over 65, gruppi superiori a 15) 2€.",http://sirpac.cultura.marche.it/SirpacIntraWeb/storage/Label/1283/Thumbs/17D.jpg,"Giovanni di Ugolino da Milano, Missale de Firmonibus, codice miniato"
290,Museo della Tessitura,Macerata,Vicolo Vecchio,6,043023,Macerata,0733/232527,museo@latela.net,http://www.latela.net,6,Etnografia e antropologia,,43.3011,13.4581,"dal martedì al venerdì apertura ore10,00 -12,30, in altri orari,sabato e festivi  su appuntamento",apertura festiva su appuntamento - chiusura in agosto,Ingresso gratuito,,
291,Museo San Giacomo, chiesa San Giacomo Maggiore,VIA VICOLO MURA,3,044029,Massignano,0735/72144,,,1,Arte,,43.0507,13.7971,DA LUGLIO A SETTEMBRE 16.30 - 20.00 / 21.00 -22.30; DICEMBRE-GENNAIO 10.30 -12.30 / 16.30 - 18.30,,,,
292,Museo archeologico del Santuario Ellenistico di Cuma,,Via Crocifisso,snc,044046,Monte Rinaldo,0734/777121,com.monterinaldo@provincia.fm.it,www.monterinaldo.135.it,2,Archeologia,Arte,43.3332,13.1671,"1 maggio:10-12,15-18; 19 maggio: 20-24; maggio:sab dom 15-18; giugno: sab dom 16-19; luglio e agosto: ven sab dom 16-19, il 15 agosto 16-19; settembre: sab dom 15-18. Luglio agosto su prenotazione apertura straordinaria mercoledì dalle 21.45.","Per visitare l’area sarà possibile contattare il comune di Monte Rinaldo al n. 0734/777121 che, in base alla disponibilità e solo con orario 9-13, provvederà ad inviare l’operatore sul posto.","Intero: 5 €; ridotto: 3,00 €",http://sirpac.cultura.marche.it/SirpacIntraWeb/storage/Label/1412/Thumbs/Area_Archeologica_Portico.jpg,Veduta dei resti del portico del Santuario ellenistico romano
295,Orto Botanico dell'Università,,Via Bramante,28,041067,Urbino,0722.303774,giovanna.giomaro@uniurb.it; filippo.bedini@uniurb.it,,4,Storia naturale e scienze naturali,,43.7275,12.6362,"Aperto tutto l’anno dal lunedi al sabato:- mattino dalle ore 8,30 alle ore 12,30- pomeriggio dalle ore 15,00 alle ore 17,00- giovedi pomeriggio e domenica chiuso",,ingresso gratuito,,
296,"Museo di Genga. Arte, storia e territorio",Palazzo Fiumi - Sermattei (Palazzo Della Genga),viale Corridoni,snc,042020,Genga,0732 97211,grotte@frasassi.com,http://www.frasassi.com,1,Arte,Storia,43.4296,12.9352,"1/4-30/9: 10.30-13.30/15-18; 1/10-31/3: mar-sab 10.30-13.30, dom. e fest.10.30-13.30/15-18","chiuso dal 10 al 30 gennaio, il I° gennaio, il 4 e il 25 dicembre, come lo Speleopaleo e le Grotte.",prezzo intero: 4 €; prezzo ridotto: 1 €,http://sirpac.cultura.marche.it/SirpacIntraWeb/storage/Label/1281/Thumbs/59A.jpg,"Museo Arte Storia e Territorio, interno"
297,Centro permanente di documentazione per l'arte contemporanea,Palazzo Pergoli,Piazza Mazzini,snc,042018,Falconara Marittima,071 9177776,cultura@comune.falconara-marittima.an.it,http://www.musan.it,1,Arte,Specializzato,4363,1340,"invernale sab 16.30-19.30, dom e fest. 10.30-12.30/16.30-19.30 - estivo ven e sab 18.30-22.30",,"prezzo intero: 2,5 €; prezzo ridotto: 1,5 €",,
299,"Raccolta ""Incisori marchigiani""",Palazzo Oliva,Piazza Matteotti,4,042044,Sassoferrato,0732.956231,info@comune.sassoferrato.an.it,www.comune.sassoferrato.an.it; www.prosassoferrato.it,1,Arte,,43.261,12.5132,"Mattino: dal martedì alla domenica, dalle 10.30 alle 12.30. Pomeriggio: nei giorni di martedì, giovedì, sabato e domenica dalle 16 alle 19. Chiuso lunedì.",,"Intero: 3 €; ridotto: 2 €; residenti, gruppi scolstici, under 18 over 65: 1.50€",,
301,"Pinacoteca del Mare
",Palazzo Piacentini,Via del Consolato,12,044066,San Benedetto del Tronto,0735.585352; 0735.794588,musei@comunesbt.it,www.comunesbt.it,1,Arte,Territoriale,42.9498,13.8762,Inverno 10-13 e 16-19 (17-20 con ora legale); Estate (dal 1° luglio al 31 agosto) 18-24. Lunedì chiuso. Lunedì chiuso  dalle 18 alle 24 Lunedì chiuso,,Ingresso libero,,
302,Collezione Civica di Arte Contemporanea,,Via Dante Alighieri,24,043045,Ripe San Ginesio,0733.500102 - 0733.500374 - 347.5940472,,www.comune.ripesanginesio.mc.it,1,Arte,,43.1434,13.367,apertura: tutti i giorni dalle 9.00 alle 13.00; Domenica chiuso,,,http://sirpac.cultura.marche.it/SirpacIntraWeb/storage/Label/1284/Thumbs/95C.jpg,"Concha Ibanez, Castilla"
303,Museo della Liberazione di Ancona,,Via dell'Arengo,13,042033,Offagna,071.7107005,sa.moffa@offagna.org,http://www.storiamarche900.it,3,Storia,Territoriale,43.5271,13.4408,Luglio - 11 settembre 10.00-12.00 e 16.00-19.30. Nel restante periodo su prenotazione tel. 071.202271,,"Intero: 2€; ridotto 1€ studenti, over 65); gratuito (under 6, accompagnatori di gruppi, insegnanti)",,
306,Museo dei Reperti Fossili,Palazzo ex Governo,Piazza Enrico Mattei,17,043024,Matelica,0737 781830,biblioteca@comune.matelica.mc.it,http://ww.comune.matelica.mc.it,4,Storia naturale e scienze naturali,,43.2564,13.0086,l'apertura nei mesi di marzo-giugno legata soprattutto a visite scolastiche su appuntamento,i giorni festivi come riportato sopra è aperto solo su appuntamento,,,
307,Musei di Palazzo Ducale. Museo di storia dell'agricoltura e dell'artigianato,Palazzo Ducale - Urbania,Corso Vittorio Emanuele,23,041066,Urbania,0722/313151,info@museipartecipati.it,http://www.museipartecipati.it,6,Etnografia e antropologia,Territoriale,43.6682,12.5229,"10,00-12,30; 15,00-18,00 su richiesta alla Biblioteca Comunale, chiuso il lunedì.",,Intero: 4 €; ridotto: 2 € (il biglietto comprende anche la visita al Museo Civico),http://sirpac.cultura.marche.it/SirpacIntraWeb/storage/Label/1407/Thumbs/IMG_1649.jpg,Strumenti della civiltà contadina e testimonianze dell'artigianato locale
310,Museo della corda e del mattone,,via Cosimo Betti,SNC,041040,Orciano di Pesaro,0721 97424,comune.orciano@provincia.ps.it,http://www.comune.orciano.pu.it/,7,Territoriale,,43.6892,12.9659,Sabato                        9.30-12.00   16.00-19.00Domenica e festivi   16.00-19.00,,"Intero: 2 €; ridotto: 1,5 €",,
311,Museo Archeologico Statale,,Traversa Piccinini,12,043055,Urbisaglia,0733.50107,comune@urbisaglia.sinp.net,http://www.urbisaglia.sinp.net; www.archeomarche.it,2,Archeologia,,43.1929,13.3738,"lunedì, mercoledì, venerdì 13.30-19.30; martedì, giovedì, sabato 8.30-13.30; domenica e festivi 8.30-13.30",,Ingresso gratuito,,
312,Antiquarium di Santa Maria in Portuno,Santa Maria del Piano,,,042015,Corinaldo,338 8780109,info@santamariainportuno.it,http://www.santamariainportuno.it,2,Archeologia,,43.6668,13.038,Apertura: giorni festivi: dalle 9.00 alle 12.00 e dalle 13.00 alle 20.00; giorni feriali solo su appuntamento,,,http://sirpac.cultura.marche.it/SirpacIntraWeb/storage/Label/1281/Thumbs/40A.jpg,"Antiquarium, interno"
313,"Museo di Scienze ""Campana""",c/o Liceo Scientifico e Classico,via Aldo Moro,3,042034,Osimo,071/715782,liceo@corridoni-campana.it,,4,Storia naturale e scienze naturali,Scienza e tecnica,43.524,13.4038,,,,,
314,"Museo ""San Giuseppe da Copertino""",Santuario S. Giuseppe,Piazza Gallo,10,042034,Osimo,071 714523,museidascoprire@libero.it,http://www.musan.it,8,Specializzato,,43.4864,13.4839,aperto tutti i giorni dalle 6.30 alle 12.30 e dalle 15.00 alle 20.00,,,,
315,Lapidario Comunale,,Piazza del Comune,1,042034,Osimo,,biblioteca@comune.osimo.an.it,http://www.comune.osimo.an.it,2,Archeologia,,43.4861,13.4825,,,,http://sirpac.cultura.marche.it/SirpacIntraWeb/storage/Label/1281/Thumbs/84A.jpg,"Statua di personaggio in seminudità eroica, I sec. d. C."
316,Galleria del teatro: Sale Pergolesiane e Spontiniane,Teatro G.B Pergolesi,Piazza della Repubblica,9,042021,Jesi,0731.202944,info@fpsjesi.com,http://www.fondazionepergolesispontini.com,8,Specializzato,,43.5221,13.2436,Aperto su prenotazione,,Ingresso €1,http://sirpac.cultura.marche.it/SirpacIntraWeb/storage/Label/1281/Thumbs/74A.jpg,"Sale Pergolesiane, interno"
317,Mostra permanente di cimeli della seconda guerra mondiale e Memoriale della Battaglia di Filottrano,,vicolo Beltrami,2,042019,Filottrano,071 72278211,museidascoprire@libero.it,http://www.musan.it,3,Storia,,43.4356,13.3506,"Aperto su prenotazione al numero 071.222576 (Giovanni Santarelli curatore dell’esposizione), o al numero 071.72278211 (Comune di Filottrano)",,,,
318,Museo della  Civiltà Contadina,,via Nazario Sauro,27,042019,Filottrano,347 3211290,,,6,Etnografia e antropologia,,43.4343,13.3504,Ingresso su richiesta,,Ingresso gratutito,,
319,Sala Museale “Contrammiraglio Guglielmo Marconi”,,Via Cialdini,1,042002,Ancona,071 5931619,museomarconi@marina.difesa.it,http://www.marina.difesa.it/storiacultura/ufficiostorico/musei/salamarconi/Pagine/default.aspx,8,Specializzato,,43.6183,13.5096,,,Ingresso gratuito,http://sirpac.cultura.marche.it/SirpacIntraWeb/storage/Label/1407/Thumbs/Elettra_Marconi.jpg,"La Principessa Elettra Marconi all'inaugurazione della Sala Museale ""Contrammiraglio Guglielmo Marconi"""
320,Grande Museo,Loggiato San Francesco,via Cesare Battisti,1,042017,Fabriano,0732 5726,palombi3@aliceposta,http://www.piazzalta.it,8,Specializzato,,43.3365,12.9064,Aperto domenica e giorni festivi dalle 16.30 alle 20.00,,Ingresso gratuito,,
321,Museo missionario francescano “Mons. Francesco Mazzieri”,Cripta della chiesa di Santo Stefano,Via Cesare Battisti,,042010,Castelfidardo,071 780506,,http://www.comune.castelfidardo.an.it,6,Etnografia e antropologia,,43.4641,13.5476,orari della Chiesa,,,,
322,Museo Archeologico Statale,Complesso di S. Francesco,Corso Mazzini,64,042003,Arcevia,0731.9622,,http://www.archeomarche.it,2,Archeologia,,43.4997,12.9398,"Lunedì, mercoledì e giovedì 13.30 - 19.30, martedì, venerdì, sabato, domenica e festivi 8.30 -13.30. Chiuso la prima domenica del mese.",,"Intero €  1,00 - Ridotto € 0,50 - gratuito fino a 18 anni e dopo i 65 anni",http://sirpac.cultura.marche.it/SirpacIntraWeb/storage/Label/1281/Thumbs/16A.jpg,Plastico del giacimento paleolitico di Ponte di Pietra
323,Museo Tattile Statale Omero,Mole Vanvitelliana,Banchina G. da Chio,28,042002,Ancona,071.2811935,info@museoomero.it,www.museoomero.it; sito vocale: 800202220,1,Arte,,43.6143,13.5037,Dal 16 settembre al 27 ottobre: dal martedì al venerdì 16 - 19; sabato e domenica 10 - 13 e 16 - 19. Mattino: apertura su prenotazione per gruppi. Chiuso lunedì.,Tutte le iniziative sono gratuite per disabili e accompagnatori. Per prenotazioni e informazioni consultare il sito: www.museoomero.it,ingresso gratuito; visite guidate e attività a pagamento (€ 3),http://sirpac.cultura.marche.it/SirpacIntraWeb/storage/Label/1407/Thumbs/letturatattiledavid.jpg,Bambini apprendono le modalità della lettura tattile della scultura
324,Museo Archeologico Nazionale delle Marche,Palazzo Ferretti,via G. Ferretti,6,042002,Ancona,071.202602,sba-mar.museoancona@beniculturali.it,http://www.archeomarche.it/musarch.htm; http://museoarcheologicomarche.wordpress.com/,2,Archeologia,,43.6231,13.5109,"Da martedì a domenica 8.30-19.30; chiuso lunedì, 25 dicembre, 1 gennaio e 1 maggio.",,"Intero € 4,00, ridotto € 2,00 (18-25, insegnanti), gratuito fino a 18 ed oltre 65 anni, ICOM, dipendenti MiBAC, scolaresche, studenti discipline storico artistiche",http://sirpac.cultura.marche.it/SirpacIntraWeb/storage/Label/1281/Thumbs/3A.jpg,"Ansa bronzea con raffigurazione del despotes therón, VI sec. a. C."
325,Museo delle Armi Antiche e Fortezza Medievale di Acquaviva Picena,,piazza del Forte,1,044002,Acquaviva Picena,0735.764005,turismo@comuneacquavivapicena.it,,3,Storia,,42.9445,13.8122,Da Marzo a Maggio e da Ottobre a Febbraio: Festivi e prefestivi 10.30 -12.30;15.30 -17.30; da Giugno a Settembre: tutti i giorni 10.00 -12.30; 17.00 -20.00 e 21.00 - 23.30;,,,,
326,Museo Archeologico Statale,palazzo Panichi,piazza Arringo,28,044007,Ascoli Piceno,0735.253562,SOPRIN1e@archeomarcheancona.191.it,http://www.archeomarche.it,2,Archeologia,,42.8537,13.5782,"aperto dal martedì alla domenica 8.30-19.30; chiuso tutti i lunedì non festivi, 1 gennaio, 1 maggio, 25 dicembre.","Si avvisa il pubblico che sono in fase di ristrutturazione definitiva, e quindi momentaneamente chiuse, sia la sezione protostorica (civiltà picena), sia la sezione preistorica.",Intero € 2; ridotto € 1 dai 18 ai 25 anni e Circuito Musei Civici; gratuito under 18-over 65 e categorie previste nei musei statali,,
327,"Museo-Biblioteca ""Francesco Antonio Marcucci""",Istituto Suore Pie Operaie dell’Immacolata Concezione,via San Giacomo,3,044007,Ascoli Piceno,0736 259952,,,1,Arte,,42.8568,13.5705,"Dal 1 al 31 Luglio tutti i giorni dalle 15.00 alle 19.00, tutto l’anno su richiesta.",,,,
328,Pietraia dei Poeti,,contrada Barattelli,3,044066,San Benedetto del Tronto,,info@pietraiadeipoeti.it,www.pietraiadeipoeti.it,1,Arte,,42.9215,13.8526,apertura a richiesta,,gratuito,http://sirpac.cultura.marche.it/SirpacIntraWeb/storage/Label/1407/Thumbs/museo_pietraiadeipoeti.jpg,Veduta del museo
329,Museo Diocesano d'Arte Sacra,Chiesa della SS.ma Annunziata,via Giuseppe Verdi,,044016,Cossignano,0735 98116 - 347. 3804444,,,1,Arte,,42.984,13.6887,,,,,
330,Museo dei Fossili e dei minerali,ex Scuola Elementare,via A. C. Nobili,11,044070,Smerillo,0734.79423,info@smerillo.com,http://www.smerillo.com,4,Storia naturale e scienze naturali,,43.0044,13.445,"Luglio - agosto: sabato e domenica 10.30-12.30, 16-18. Gruppi su prenotazione.",,Ingresso gratuito,,
331,Pinacoteca dell’Arte dei Bambini,ex Scuola Elementare,via A. C. Nobili,11,044070,Smerillo,0734.79423,info@smerillo.com,http://www.smerillo.com,8,Specializzato,,43.0049,13.4448,"Sabato 16-18, domenica 15,30-18,30, gruppi su prenotazione.",,Ingresso gratuito,,
332,Pinacoteca d’Arte Contemporanea,ex Scuola Elementare,via A. C. Nobili,11,044070,Smerillo,0734.79423,info@smerillo.com,http://www.smerillo.com,1,Arte,,43.0044,13.445,"Luglio - agosto: sabato e domenica 10.30-12.30, 16-18. Gruppi su prenotazione.",,Ingresso gratuito,,
333,Museo delle Carbonaie,Palazzo Simonelli,Contrada Tribbio,,043011,Cessapalombo,338.9889440,info.cessapalombo@sibillini.net; info@palazzosimonelli.it,www.palazzosimonelli.it; www.sibillini.net,6,Etnografia e antropologia,,43.1041,13.2213,Aperto su richiesta,E' possibile prenotare il servizio di visite guidate al museo e al percorso delle carbonaie.,ingresso gratuito,http://sirpac.cultura.marche.it/SirpacIntraWeb/storage/Label/1407/Thumbs/DSC_0143.jpg,Esterno del museo
334,Museo Palazzo Ricci. Arte Italiana del Novecento,Palazzo Ricci,Via Domenico Ricci,1,043023,Macerata,0733.261487,info@fondazionemacerata.it,http://www.fondazionemacerata.it; http://www.palazzoricci.it,1,Arte,,43.2992,13.4506,aperto da marzo a dicembre sabato domenica e festivi 10-13 e 16-20; luglio e agosto tutti i giorni 10-13 e 16-20,,Ingresso gratuito,http://sirpac.cultura.marche.it/SirpacIntraWeb/storage/Label/1284/Thumbs/2C.jpg,"Ivo Pannaggi, Treno in corsa"
335,Museo di Storia Naturale,Palazzo Rossini-Lucangeli,Via Santa Maria della Porta,65,043023,Macerata,0733.256385 (mattino) 0733.239717 (pomeriggio),museostorianaturale@comune.macerata.it,www.comune.macerata.it,4,Storia naturale e scienze naturali,,43.3001,13.4553,aperto dal lunedì al Sabato dalle 9.00 alle 12.00 e dalle 15.00 alle 19.00,,Ingresso gratuito,,
336,Museo Tipologico del Presepe – Collezione Cassese,,via Maffeo Pantaleoni,4,043023,Macerata,0733.234045 349.5239765,,www.museotipologicodelpresepe.it,8,Specializzato,,43.3002,13.4582,aperto a richiesta,,Ingresso gratuito,,
337,Museo pinacoteca  della chiesa di Sant’Urbano,Chiesa di Sant'Urbano,Piazza Baldini,1,043002,Apiro,0733.611118   0733.611129,,www.apiro.sinp.net,1,Arte,,43.3923,13.1311,Aperto su richuesta,,Ingresso gratuito,,
338,Antiquarium,Rocca,frazione Pievefavera,,043006,Caldarola,0733.905529 (Comune),comune@caldarola.sinp.net,www.caldarola.sinp.net,2,Archeologia,,43.14,13.1956,aperto su prenotazione,,Ingresso gratuito,http://sirpac.cultura.marche.it/SirpacIntraWeb/storage/Label/1284/Thumbs/5C.jpg,"Antiquarium, interno"
339,"Museo Civico ""U. Bottacchiari""",Palazzo Comunale,Piazza della Repubblica,12,043009,Castelraimondo,0737.641723,,www.comune.castelraimondo.mc.it,8,Specializzato,,43.2101,13.0575,aperto su prenotazione,,,,
340,Ecomuseo del cervo,,via Parco della Rimembranza,,043010,Castelsantangelo sul Nera,0737.98152 - 339.3210083 (per prenotazioni),info@castelsantangelo.sibillini.net; ragioneria@castelsantangelo.sinp.net,www.sibillini.net,4,Storia naturale e scienze naturali,,42.8946,13.1554,"aperto  luglio e agosto 9.30-12.30 e 15.30-18.30; da settembre a giugno, lunedì, giovedì e venerdì 9.30-12.30, sabato e domenica 9.30-12.30 e 15.30-18.30",,Ingresso a pagamento,,
341,Museo dell’Abbazia di San Salvatore,Parrocchia San Salvatore,Località Monastero,,043011,Cessapalombo,0733.907132 (comune),,www.comune.cessapalombo.mc.it,2,Archeologia,,43.0658,13.2325,,,,,
342,Museo Archeologico Statale,Palazzo Comunale,Piazza Vittorio Emanuele II,5,043012,Cingoli,0733.603399,,www.archeomarche.it  www.cingoli.sinp.net  www.archeologiamacerata.sinp.net,2,Archeologia,,43.3741,13.2163,"aperto lunedì, martedì, domenica e festivi 8.30-13.30; giovedì, venerdì e sabato 15-19. Chiuso la II e la IV domenica del mese, 1 gennaio, 1 maggio e 25 dicembre.",,Ingresso gratuito,http://sirpac.cultura.marche.it/SirpacIntraWeb/storage/Label/1284/Thumbs/26C.jpg,Olla ovoide biansata
343,Museo delle Arti e Tradizioni Popolari,,Via Cento Fiorini,25,043013,Civitanova Marche,0733.890258,,,6,Etnografia e antropologia,,43.3046,13.7195,Aperto su prenotazione,,Ingresso gratuito,,
344,Pinacoteca Parrocchiale,"Chiesa dei Santi Pietro, Paolo e Donato",Via Cavour,54,043015,Corridonia,0733.431832,,www.corridonia.sinp.net - www.sistemamuseale-mc.it,1,Arte,,43.2497,13.5123,Aperto su richiesta con 24 ore di anticipo,,Ingresso gratuito,http://sirpac.cultura.marche.it/SirpacIntraWeb/storage/Label/1284/Thumbs/36C.jpg,"Andrea da Bologna, Madonna del Latte"
345,Deposito “Diotallevi di Angeluccio”,,Via Roma,,043019,Fiuminata,0737.54128 - 0737.54122,tecnico@fiuminata.sinp.net,www.sistemamuseale-mc.it,1,Arte,,43.1885,12.9317,Apertura su richiesta,,,,
346,Museo di Palazzo Forti,,Via Roma,54,043025,Mogliano,0733.557788,,www.comune.mogliano.mc.it,1,Arte,,43.186,13.4807,aperto su richiesta,,,,
347,Museo Demo-Antropologico d'Arte e Mestieri Antichi,Palazzetto del Podestà,Piazza del Comune,6,043030,Montelupone,0733.226421-2,info@comune.montelupone.mc.it,www.comune.montelupone.mc.it,6,Etnografia e antropologia,,43.3443,13.5677,apertura su richiesta con 48 ore di anticipo,,"gratuito le domeniche da aprile a settembre, altri mesi a pagamento",,
348,Raccolta della Collegiata di Santa Maria Assunta,,Via Peranzone,3,043026,Montecassiano,0733.290549,,www.comune.montecassiano.mc.it,1,Arte,,43.3636,13.4356,Apertura su richiesta,,Ingresso gratuito,,
349,Raccolta delle Sette Confraternite,,Corso Dante Alighieri,,043026,Montecassiano,0733.299811,,www.comune.montecassiano.mc.it,1,Arte,,43.3644,13.4356,Apertura su richiesta,,Ingresso gratuito,http://sirpac.cultura.marche.it/SirpacIntraWeb/storage/Label/1284/Thumbs/79C.jpg,"Iohannes Hispanus, Madonna in trono col Bambino, i Santi Andrea ed Elena e due angeli musicanti"
350,Pinacoteca Civica,Palazzetto del Podestà,Piazza del Comune,6,043030,Montelupone,0733.226421-2,info@comune.montelupone.mc.it,www.comune.montelupone.mc.it,1,Arte,,43.3443,13.5677,aperto su richiesta; per prenotazione visita guidata inviare una e-mail,,"Ingresso gratuito le domeniche da aprile a settembre, altri mesi a pagamento",,
351,"Museo Pinacoteca Internazionale del Presepio ""don Eugenio De Angelis""",Ex convento dei Padri agostiniani,Via Bonarelli,4,043033,Morrovalle,0733.222913,,www.museodelpresepio.altervista.org; www.comune.morrovalle.mc.it/Engine/RAServePG.php/P/,8,Specializzato,,43.3145,13.5792,Apertura su richiesta (tel. 0733.222913 dalle 9 alle 13). Dicembre e gennaio: sabato dalle 16 alle 19.,,Ingresso gratuito,http://sirpac.cultura.marche.it/SirpacIntraWeb/storage/Label/1412/Thumbs/Pinacoteca1.jpg,"Museo Pinacoteca Internazionale del Presepio, interno"
352,Museo dei Legni Processionali,Santuario Madonna della Misericordia,Piazza San Martino,1,043036,Petriolo,0733.550603 (Parrocchia) - 0733.550601 (Comune),,www.fermo.chiesainrete.it/petrioloconfraternita,1,Arte,,43.2212,13.4658,"apertura: Festivi e Sabato dalle 15.00 alle 19.00, la Domenica dalle 9.30 alle 12.30 e dalle 15.00 alle 19.00. Giorni feriali a richiesta",,Ingresso gratuito,,
353,"Pinacoteca ""Chiesa di San Giovanni""",Pieve Santa Maria Assunta,Piazza Santa Maria Assunta,,043038,Pieve Torina,0737.518045 (Parrocchia),,,1,Arte,,43.0436,13.0486,apertura su richiesta,,Ingresso gratuito,,
354,Museo della Carta e della Filigrana,Palazzo Comunale,Largo Giacomo Leopardi,1,043039,Pioraco,0737.42142 - 0737.42735 - 0737.232218,,www.comune.pioraco.mc.it,8,Specializzato,,43.1788,12.9846,apertura: Prefestivi dalle 15.30 alle 18.00; Festivi dalle 10.30 alle 12.00 e dalle 15.30 alle 18.00,,Ingresso a pagamento,,
355,"Mostra Archeologica Permanente ""Divi & Dee""",Castello Svevo,Piazza F.lli Brancondi,1,043042,Porto Recanati,071.7591862 - : 071.9799084 (I.A.T.),info@portorecanatiturismo.it,www.portorecanatiturismo.it - www.comune.porto-recanati.mc.it,2,Archeologia,,43.4376,13.6612,aperto su richiesta,,Ingresso gratuito,http://sirpac.cultura.marche.it/SirpacIntraWeb/storage/Label/1284/Thumbs/87C.jpg,Balsamario a testa di Medusa
356,"Pinacoteca Comunale ""Attilio Moroni""",Castello Svevo,Piazza F.lli Brancondi,1,043042,Porto Recanati,071.7591283,info@portorecanatiturismo.it,www.turismoportorecanati.it - www.comune.porto-recanati.mc.it,1,Arte,,43.4376,13.6612,"Estate: tutti i giorni dal martedì al sabato, dalle ore 16:00 alle ore 19:00 con ingresso gratuito.Nel periodo invernale visite su richiesta previo appuntamento telefonico.",,Ingresso gratuito,http://sirpac.cultura.marche.it/SirpacIntraWeb/storage/Label/1426/Thumbs/PortoRecanati_71.jpg,"Castello Svevo, sede della Mostra Archeologica Permanente e della Pinacoteca Comunale"
357,Museo Casa Leopardi,Palazzo Leopardi,Via Leopardi,14,043044,Recanati,071.7573380,casaleopardi@giacomoleopardi.it,www.giacomoleopardi.it,8,Specializzato,,43.4118,13.4399,apertura: Autunno – Inverno dalle 9.30 alle 12.30 e dalle 14.30 alle 17.30; Primavera – Estate dalle 9.00 alle 18.00. Chiuso il 25 dicembre e il 1 Gennaio,,Ingresso a pagamento,http://sirpac.cultura.marche.it/SirpacIntraWeb/storage/Label/1284/Thumbs/94C.jpg,"Museo Casa Leopardi, Biblioteca"
358,Casa Museo Biagetti - Cintoli,,Via Falleroni,83,043044,Recanati,071.7570410,,www.recanatiturismo.it,8,Specializzato,,43.4064,13.5452,Visita solo su prenotazione,,Ingresso a pagamento,,
359,Museo dell'Arciconfraternita del SS. Cuore di Gesù,,Via Corridoni,15,043053,Tolentino,330.419687,,www.comune.tolentino.mc.it,1,Arte,,43.2115,13.2828,aperto su richiesta,,Ingresso gratuito,,
360,Accademia Georgica,,Piazza della Repubblica,6,043054,Treia,0733.215056,accademiageorgica@libero.it,www.accademiageorgica.it,3,Storia,,43.3112,13.3126,"aperto 10-13 martedì, 10-13 e 15-18 giovedì, 10-13 sabato - chiuso altri giorni",,Ingresso gratuito,,
361,Museo Civico Archeologico,,viale Nazario Sauro,,043054,Treia,0733.218711 (Comune) - 0733.215919 (IAT),prolocotreia.iat@treia.sinp.net,www.treia.sinp.net,2,Archeologia,,43.3097,13.3144,"aperto Sabato, Domenica e festivi dalle 9.00 alle 12.00 e dalle 15.30 alle 19.30. Altri giorni su richiesta chiamando il numero 0733.215919 (IAT)",,Ingresso a pagamento,http://sirpac.cultura.marche.it/SirpacIntraWeb/storage/Label/1284/Thumbs/126C.jpg,Statua egizia virile
362,Pinacoteca Comunale,Palazzo Comunale,Piazza della Repubblica,,043054,Treia,0733.215919 (IAT) - 0733. 218703(Comune),prolocotreia.iat@treia.sinp.net,www.treia.sinp.net,1,Arte,,43.3112,13.3124,aperto su prenotazione I. A. T. (10-13 e 15.30-19.30),,Ingresso a pagamento,,
363,Parco Archeologico di Urbs Salvia,,Via del Sacrario,,043055,Urbisaglia,0733.50107,,www.meridianasrl.it; www.archeomarche.it,2,Archeologia,,43.1997,13.386,dal 1 aprile al 13 giugno: domenica e festivi 10-13 e 15-19; dal 14 giugno al 14 settembre: tutti i giorni 10-13 e 15-19; dal 15 settembre al 31 dicembre: sabato domenica e festivi 10-13 e 15-18.,Al di fuori degli orari il Parco viene aperto su prenotazione.,Ingresso a pagamento,http://sirpac.cultura.marche.it/SirpacIntraWeb/storage/Label/1284/Thumbs/127C.jpg,Testa virile
364,Museo della Pastorizia,,Frazione Cupi,,043057,Visso,339.2027814,,,6,Etnografia e antropologia,,42.9991,13.1119,apertura su prenotazione,,Ingresso gratuito,,
366,Museo della Civiltà Contadina,Palazzo Battelli,Via Crescentini,,041059,Sassocorvaro,0722.76873 (Municipio) - 0722.76177 (Rocca),comune.sassocorvaro@provincia.ps.it,www.montefeltro.net/sassocorvaro.it,6,Etnografia e antropologia,,43.7819,12.4952,aperto su richiesta,,a pagamento cumulativo con altri musei del comune,,
368,Antiquarium Suasanum,Abbazia di San Lorenzo,Via San Demetrio,,041054,San Lorenzo in Campo,0721.776825,,,2,Archeologia,Arte,43.6055,12.945,aperto su richiesta. Chiuso la Domenica,,ingresso gratuito,,
369,Musei del Castello di Pietrarubbia,Loc. Castello,,,041048,Pietrarubbia,0722.75110; 0722.75177; 0722.75240,info@museimontefeltro.it,www.museimontefeltro.it,1,Arte,,43.8028,12.3754,aperto su richiesta.,,ingresso gratuito,http://sirpac.cultura.marche.it/SirpacIntraWeb/storage/Label/1285/Thumbs/126B.jpg,"Castello di Pietrarubbia, esterno"
370,Raccolta di Grafica Contemporanea e Museo degli Antichi Mestieri Itineranti,,Piazza Francesca da Rimini,1,041034,Montefelcino,0721.729024 (Proloco) - 0721.743039 (Municipio),,www.vallediculture.it,1,Arte,Etnografia e antropologia,43.7355,12.8346,aperto su prenotazione,,ingresso gratuito,,
371,Museo di Archeologia Industriale,,Ex Chiesa di Santa Chiara,,041023,Macerata Feltria,0722.728208,comune.macerataf@provincia.ps.it,www.comune.maceratafeltria.pu.it,6,Etnografia e antropologia,,43.8039,12.4413,aperto su prenotazione.,Per prenotare rivolgersi all’Ufficio Turistico o telefonare al Sig. Rossi Giuseppe al numero 0722.74546 oppure al cell. 340.3454102,"a pagamento, cumulativo con gli altri musei del comune.",,
372,"Museo Scientifico ""L. Guidi"" e Osservatorio “Valerio”",,via Cecconi,6,041044,Pesaro,0721.30677,osservatoriovalerio@comune.pesaro.ps.it,http://www.pesarocultura.it,5,Scienza e tecnica,,43.9115,12.9044,per visite didattiche su richiesta,,gratuito,,
373,"Chiesa del ""Nome di Dio""",,via Petrucci,21,041044,Pesaro,0721.371219 (Museo Dioces.); 0721.68095 (Diocesi),museo@arcidiocesipesaro.it,www.pesarocultura.it,1,Arte,,43.9111,12.9103,"Dal 1 giugno al 15 settembre: da martedì a domenica 16-19, Chiuso lunedì, 1 gennaio, 15 agosto, 16-30 settembre eccetto il 24, 25-26 e 31 dicembre.","Apert.straord.:1 nov,8 dic,6 gen,Pasqua e lun, 25 apr,2 giu,settim cult, giorn FAI:16-19, ogni 3 dom (no ag):9.30-12.30,16-19, lug.16-22; ROF 9.30-12.30,16-19; 24 sett:15.30-19.30 gratis.","Intero: 3€ (cumulativo con Museo Diocesano, cfr. tariffe)",,
374,Testimonianze di Vita Rurale nella Bassa Valle del Foglia,Villa Fastiggi,via Finali,63,041044,Pesaro,0721.281550,,www.provincia.pesaro.ps.it,6,Etnografia e antropologia,,43.8841,12.8675,,,gratuito,,
375,Villa Imperiale,,Strada San Bartolo,63,041044,Pesaro,0721.69341 0721.23602,iat.pesaro@regione.marche.it,www.turismo.pesarourbino.it,1,Arte,,43.9209,12.8793,Apertura su richiesta,,A pagamento,,
376,Raccolte d’Arte della Fondazione Montani Antaldi,,Via Passeri,72,041044,Pesaro,0721.68861,segreteria@fondazionecrpesaro.it,www.fondazionecrpesaro.it,1,Arte,,43.9088,12.908,apertura su richiesta per gruppi e associazioni o in concomitanza con eventi culturali e festività.,,gratuito,,
377,Galleria Nazionale delle Marche,,P.zza Duca Federico,3,041067,Urbino,0721.855987,info@pesarourbino.com,http://www.palazzoducaleurbino.it,1,Arte,Archeologia,43.7243,12.6367,"lunedì: 8.30-14.00; da martedì a domenica: 8.30-19.15; chiuso Natale, Capodanno.",proprietà pubblica,"Intero: 5€; ridotto: 2.50€ (18-25 anni, insegnanti); gratuito (under 18 over 65, gruppi scolastici, studenti iscritti a facoltà di indirizzo storico-artistico, ICOM)",http://sirpac.cultura.marche.it/SirpacIntraWeb/storage/Label/1285/Thumbs/37B.jpg,"Piero della Francesca, Madonna di Senigallia"
378,Museo dei Gessi,,via del Balestriere,2,041067,Urbino,0722.320534,,www.uniurb.it,2,Archeologia,,43.7272,12.6358,Dal Lunedì al Venerdì dalle 9.00 alle 18.30 e il Sabato dalle 9.00 alle 13.00,proprietà pubblica,chiuso per restauri,,
379,Museo Lapidario,,Piazza Duca Federico,,041067,Urbino,0722.2760 - 0722.322625 per info e prenotazioni,,,2,Archeologia,,43.7245,12.6369,"il lunedì dalle 8.30 alle 14.00; dal martedì alle domenica e festivi dalle 8.30 alle 19.15. Chiuso il 25 dicembre, 1 Gennaio, 1 Maggio",proprietà pubblica,Intero: 4€; ridotto: 2€ (il biglietto comprende la visita al Palazzo Ducale),http://sirpac.cultura.marche.it/SirpacIntraWeb/storage/Label/1285/Thumbs/50B.jpg,Lastra sepolcrale di Eutropos
380,Collezione Leonardo Castellani,,Piazza della Repubblica,13,041067,Urbino,0722.309266 - 0722.309602 - 0721.309601,turismo.urbino@comune.urbino.ps.it,www.comune.urbino.ps.it,1,Arte,,43.7263,12.6365,Apertura in occasione di eventi e su prenotazione dalle 9.00 alle 12.00 e dalle 15.00 alle 18.00,,gratuito,,
381,Museo Storico della Linea Gotica,Casinina,Via Provinciale,79,041003,Auditore,0722.362170,museogotica@virgilio.it	,http://www.montefeltro.net/lineagotica,3,Storia,,43.816,12.5879,"Tutti i giorni: 9-12, 15-19",,"Intero € 5,00, ridotto € 4,00",,
382,Quadreria della Fondazione Cassa di Risparmio di Fano. Pinacoteca San Domenico,,Via Montevecchio,114,041013,Fano,0721.802885 - 0721.824331,info@fondazionecarifano.it,www.fondazionecarifano.it,1,Arte,,43.8445,13.0177,"Lunedì, Martedì, Giovedì, Venerdì dalle 10.00 alle 12.00",Proprietà privata,gratuito,http://sirpac.cultura.marche.it/SirpacIntraWeb/storage/Label/1285/Thumbs/67B.jpg,"Quadreria Cassa di Risparmio di Fano, interno"
383,Museo di Biologia Marina,,Viale Adriatico,1/n,041013,Fano,0721.802689,,,4,Storia naturale e scienze naturali,,43.8485,13.0213,CHIUSO PER LAVORI,,gratuito,,
384,Museo del Territorio – Gola del Furlo,Furlo,Via Flaminia,,041001,Acqualagna,0721.700041,riservafurlo@provincia.ps.it,http://www.riservagoladelfurlo.it,4,Storia naturale e scienze naturali,,43.6279,12.6819,,,,,
385,Rocca Demaniale,,Piazza Alberta Porta Natale,1,041020,Gradara,"0541.964115, 0541.964697 (prenotazioni)",info@gradara.org,http://www.gradara.org,1,Arte,,43.9423,12.7739,Tutti i giorni: 8.30-19.15; lunedì 8.30-14; chiuso Natale e Capodanno,proprietà pubblica,"intero: 4€; ridotto: 2€ (18-25 anni, insegnanti); gratuito (under 18 over 65, ICOM, gruppi scolastici, studenti discipline storico artistiche e dipendenti MiBAC)",http://sirpac.cultura.marche.it/SirpacIntraWeb/storage/Label/1285/Thumbs/92B.jpg,"Castello di Gradara, esterno"
386,Pinacoteca Comunale,,Via Umberto I,9,041020,Gradara,0541.964673 - 0541.966687,info@gradarainnova.it,www.gradarainnova.com,1,Arte,,43.9421,12.7737,per informazioni contattare il numero 0541.964673,,a pagamento. Museo associato Carta Musei Marche,,
387,Museo della Radio d'Epoca,Ex Convento di San Francesco,Via Gaboardi,,041023,Macerata Feltria,0722.74546 - 340.3454102 per prenotazioni,comune.macerataf@provincia.ps.it,www.comune.maceratafeltria.pu.it,8,Specializzato,,43.8038,12.4449,su prenotazione,"Per prenotare rivolgersi al Museo Civico Archeologico Paleontologico, o all'Ufficio Turistico tel. 0722 728208 (uff. turistico) tel. 0722 74244 (municipio)",a pagamento cumulativo con gli altri musei del Comune,http://sirpac.cultura.marche.it/SirpacIntraWeb/storage/Label/1285/Thumbs/101B.jpg,"Museo della Radio, interno"
388,Rocca Roveresca,,piazza del Duca,2,042045,Senigallia,071.63258,roccaroveresca.senigallia@beniculturali.it,http://www.sbap-mar.beniculturali.it,1,Arte,,43.7152,13.2199,"tutti i giorni: 8,30 - 19,30; chiuso 25 dicembre, 1 gennaio, 1 maggio (eventuale apertura straordinaria Istituti MiBAC)",,"Intero: € 2,00; ridotto: € 1 (18-25 anni, insegnanti); gratuito (under 18 e over 65, ICOM, gruppi scol. studenti storia arte, dipen. MiBAC)",http://sirpac.cultura.marche.it/SirpacIntraWeb/storage/Label/1394/Thumbs/070T.jpg,"Rocca Roveresca, esterno"
389,Museo dei Mestieri in bicicletta,,Via Gioberti,,042017,Fabriano,0732.251810,fabriano@uisp.it,www.mestieriinbicicletta.it,8,Specializzato,,43.3342,12.9044,dal martedì alla domenica 10 -12.30/ 15.30 - 18.30,,"Intero: 2,50 €; ridotto: 2 €; scolaresche: 1,50€",,
390,Museo della Civiltà Marinara delle Marche,,Banchina di Riva Malfizia,16,044066,San Benedetto del Tronto,0735.588850,musei@comunesbt.it,http://www.comunesbt.it/Engine/RAServePG.php/P/929510010119,6,Etnografia e antropologia,Territoriale,,,Orario invernale (1 settembre-30 giugno): 9-13; domenica e lunedì chiuso. Orario estivo (1 luglio-31 agosto): 18-24; lunedì chiuso.,Visite guidate su prenotazione. Visite pomeridiane su appuntamento.,Ingresso libero,http://sirpac.cultura.marche.it/SirpacIntraWeb/storage/Label/1407/Thumbs/PICT2765.jpg,Veduta interna del museo
391,Antiquarium statale,,Via La Fenice,4,042032,Numana,071.9331162,,www.archeomarche.it,2,Archeologia,,43.5134,13.6209,"Tutti i giorni: 8.30-19.30. Chiuso 1 gennaio, 1 maggio, 25 dicembre.",,Intero € 2; ridotto € 1dai 18 ai 25 anni; gratuito under 18-over 65,http://sirpac.cultura.marche.it/SirpacIntraWeb/storage/Label/1153/Thumbs/CRBC60719XA.jpg,"Antiquarium Statale, NUMANA"
393,Museo Civico,Complesso di Sant'Agostino,Via Cavour,,041029,Mondolfo,0721.959677,biblio.mondolfo@provincia.ps.it,www.comune.mondolfo.pu.it,7,Territoriale,Arte,43.7498,13.0977,,,,http://sirpac.cultura.marche.it/SirpacIntraWeb/storage/Label/1412/Thumbs/S_Agostino_Mondolfo.jpg,"Complesso di Sant'Agostino, sede del Museo Civico di Mondolfo"
395,Centro di documentazione archeologica di Novilara,Novilara,Via delle scuole nuove,18,041044,Pesaro,,,,2,Archeologia,,43.8597,12.9309,,,,,
398,Centro espositivo permanente dell'artigianato artistico - Museo Rocca Varano,Località Sfercia,,,043007,Camerino,0737.464004,artimestieri@gmail.com,www.roccavarano.it,6,Etnografia e antropologia,Territoriale,43.1121,13.1243,Primavera: domenica 16-19. Luglio: 10.30-12.30 e 16-19.30 (sab pom e dom). Agosto: 10.30-12.30 e 16-19.30 (ven sab e dom). Settembre:10.30-12.30 e 16-19 (sab e dom pom). Ottobre:10.30-12.30 e 16-19 (dom pom).,In caso di pioggia la struttura resterà chiusa.Per gruppi organizzati visite su prenotazione: 0733.232527; 338.3828055,Intero: € 2; ridotto: € 1 (da 6 a 15 anni e over 65),http://sirpac.cultura.marche.it/SirpacIntraWeb/storage/Label/1412/Thumbs/PC170101.jpg,"Veduta della Rocca Varano, sede del Museo"
400,"Galleria ""G. Cingolani""",Palazzo dei Priori,Via G. Rossini,5,043026,Montecassiano,0733.299811,ufficio.segreteria@comune.montecassiano.mc.it,www.comune.mondolfo.pu.it,1,Arte,,43.3639,13.4359,,,,,
408,Area archeologica di Colombarone,Colombarone,"Strada Statale Adriatica 16, angolo strada San Cristoforo, dietro Chiesa Colombarone",,041044,Pesaro,389/6903430,didattica@antequem.it,www.archeopesaro.it,2,Archeologia,Storia,43.9498,12.7953,"Dal 15 giugno al 15 luglio venerdì, sabato e domenica dalle 17 alle 20. Dal 16 luglio al 19 agosto tutti i giorni dalle 17 alle 20. Dal 20 agosto al 30 settembre venerdì, sabato e domenica dalle 17 alle 20.Orari di apertura sempre aggiornati sul sito e su",L’area archeologica è aperta al pubblico durante i mesi estivi da giugno a settembre. Nel periodo di chiusura è aperta su prenotazione.,"Ingresso gratuito, visite guidate a pagamento. Attività laboratoriali a pagamento con prenotazione obbligatoria.",http://sirpac.cultura.marche.it/SirpacIntraWeb/storage/Label/1412/Thumbs/interno.jpg,Veduta interna dei resti della villa romana tardoantica
409,"Centro Studi ""Il Paesaggio dell'Eccellenza""",,Via Battisti,34,043044,Recanati,334.9157632,info@paesaggioeccellenza.it,www.paesaggioeccellenza.it,8,Specializzato,,43.4032,13.5507,giugno/agosto - giovedì e venerdì 18/20 - sabato e domenica 17/20settembre/maggio - martedì e mercoledì 10/12 - sabato e domenica 16/19Sono previste aperture straordinarie e su appuntamento.,,Ingresso gratuito con visita guidata,http://sirpac.cultura.marche.it/SirpacIntraWeb/storage/Label/1412/Thumbs/slide_cornice_iat3.jpg,Ingresso
410,Museo della Città - Forte Malatesta,Forte Malatesta,Via delle Terme,,044007,Ascoli Piceno,0736.262833,info@ascolimusei.it,www.ascolimusei.it,3,Storia,Archeologia,42.8528,13.5852,Sabato domenica festivi e prefestivi 10-19. Martedì e giovedì: 10-13. Mercoledì e venerdì: 15-18. Chiuso lunedì.,,Intero: € 4; ridotto € 2; studenti dai 14 anni € 1; famiglie € 5,http://sirpac.cultura.marche.it/SirpacIntraWeb/storage/Label/1412/Thumbs/P1000591.jpg,Veduta esterna
411,"Laboratori Didattici ""Museo Aldo Sergiacomi""",,Via Ischia,24,044054,Offida,338.4240410,laboratori@lavoroperlapersona.it,www.museosergiacomi.it/index.htm,1,Arte,,42.9351,13.6923,Aperto su richiesta,,Ingresso gratuito,,
412,"Museo di Arte Povera Contadina ""Luigi Fagianella""",Fraz. Vestignano,Via Castello,s.n.c.,043006,Caldarola,335.5305879,enosant@alice.it,,6,Etnografia e antropologia,Territoriale,43.118,13.2092,Prefestivi e festivi dalle 15 alle 18. Gli altri giorni su prenotazione.,"Il museo è segnalato all'uscita di Caldarola, direzione Sarnano.",Ingresso gratuito,http://sirpac.cultura.marche.it/SirpacIntraWeb/storage/Label/1412/Thumbs/DSCF3760.jpg,Veduta interna del museo
413,Museo dell'Infanzia,,V.le I Maggio,1,042048,Sirolo,071.9207937; 328.0734381,info@museodelgiocattolo.net,www.museodelgiocattolo.net,3,Storia,Specializzato,43.5122,13.6006,Aperto tutti i giorni (compreso domenica e festivi) dalle 9.30 alle 19.00,,Intero: € 4; ridotto € 2; gruppi e scolaresche € 3,http://sirpac.cultura.marche.it/SirpacIntraWeb/storage/Label/1412/Thumbs/IMG_2344.jpg,Veduta di una delle sale del museo
414,Museo Nori de' Nobili. Centro studi sulla donna nelle arti visive contemporanee,Villino Romualdo,P.zza Leopardi,32,042039,Ripe,071.7957851,info@museonoridenobili.it,www.museonoridenobili.it,1,Arte,,43.6707,13.1065,"Mar: 10.30 - 12.30, Gio: 10.30 - 12.30, Sab: 10.30 - 12.30, 16.30 - 19.00, Dom: 16.30 - 19.00",,,,
415,MITI - Museo dell'Innovazione e della Tecnica Industriale,Officine storiche Iti Montani,Via Padre Marchionni,,044019,Fermo,199.151.123,callcenter@sistemamuseo.it,www.mitimontani.provincia.fm.it,5,Scienza e tecnica,,43.1615,13.7076,"dal 30 Marzo al 31 Dicembre: sabato, domenica e festivi dalle 16.00 alle 20.00. Apertura a richiesta su  prenotazione al di fuori dell'orario indicato","Call Center rete ""Musei Comuni"" 199.151.123 Costo da tel. fisso Telecom Italia 10 cent. al min. IVA incl. senza scatti alla risposta tutti i giorni 24/24 h. Altro oper contat servizio clienti.",intero: € 4; ridotto: € 2 (under 14 over 65); gratuito (under 6 anni),http://sirpac.cultura.marche.it/SirpacIntraWeb/storage/Label/1412/Thumbs/MITI_IMG_8583.jpg,Museo dell'Innovazione e della Tecnica Industriale
416,"Aula didattica multimediale “Casa della memoria""",Ex Stazione Ferroviaria,Via E. Fermi,16,044069,Servigliano,0734/750583,info@casadellamemoria.org; comune@pec.comune.servigliano.fm.it,www.casadellamemoria.org; www.comune.servigliano.fm.it,3,Storia,,43.0804,13.4924,"Luglio-agosto: dal lunedì al venerdì 9-14; sabato 15-20. Negli altri mesi: dal lunedì al venerdì dalle 9 alle 14 (pomeriggio su prenotazione), sabato dalle 15 alle 20 (mattino su prenotazione), domenica a richiesta e aperture straordinarie comunicate sul",,,,
417,Poltrona Frau Museum,,Via Cristoforo Colombo,,043053,Tolentino,0733.909447,museum@poltronafrau.it,www.poltronafraumuseum.it,8,Specializzato,,43.2093,13.2806,Dal martedì al venerdì 15.30 - 19.30. Sabato 9.30 - 13.00 e 15.30 - 19.30.,Possibilità di effettuare visite guidate. Per info: museum@poltronafrau.it.,Ingresso gratuito,http://sirpac.cultura.marche.it/SirpacIntraWeb/storage/Label/1412/Thumbs/14-pop.jpg,Portale di ingresso del Poltrona Frau Museum
418,"Museo della Scuola ""Paolo e Ornella Ricca""",Centro Direzionale,Via Carducci,63/a,043023,Macerata,,cescom@unimc.it, http://www2.unimc.it/dsef/ricerca/centri/museo-della-scuola-abpaolo-e-ornella-riccabb/view,8,Specializzato,,43.2974,13.4542,Aperto su prenotazione,,Ingresso a pagamento,,
419,Museo Nazionale del Costume Folcloristico,"Palazzo Municipale, terzo piano",Piazza della Repubblica,12,043009,Castelraimondo,"0737-641723, 339-7649911, 339-4654089",castelraimondo@gruppofolk.it,www.gruppofolk.it,6,Etnografia e antropologia,Territoriale,43.2099,13.0576,Festivi e feriali previo appuntamento,"Pubblicazioni: L. Barbini, G. Palombini, D. Parbuono, A. Scasserra, C. Zoldan, Per un Museo del Costume Folcloristico, a cura di Luca Barbini, Halley editrice, Matelica, 2009.",,,
420,Ecomuseo della Valle dell'Aso,c/o Unione Comuni Valdaso,Piane di Moresco,65,044053,Moresco,0735 594620,antonella.nonnis@progettozenone.it,http://www.ecomuseodellavalledellaso.it,6,Etnografia e antropologia,Territoriale,43.086,13.73,,,,,
421,MAM - Museo d'Arte sul Mare,,Molo Sud,s.n.c.,044066,San Benedetto del Tronto,0735.794588,musei@comunesbt.it; piernicola.cocchiaro@gmail.com,www.mamsbt.it,1,Arte,,42.9557,13.8913,Sempre aperto,,Ingresso gratuito,http://sirpac.cultura.marche.it/SirpacIntraWeb/storage/Label/1412/Thumbs/1_MAM.jpg,Ingresso del MAM
