"DENOMINAZIONE";"COMUNE";"PROVINCIA";"INDIRIZZO";"CAP";"ANNO_DI_COSTRUZIONE";"CONDIZIONE";"ATTIVITA";"PROPRIETA";"GESTIONE";"CAPIENZA";"PAVIMENTAZIONE_SALA";"PAVIMENTAZIONE_PALCOSCENICO";"SUPERFICIE";"DIMENSIONI";"GRATICCIO";"ALTEZZA_GRATICCIO O SOFFITTO IN METRI";"SIPARIO";"BOCCASCENA";"NUMERO_CAM";"SCARICO_MA";"POTENZA_ELETTRICA IN KW";"NOTE";"TIPOLOGIA";"geojson";"lon";"lat"
"Abbazia di Farfa";"Castelnuovo di Farfa";"Rieti";;"02032";"VII secolo d.C.";"buona";"parziale";"privata";"privata";"400";;;"0";;;"0";;"0";;;;"Nello spazio antistante l'Abbazia vengono organizzati importanti concerti e spettacoli nel periodo estivo. É anche uno dei luoghi scelti per ospitare la rassegna regionale, curata da ATCL, ""Il senso dei luoghi"". L'Abbazia è uno dei monumenti più importan";"all' aperto";"{""type"":""Point"",""coordinates"":[12.721212406713681,42.242577574857506]}";"12.7212124067137";"42.2425775748575"
"Abbazia di Fossanova";"Priverno";"Latina";"Borgo medioevale";"04015";"1173 - 1208";"buona";"parziale";"pubblica";"pubblica";"400";;;"0";;;"0";;"0";;;;"L'Abbazia di Fossanova è sita nel Borgo medievale di Fossanova. L'edificio venne ricostruito tra il 1173 ed il 1208 nelle attuali forme cistercensi, formando con il successivo aggiungersi di edifici il complesso attuale. In alcuni locali del complesso de";"spazio alternativo";"{""type"":""Point"",""coordinates"":[13.172473634122071,41.461530709040524]}";"13.1724736341221";"41.4615307090405"
"Abbazia di San Nilo";"Grottaferrata";"Roma";"Corso del Popolo, 128";"00046";"1004";"buona";"parziale";"pubblica";"privata";"500";;;"0";;;"0";;"0";;;;"Notizie storiche sullo spazio si possono trovare sul sito www.abbaziagreca.it. La proprietà è della Sovrintendenza. Persona di riferimento per informazioni è Padre Romano presso l'Abbazia.";"spazio alternativo";"{""type"":""Point"",""coordinates"":[12.697579258703772,41.789174646871082]}";"12.6975792587038";"41.7891746468711"
"Anfiteatro";"Ciampino";"Roma";"via Mura dei Francesi";"00043";"1980";"buona";"parziale";"pubblica";"comunale";"150";"pietra";"pietra";"64";"diametro mt. 30";;"0";;"0";;"agevole";;"L'anfiteatro è di recente costruzione ed è stato impiantato proprio per consentire un'attività teatrale estiva al Comune.";"all'aperto";"{""type"":""Point"",""coordinates"":[12.602053818619702,41.806684760393054]}";"12.6020538186197";"41.8066847603931"
"Anfiteatro";"Sutri";"Viterbo";"Via Cassia km 49.600";"01015";"III-I sec.a.c.";"da ristrutturare";"si";"pubblica";"pubblica";"7000";;;"0";;;"0";;"0";;"agevole";;"L'anfiteatro è stato ricavato incidendo il fianco di una collina. Ancora oggi gli studiosi sono perplessi e incerti se considerare l'opera etrusca o romana. Si tratta di un ampio edificio ellittico composto da tre ordini di gradinate, accessibili attrave";"all'aperto";"{""type"":""Point"",""coordinates"":[12.219038937598842,42.249507395045825]}";"12.2190389375988";"42.2495073950458"
"Anfiteatro comunale";"Cantalupo";"Rieti";"Largo dei Sabini";"02040";"2002";"in ristrutturazione";"no";"pubblica";"comunale";"150";;;"0";;;"0";;"0";;;;"Si tratta di un anfiteatro naturale sito in pieno centro storico, con copertura mobile garantita da un velario, elemento questo che si applica per la prima volta in un'opera realizzata nel Reatino, basandosi sul modello che completava gli anfiteatri roma";"all' aperto";"{""type"":""Point"",""coordinates"":[12.648314464293408,42.309272732782162]}";"12.6483144642934";"42.3092727327822"
"Anfiteatro Comunale all'aperto";"Castelnuovo di Farfa";"Rieti";"Via Roma";"02031";"1990";"buona";"parziale";"pubblica";"comunale";"500";;"legno";"60";;;"0";;"0";;;;"Possono venire aggiunti, all'occorrenza, 200 posti mobili per aumentare la capienza. Il palcoscenico che viene costruito è modulare e può essere adattato alle esigenze e composto in varie soluzioni. I camerini e la potenza elettrica variano a seconda del";"all'aperto";"{""type"":""Point"",""coordinates"":[12.732589108132458,42.224502069486427]}";"12.7325891081325";"42.2245020694864"
"Anfiteatro Cordeschi";"Acquapendente";"Viterbo";"Strada Onanese";"01021";;"buona";"parziale";"privata";"privata";"300";;;"0";;;"0";;"0";;;;"L'Anfiteatro ""Cordeschi"", di proprietà dell'omonima famiglia, si trova lungo la strada provinciale Onanese. La costruzione si compone essenzialmente di tre parti: un edificio d'ingresso, una platea circolare con loggiato e contorno e il palcoscenico. La";"spazio alternativo";"{""type"":""Point"",""coordinates"":[11.870385643535855,42.76339124814141]}";"11.8703856435359";"42.7633912481414"
"Anfiteatro di Ferento";"Viterbo";"Viterbo";"strada per Ferento-8km ca. da Viterbo";"01100";"I° secolo d.C.";"buona";"parziale";"pubblica";"comunale";"1500";"terra battuta";;"300";;;"0";;"0";;"agevole";;"Di proprietà della Sovrintendenza, l'anfiteatro è utilizzato per una programmazione teatrale estiva. Si compone di una cavea e di una scala lunga 46 metri sulla cui fronte erano poste statue delle Muse.Nella facciata esterna si privano sette porte.La cav";"all'aperto";"{""type"":""Point"",""coordinates"":[12.106548395485381,42.46934248382486]}";"12.1065483954854";"42.4693424838249"
"Anfiteatro La Rifolta";"Roccagorga";"Latina";"Piazza 6 gennaio";"04010";"XVII secolo";"ristrutturato";"parziale";"pubblica";"comunale";"600";;;"48";"profondità mt. 6; larghezza mt. 8";;"0";;"0";"2";"agevole";"30";"La Rifolta fu costruita nella seconda metà del XVII secolo come ""peschierone baronale"". In seguito ad un progetto ideato in seno al Comune, è stata trasformata in una sorta di anfiteatro con grande flessibilità di utilizzo. Si può trasformare in teatro c";"all'aperto";"{""type"":""Point"",""coordinates"":[13.156340579179899,41.530814389868517]}";"13.1563405791799";"41.5308143898685"
"Anfiteatro Mercatello";"Bolsena";"Viterbo";;"01023";"VII secolo a. C.";"da ristrutturare";"no";"pubblica";"comunale";"300";;;"0";;;"0";;"0";;;;"Usato in passato anche per rappresentazioni teatrali, oggi l'anfiteatro ha bisogno di interventi strutturali, in seguito ai quali potrebbe riprendere anche l'attività teatrale.";"all' aperto";"{""type"":""Point"",""coordinates"":[11.988075118368561,42.650273342303713]}";"11.9880751183686";"42.6502733423037"
"Anfiteatro Romano";"Cassino";"Frosinone";"Via Monte Cassino";"03043";"I secolo d.C.";"buona";"parziale";"pubblica";"comunale";;;;"0";;;"0";;"0";;;;"Edificato nella seconda metà del secolo I d.C. a spese di Ummidia Quadratilla, della gens Ummidia, potente famiglia di Casinum. Il monumento ha pianta ellittica e misura mt. 85 x 68. Il settore settentrionale delle gradinate poggia alla collina incidendo";"all'aperto";"{""type"":""Point"",""coordinates"":[13.84745701387344,41.49862990505423]}";"13.8474570138734";"41.4986299050542"
"Antares";"Ceccano";"Frosinone";"Piazza Berardi, 37";"03023";"1965";"ristrutturato";"parziale";"privata";"privata";"500";;;"71,5";"profondità mt. 6,50; larghezza mt. 11";"si";"15";"manuale";"11";;"agevole";"20";;"cinema - teatro";"{""type"":""Point"",""coordinates"":[13.334500460189016,41.571551413563625]}";"13.334500460189";"41.5715514135636"
"Artemisio";"Velletri";"Roma";"Piazza del Teatro";"00049";"1948";"da ristrutturare";"no";"pubblica";"comunale";"600";;;"84";"profondità mt. 6; larghezza mt. 14";"si";"7,4";"manuale";"9,5";"2";"agevole";"8";;"cinema - teatro";"{""type"":""Point"",""coordinates"":[12.759217346037369,41.665545972531106]}";"12.7592173460374";"41.6655459725311"
"Auditorium Amici della Musica";"Allumiere";"Roma";"Piazza della Repubblica, 29";"00051";"1979";"buona";"si";"pubblica";"privata";"120";"maiolica";"legno";"45";"profondità mt. 6; larghezza mt. 7,50";"no";"6";"no";"7";"2";"agevole";"5";"L'Auditorium è attualmente utilizzato per spettacoli e concerti a cura del Comune e offre alla popolazione una programmazione piuttosto ricca.";"spazio alternativo";"{""type"":""Point"",""coordinates"":[11.881498897875487,42.14359844026805]}";"11.8814988978755";"42.1435984402681"
"Auditorium comunale";"Roccagorga";"Latina";"Via Domenico Menta";"04010";"1800";"ristrutturato";"parziale";"pubblica";"comunale";"140";;;"25";;;"0";;"0";"1";"disagevole";"3";"L'Auditorium è utilizzato per conferenze e spettacoli teatrali.Non è fornito di palcoscenico, ma ha uno spazio utilizzabile, al centro di alcune gradinate, di circa 25 mq. É adeguato e accessibile ai portatori di handicap. Responsabile è il signor Favall";"spazio alternativo";"{""type"":""Point"",""coordinates"":[13.127627728607342,41.525757158365224]}";"13.1276277286073";"41.5257571583652"
"Auditorium ex Cappella lauretana";"Esperia";"Frosinone";"Via G. Marconi -Esperia superiore";"03045";"1700";"in ristrutturazione";"no";"pubblica";"comunale";"300";;;"0";;;"0";;"0";;;;;"spazio alternativo";"{""type"":""Point"",""coordinates"":[13.684519629933996,41.385064884536028]}";"13.684519629934";"41.385064884536"
"Auditorium Osvaldo Scardelletti";"Monterotondo";"Roma";"Via Monte Pollino - Monterotondo Scalo";"00015";"1970 circa";"da ristrutturare";"parziale";"pubblica";"privata";"98";"linoleum";"legno e cemento";"32";"profondità mt. 4; larghezza mt. 8";"no";"4";"elettrico";"6";"6";"agevole";"15";"La gestione è affidata alla  Scuola Media Cardinal Piazza.  Lo spazio necessita di interventi migliorativi per ciò che riguarda la parte scenica.";"spazio alternativo";"{""type"":""Point"",""coordinates"":[12.624439638741697,42.078009432235511]}";"12.6244396387417";"42.0780094322355"
"Auditorium S. Carlo";"Mompeo";"Rieti";"Piazzale Nanni Loy";"02040";"1720";"ristrutturato";"si";"pubblica";"comunale";"70";"piastrelle in cotto";"legno";"50";"profondità mt. 5; larghezza mt. 10";"si";"6";"no";"0";"3";"disagevole";"6";"L'Auditorium era in passato una chiesa rurale.";"spazio alternativo";"{""type"":""Point"",""coordinates"":[12.77163400622922,42.254464505703616]}";"12.7716340062292";"42.2544645057036"
"Auditorium S. Lucia";"Leonessa";"Rieti";"Corso S. Giuseppe";"02016";"1999";"buona";"parziale";"pubblica";"comunale";"72";"cotto";"parquet";"29";"profondità mt. 5,20; larghezza mt. 5,20";"no";"6";"no";"0";"1";"disagevole";"6";"Situato sul corso di Leonessa, l'Auditorium si presta per piccoli spettacoli, convegni, conferenze.";"spazio alternativo";"{""type"":""Point"",""coordinates"":[12.963742127505519,42.570237646990456]}";"12.9637421275055";"42.5702376469905"
"Castello baronale";"Torrita tiberina";"Roma";"L.go 16 marzo 1978";"00060";"1200";"ristrutturato";"parziale";"pubblica";"comunale";"60";;;"0";;;"0";;"0";;;;"Il Castello baronale domina l'antico borgo di Torrita tiberina, formato da casette medioevali e rinascimentali. Originariamente l'entrata era protetta da un fossato a pozzo sovrastato da un ponte levatoio. Parte del Castello è di proprietà comunale, già";"spazio alternativo";"{""type"":""Point"",""coordinates"":[12.620580923829861,42.241785620658199]}";"12.6205809238299";"42.2417856206582"
"Castello Colonna - Salone degli Armigeri";"Genazzano";"Roma";"Piazza San Nicola";"00030";"1022";"ristrutturato";"parziale";"pubblica";"comunale";"300";"cotto antico";"cotto";"64";"profondità mt. 8; larghezza mt. 8";"no";"20";"no";"8";;"disagevole";"150";"Il palcoscenico viene allestito con pedane modulari. Ampi spazi vengono messi a disposizione come camerini.";"spazio alternativo";"{""type"":""Point"",""coordinates"":[12.980686657736323,41.831958026283822]}";"12.9806866577363";"41.8319580262838"
"Castello Savelli - Giardino Pensile";"Palombara Sabina";"Roma";"Via Piave";"00018";"1500";"buona";"parziale";"pubblica";"comunale";;;;"60";"profondità mt. 12; larghezza mt. 50";"no";"0";;"0";;"disagevole";"12";"I due spazi (v. scheda riferita alla sala capriata) sono inseriti all'interno del Castello Savelli, un'opera architettonica la cui fabbrica fu avviata addirittura nel 900. Nel corso dei secoli nuove sopraelevazioni e torri vennero edificate, fino al comp";"spazio alternativo";"{""type"":""Point"",""coordinates"":[12.77754078132406,42.067443075704695]}";"12.7775407813241";"42.0674430757047"
"Castello Savelli - Sala capriata";"Palombara Sabina";"Roma";"Via Piave";"00018";"1500";"buona";"parziale";"pubblica";"comunale";;"cotto";;"200";"profondità mt. 10; larghezza mt. 20";"no";"0";"no";"0";;"disagevole";"12";"I due spazi (v. scheda riferita al giardino pensile) sono inseriti all'interno del Castello Savelli, un'opera architettonica la cui fabbrica fu avviata addirittura nel 900. Nel corso dei secoli nuove sopraelevazioni e torri vennero edificate, fino al com";"spazio alternativo";"{""type"":""Point"",""coordinates"":[12.752580103632264,42.097418717563166]}";"12.7525801036323";"42.0974187175632"
"Centro Polivalente all'aperto";"Aprilia";"Latina";"Via Giustiniano";"04011";"1989";"buona";"parziale";"pubblica";"privata";"300";"cemento precompresso";"compensato marino";"48";"profondità mt. 6; larghezza mt. 8";"no";"0";"no";"6";"3";"agevole";"10";"Il Centro Polivalente di via Giustiniano è una struttura di proprietà del Comune, realizzata dall'Istituto Case Popolari di Latina alla fine degli anni Ottanta, per soddisfare le esigenze culturali e sociali dei residenti di un grande comprensorio di edi";"spazio alternativo";"{""type"":""Point"",""coordinates"":[12.621211110590648,41.611220303682941]}";"12.6212111105906";"41.6112203036829"
"Chiesa di Sant'Angelo o San Michele Arcangelo";"Sezze";"Latina";"Via Garibaldi";"04018";"1602";"ristrutturato";"si";"pubblica";"comunale";"80";"mattoni";"mattoni";"44";"profondità mt. 4; larghezza mt. 11";"no";"0";"no";"0";"1";"disagevole";"20";"La sala era una chiesa barocca costruita nel 1602, adiacente alla Chiesa di San Pietro. La facciata dà su via Garibaldi e si presenta a capanna semplice, arricchita nella parte superiore. Ristrutturata nel 1992, e di proprietà del Comune, non ha prosceni";"spazio alternativo";"{""type"":""Point"",""coordinates"":[13.060599936645708,41.503916276959778]}";"13.0605999366457";"41.5039162769598"
"Chiesa SS. Dionigi, Rustico ed Eleuterio";"Borgovelino";"Rieti";"Viale Aldo Moro";"02010";"XII secolo";"buona";"parziale";"pubblica";"comunale";"50";;;"0";;;"0";;"0";;;;"La chiesa dei SS. Dionigi, Rustico ed Eleuterio, detta anche di S. Antonio è una costruzione di notevole interesse, che sorge poco fuori dall'abitato, sulla riva sinistra del fiume Velino. Databile al sec. XII, conserva elementi ornamentali del VII e VII";"spazio alternativo";"{""type"":""Point"",""coordinates"":[13.057197131127198,42.409425951766046]}";"13.0571971311272";"42.409425951766"
"Chiesa Vecchia";"Colonna";"Roma";"Via del Teatro";"00030";"1700";"buona";"si";"pubblica";"comunale";"130";"marmo";"legno";"50";"profondità mt. 5; larghezza mt. 10";"si";"0";"manuale";"0";"1";"agevole";"10";"Originariamente era una chiesa che poi fu sconsacrata. Lo spazio ha subito utilizzi differenziati nel corso del tempo: è stata anche un frantoio. Alla fine degli anni '70 venne trasformato definitivamente in un  luogo teatrale.";"spazio alternativo";"{""type"":""Point"",""coordinates"":[12.762889778929692,41.828216652521064]}";"12.7628897789297";"41.8282166525211"
"Cinema Miramare";"Formia";"Latina";"Via Sarinola";"04023";"1950";"da ristrutturare";"no";"pubblica";"comunale";"400";;;"0";;;"0";;"0";;;;"E' in corso un progetto di ristrutturazione e ampliamento per la realizzazione di una sala teatrale polivalente. Il progetto è stato approvato con delibera del Consiglio comunale, è in fase di pubblicazione e successiva approvazione in Conferenza di Serv";"cinema - teatro";"{""type"":""Point"",""coordinates"":[13.645463943517026,41.306823682223083]}";"13.645463943517";"41.3068236822231"
"Cinema Teatro";"Gallese";"Viterbo";"Piazza S.Maria,1";"01035";"1957";"in ristrutturazione";"parziale";"privata";"privata";"99";"mattonato";"cemento";"0";;;"0";;"0";;;;"Spazio adiacente alla cattedrale, è di proprietà della Parrocchia S. Maria Assunta. Attualmente utilizzato per attività locali grazie al finanziamento della leggi 21 sono in corso adeguamenti.";"cinema - teatro";"{""type"":""Point"",""coordinates"":[12.403709369085142,42.378656179302894]}";"12.4037093690851";"42.3786561793029"
"Cinema Teatro Ariston";"Gaeta";"Latina";"Piazza della Libertà, 19";"04024";"1954";"buona";"si";"privata";"privata";"657";"maiolica";"legno";"108";"profondità mt. 6; larghezza mt. 18";"si";"12";"manuale";"9,5";"6";"agevole";"30";"La sala è stata realizzata negli anni '50 su progetto dell'ingegnere Domenico Simeone. L'esercizio era allora limitato esclusivamente alla programmazione cinematografica. Nel 1966 fu approvato il progetto del palcoscenico che completava la struttura esis";"cinema - teatro";"{""type"":""Point"",""coordinates"":[13.541251691216699,41.241844066915817]}";"13.5412516912167";"41.2418440669158"
"Cinema Teatro Augustus";"Sabaudia";"Latina";"Piazza del Comune, 9";"04016";"1934";"ristrutturato";"parziale";"pubblica";"privata";"280";"maiolica";"legno";"40";"profondità mt. 5; larghezza mt.8";"no";"0";"no";"0";"0";"agevole";"25";"Lo spazio è dotato di quattro sale, ma solo una di esse ha il palcoscenico. L'edificio ha già subito due ristrutturazioni, nel 1992 e nel 1997. Il palcoscenico non è dotato di proscenio.";"cinema - teatro";"{""type"":""Point"",""coordinates"":[13.029851217270771,41.306122849486727]}";"13.0298512172708";"41.3061228494867"
"Cinema Teatro Buonarroti";"Civitavecchia";"Roma";"Via Buonarroti, 13/b";"00053";"1982";"ristrutturato";"si";"privata";"privata";"456";"linoleum";"legno";"72";"profondità mt. 6; larghezza mt. 12";"si";"6";"elettrico";"10";"8";"agevole";"16";"Lo spazio è completamente ristrutturato ed è di proprietà dell'Ente maschile S. Giovanni Bosco.";"cinema - teatro";"{""type"":""Point"",""coordinates"":[11.818277766143572,42.084780900415396]}";"11.8182777661436";"42.0847809004154"
"Cinema Teatro Comunale";"Amatrice";"Rieti";"Corso Umberto I, 152";"02012";"Anni '30";"buona";"parziale";"pubblica";"comunale";"146";"maiolica";"legno";"41,25";"profondità mt. 5,50; larghezza mt. 7,50";"si";"5";"manuale";"7";"2";"agevole";;"Lo spazio è dotato di moderne apparecchiature illuminanti con grado di protezione IP - 40 e IP - 55, schermo in policarbonato e lamellare con lampade ad alta resa. Inoltre è presente un locale adibito a cabina di proiezione, installato nella zona alle sp";"cinema - teatro";"{""type"":""Point"",""coordinates"":[13.298910242768073,42.630990006890059]}";"13.2989102427681";"42.6309900068901"
"Cinema Teatro Esperia";"Paliano";"Frosinone";"Piazza Marini, 17";"03018";"1945";"da ristrutturare";"no";"pubblica";"comunale";"250";;;"0";;;"0";;"0";;;;"lo spazio necessita di ristrutturazione e perciò non è agibile per spettacoli teatrali. Viene saltuariamente utilizzato come spazio per riunioni di vario genere. La proprietà è comunale";"cinema - teatro";"{""type"":""Point"",""coordinates"":[13.057243622671509,41.805502769625477]}";"13.0572436226715";"41.8055027696255"
"Cinema Teatro Europa";"Aprilia";"Latina";"Via Giovanni XXIII";"04011";"1965";"buona";"parziale";"privata";"privata";"840";"marmo";"legno ignifugo";"72";"profondità mt. 6; larghezza mt. 12";"si";"4";"si";"0";"6";"agevole";"10";"Lo spazio è stato chiuso dal 1971 e poi riaperto e chiuso a più riprese. E' stato ristrutturato nel 1995 e da allora si tende a usarlo più spesso come cinema che come teatro, a differenza del passato. Proprietà della famiglia Brilli, è gestito dalla Soci";"cinema - teatro";"{""type"":""Point"",""coordinates"":[12.645087909557612,41.582670609812482]}";"12.6450879095576";"41.5826706098125"
"Cinema Teatro Giuseppetti";"Tivoli";"Roma";"Vicolo Inversata, 5";"00019";"1929";"buona";"si";"privata";"privata";"510";"linoleum";"parquet";"140";"profondità mt. 10; larghezza mt. 14";"si";"10";"elettrico";"9";"4";"disagevole";"30";"Lo spazio si presta ad attività di vario tipo. É presente una buca per orchestra e, eventualmente, la gestione mette a disposizione materiali quali quinte, fondali, alcuni proiettori, uno schermo di mt. 6 x 9 e un impianto di proiezione cinemeccanica del";"tradizionale";"{""type"":""Point"",""coordinates"":[12.806656952415844,41.968244910070652]}";"12.8066569524158";"41.9682449100707"
"Cinema Teatro Kursaal";"Contigliano";"Rieti";"Viale della Repubblica";"02043";"1956";"da ristrutturare";"no";"privata";"comunale";"204";"moquette";"legno";"40";"profondità mt. 4; larghezza mt. 10";"no";"0";"elettrico";"0";"2";"agevole";;"Il palco è di forma irregolare. Lo spazio è chiuso per lavori di restauro. E' stato uno dei primi Cinema di provincia nel 1956.";"cinema - teatro";"{""type"":""Point"",""coordinates"":[12.766847562772199,42.414887828280158]}";"12.7668475627722";"42.4148878282802"
"Cinema Teatro Lanciotti";"Ciciliano";"Roma";"Via Roma";"00020";"1964";"da ristrutturare";"parziale";"pubblica";"comunale";"400";"marmo";"legno";"30";"profondità mt. 3; larghezza mt. 10";"si";"0";"no";"15";;"agevole";;"Lo spazio necessità di opere di ristrutturazione per  essere completamente operativo.";"cinema - teatro";"{""type"":""Point"",""coordinates"":[12.936510155202289,41.947107172878738]}";"12.9365101552023";"41.9471071728787"
"Cinema Teatro Mangoni";"Isola del Liri";"Frosinone";"Via Roma, 2";"03036";"1957";"buona";"si";"privata";"privata";"481";"maiolica";"parquet";"70";"profondità mt. 7; larghezza mt. 10";"si";"15";"manuale";"12";"5";"agevole";"10";"La proprietà dell'immobile è della famiglia Mangoni, la gestione è affidata alla Pantea sas. Il responsabile della struttura è Angelo Quaglieri.";"cinema - teatro";"{""type"":""Point"",""coordinates"":[13.581347269848443,41.685782018963813]}";"13.5813472698484";"41.6857820189638"
"Cinema Teatro Max";"Pontinia";"Latina";"Piazza Indipendenza";"04014";"1935";"buona";"parziale";"pubblica";"comunale";"300";"maiolicato";"legno";"80";"profondità mt. 10; larghezza mt. 8";;"0";"manuale";"0";"6";"agevole";;"Il cinema-teatro è di proprietà del Comune, responsabile della struttura è Claudio Galeazzi.";"cinema - teatro";"{""type"":""Point"",""coordinates"":[13.048661049655056,41.416074778829532]}";"13.0486610496551";"41.4160747788295"
"Cinema Teatro Nuovo";"Bracciano";"Roma";"Via Trento, 13";"00062";"1948";"da ristrutturare";"no";"privata";"privata";"824";;;"90,3";"profondità mt. 7; larghezza mt. 12,90";"si";"8";;"11,2";;;"6";"Al momento lo spazio è inattivo.";"cinema - teatro";"{""type"":""Point"",""coordinates"":[12.175081926292883,42.112781160810613]}";"12.1750819262929";"42.1127811608106"
"Cinema Teatro Saranieri";"Itri";"Latina";"Via C. Farnese";"04020";"1934";"da ristrutturare";"no";"privata";"privata";"500";"maiolica";"maiolica granigliata";"60";"profondità mt. 5; larghezza mt. 12";"si";"8";"no";"10";"2";"agevole";"4";"Lo spazio è attualmente in disuso. Necessita di fondi per una seria ristrutturazione, anche tenuto conto della data della sua costruzione ed essendo l'unica struttura teatrale del luogo. Attualmente la famiglia Saranieri sta prendendo accordi con gli Ent";"cinema - teatro";"{""type"":""Point"",""coordinates"":[13.532577151578939,41.297176760923911]}";"13.5325771515789";"41.2971767609239"
"Cinema Teatro Uberto Bazzi";"Castelgandolfo";"Roma";"Viale Aldo Moro";"00040";"1975";"buona";"parziale";"privata";"privata";"250";"marmo";"legno";"40";"profondità mt. 5; larghezza mt. 8";"si";"0";"elettrico";"8";"4";"agevole";"15";"Lo spazio è di proprietà dell'Istituto dei Salesiani.";"cinema - teatro";"{""type"":""Point"",""coordinates"":[12.662868424928536,41.750228892817816]}";"12.6628684249285";"41.7502288928178"
"Cinema Teatro Vittorio Veneto";"Colleferro";"Roma";"Via Artigianato";"00034";"1950";"buona";"si";"privata";"comunale";"680";"gomma nera";"legno";"133";"profondità mt. 9,50; larghezza mt. 14";"si";"7";"elettrico";"9";"4";"agevole";"25";"Lo spazio nasce come cinema-teatro nel 1950 ad opera della famiglia Furlan, che lo terrà fino al 1998, anno in cui la proprietà passerà alla società Glac Cine srl, che è attualmente ancora proprietaria dell'immobile. Dal 1985 è l'Amministrazione comunale";"cinema - teatro";"{""type"":""Point"",""coordinates"":[13.003432332324373,41.73318091187658]}";"13.0034323323244";"41.7331809118766"
"Cortile interno al Castello - Rione";"Picinisco";"Frosinone";"Largario Rione";"03040";"1100";"da ristrutturare";"parziale";"pubblica";"comunale";"300";"asfaltato";;"0";;;"0";;"0";;"agevole";;;"all'aperto";"{""type"":""Point"",""coordinates"":[13.868471622804705,41.646868435141108]}";"13.8684716228047";"41.6468684351411"
"Ex Convento Santa Chiara";"Antrodoco";"Rieti";"Via Corso Roma";"02013";"1200";"ristrutturato";"parziale";"pubblica";"comunale";"90";"cotto";"legno";"24";"profondità mt. 6; larghezza mt. 4";"si";"0";"elettrico";"0";"2";"agevole";;"L'ex convento comprende il suddetto spazio al chiuso e una gradinata di circa 1.000 posti, situata all'interno del parco facente parte dell'area conventuale, di recente ristrutturazione e normalmente utilizzata per manifestazioni estive.";"spazio alternativo";"{""type"":""Point"",""coordinates"":[13.101874955218602,42.402081941647481]}";"13.1018749552186";"42.4020819416475"
"Forte Michelangelo";"Civitavecchia";"Roma";"Porto di Civitavecchia";"00053";"XVI secolo";"buona";"parziale";"pubblica";"comunale";"600";"asfalto";"legno";"100";"profondità mt. 10; larghezza mt. 10";"no";"0";"manuale";"0";;"agevole";;"I lavori per la costruzione del Forte Michelangelo cominciarono agli inizi del XVI secolo per volontà di Papa Giulio II della Rovere, che capì l'importanza di difendere il porto di Civitavecchia, chiave di ogni comunicazione con Roma e di assicurare una";"all'aperto";"{""type"":""Point"",""coordinates"":[11.821645790149065,42.108658567491119]}";"11.8216457901491";"42.1086585674911"
"Fortezza Borgia - Cortile del Forte Sangallo";"Nettuno";"Roma";"Via A. Gramsci, 5";"00048";"1503";"da ristrutturare";"parziale";"pubblica";"comunale";"500";"grezzo impostato per pavimentazione";;"40";"profondità mt. 4; larghezza mt. 10";;"0";;"0";;"agevole";;"La superficie del palcoscenico è ampliabile.E' possibile allestire camerini. Il responsabile è il signor Sig. Liboni Arnaldi.";"spazio alternativo";"{""type"":""Point"",""coordinates"":[12.706955735863719,41.497000851447183]}";"12.7069557358637";"41.4970008514472"
"Monastero Clarisse";"Petrella Salto";"Rieti";"Località Borgo S. Pietro";"02025";"1990";"buona";"parziale";"privata";"privata";"294";"linoleum";"legno";"50";"profondità mt. 5,60; larghezza mt. 9";"no";"4,7";"manuale";"7,8";"1";"agevole";"16";"Lo spazio appartiene ed è gestito dall'Istituto Santa Filippa Mareri.  Il soffitto è curvo, perciò l'altezza arriva fino a mt. 5,50. I camerini sono costituiti da uno spazio retrostante.";"spazio alternativo";"{""type"":""Point"",""coordinates"":[13.074812397974855,42.300356473614578]}";"13.0748123979749";"42.3003564736146"
"Multisala del Mare";"Formia";"Latina";"Via Olivastro Spaventola";"04023";"2001";"buona";"si";"privata";"privata";"420";;;"0";;;"0";;"0";;;;"Lo spazio è di proprietà della società Cinemaotto. Al suo interno sono state realizzate e rese funzionanti 5 sale cinematografiche. Si segnala perchè attualmente è in corso d'istruttoria la variante per la realizzazione di una sala teatrale  di 420 posti";"cinema - teatro";"{""type"":""Point"",""coordinates"":[13.586027175949763,41.272265671424371]}";"13.5860271759498";"41.2722656714244"
"Multisala Nestor";"Frosinone";"Frosinone";"Viale Mazzini 11";"03100";"1954";"buona";"si";"privata";"comunale";"998";"ceramica";"legno";"132";"profondità mt. 11; larghezza mt. 12";"si";"16";"manuale";"13";"8";"agevole";"35";"Il Nestor è stato costruito nel 1954 dall'architetto Evangelisti Nestore come Cinema Teatro Nestor ed è stato gestito dalla famiglia Bianchini per quarant'anni, poi nel 1995 è stato aquistato dalla società Glac Cine 93 Srl che ha costruito altre 3 sale c";"cinema - teatro";"{""type"":""Point"",""coordinates"":[13.30372010772922,41.639701230870308]}";"13.3037201077292";"41.6397012308703"
"Nuovo Cinema Teatro Totò";"Valmontone";"Roma";"Largo Fantozzi";"00038";"1984";"buona";"parziale";"pubblica";"comunale";"320";"marmo coreano";"legno";"90";"profondità mt. 6; larghezza mt. 15";"no";"5,3";"elettrico";"15";"3";"agevole";"15";"Precedentemente solo cinema, la struttura è divenuta anche teatro, grazie all'azione e alla volontà di un gruppo locale che opera nello spazio. Responsabile della struttura è  Anna Maria Amici, direttore Silvio Luttazzi.";"cinema - teatro";"{""type"":""Point"",""coordinates"":[12.917126446982223,41.782474419205904]}";"12.9171264469822";"41.7824744192059"
"Nuovo Teatro";"Palombara Sabina";"Roma";"Via Isonzo, 44";"00018";"1946";"ristrutturato";"si";"privata";"privata";"238";"gomma bullonata";"legno";"48";"profondità mt. 6; larghezza mt. 8";"si";"7";"no";"8";"2";"disagevole";"30";"Fu l'intenzione di portare a Palombara Sabina la novità del sonoro che spinse tre soci, Agostini, Bernabini e Pompili, a investire cospicue somme di denaro nella costruzione di un cinema-teatro e furono ragioni economiche a imporne la chiusura dopo pochi";"cinema - teatro";"{""type"":""Point"",""coordinates"":[12.702844606090768,42.086002202731422]}";"12.7028446060908";"42.0860022027314"
"Palazzo Maoli";"Petrella Salto";"Rieti";"Via XX settembre";"02025";"XVI sec.";"in ristrutturazione";"parziale";"privata";"privata";;;;"0";;;"0";;"0";;;;"La proprietà di Palazzo Maoli è della Comunità Montana di Petrella Salto. La gestione da parte della comunità montana prevede l'utilizzo dello spazio per iniziative diversificate. Responsabile è il Sig.Palluzzi.";"spazio alternativo";"{""type"":""Point"",""coordinates"":[13.037404689681797,42.319672923022154]}";"13.0374046896818";"42.3196729230222"
"Palazzo Rospigliosi - Salone delle Bandiere";"Zagarolo";"Roma";"Piazza Indipendenza";"00039";"1970";"buona";"parziale";"pubblica";"comunale";"200";"cotto";"legno con moquette";"59,5";"profondità mt. 9; larghezza mt. 6,50";"no";"5";"no";"5,5";;"agevole";;"Nell'anno 1100, nel luogo dove ora sorge il Palazzo, sicuramente era presente un castello. Nel 1569 la terra di Zagarolo divenne un ducato e nel 1586 furono costruite le due ali. Nel 1591 nel palazzo si riunì un consiglio di cardinali teologi per la revi";"spazio alternativo";"{""type"":""Point"",""coordinates"":[12.823227357655311,41.845716504788484]}";"12.8232273576553";"41.8457165047885"
"Piccolo Teatro";"Alatri";"Frosinone";"Via Colleprata, 14";"03011";"1983";"buona";"parziale";"privata";"privata";"75";"plastica";"legno";"34,8";"profondità mt. 5,80; larghezza mt. 6";"si";"30";"manuale";"6";"5";"agevole";"12";"Si tratta di un piccolo teatro a cavea con poltroncine di plastica. Saltuariamente vengono allestiti spettacoli teatrali. La proprietà dello stabile è di Domenico Sisto Paoli, la gestione è affidata alla compagnia ""Teatro dei Viandanti. Il direttore arti";"tradizionale";"{""type"":""Point"",""coordinates"":[13.343013091216575,41.729425328903837]}";"13.3430130912166";"41.7294253289038"
"Ridotto del Teatro Comunale";"Latina";"Latina";"Viale Umberto I, 33";"04100";"1980";"ristrutturato";"si";"pubblica";"comunale";"352";"parquet";"legno";"60";"profondità mt. 6; larghezza mt. 10";"si";"7";"manuale";"0";"4";"agevole";"80";"Il Ridotto del Teatro Comunale è una sala creata ex novo negli anni '80 in seno al Palazzo della Cultura. La sua ideazione corrisponde alla volontà del progettista di creare nel Palazzo più strutture che potessero garantire l'assoluta polifunzionalità de";"tradizionale";"{""type"":""Point"",""coordinates"":[12.870908473552262,41.463177862583407]}";"12.8709084735523";"41.4631778625834"
"Sala Aurora";"Velletri";"Roma";"Piazza Clemente Micara";"00049";"1955";"ristrutturato";"si";"privata";"privata";"214";"mattonato";"legno";"36,4";"profondità mt. 5,60; larghezza mt. 6,50";"no";"0";"manuale";"0";"2";;"20";"Il Teatro è ristrutturato, ad occuparsi della programmazione una commissione costituita da Fausto Ercolani, Guglielmo Bongianni, Antonio Gallè. E' di proprietà della Diocesi di Velletri - Segni.";"tradizionale";"{""type"":""Point"",""coordinates"":[12.801873004367701,41.667159613000564]}";"12.8018730043677";"41.6671596130006"
"Sala Convegni";"Ciampino";"Roma";"Via del Lavoro 59";"00043";"1920";"ristrutturato";"parziale";"pubblica";"comunale";"200";"piastrelle";"moquette";"66";"profondità mt. 6; larghezza mt. 11";"no";"7";"manuale";"11";"1";"agevole";"39";"La sala è ricavata da una distilleria degli anni Venti, poi ristrutturata e adattata a sala conferenze. Dotata di un palcoscenico  a praticabile, la sala è utilizzata anche per spettacoli.";"spazio alternativo";"{""type"":""Point"",""coordinates"":[12.614451534055036,41.789004178392055]}";"12.614451534055";"41.7890041783921"
"Sala Don Minozzi";"Amatrice";"Rieti";"Viale Padre Minozzi 7";"02012";"1946";"da ristrutturare";"no";"privata";"privata";"400";"gres";"legno";"100";"profondità mt. 10; larghezza mt. 10";"si";"10";"manuale";"6";"8";"agevole";;"Lo spazio, di proprietà dell'Opera Nazionale Mezzogiorno d'Italia, è attualmente inattivo, perchè necessita di opere di ristrutturazione. Deve essere rifatto l'impianto elettrico e tessuti e tendaggi vanno sostituiti con materiale ignifugo.";"tradizionale";"{""type"":""Point"",""coordinates"":[13.270779539877493,42.631089093275975]}";"13.2707795398775";"42.631089093276"
"Sala Farnese";"Poggio Mirteto";"Rieti";"Piazza Garibaldi";"02047";"1300";"da ristrutturare";"parziale";"pubblica";"comunale";"100";"cotto";"linoleum e cemento";"24";"profondità mt. 4; larghezza mt. 6";"no";"20";"no";"5";"1";"agevole";"6";"La sala era precedentemente una chiesa poi sconsacrata.";"spazio alternativo";"{""type"":""Point"",""coordinates"":[12.682023957698901,42.270179510814458]}";"12.6820239576989";"42.2701795108145"
"Sala Italia";"Genazzano";"Roma";"Piazza San Nicola";"00030";"1904";"in ristrutturazione";"no";"pubblica";"comunale";"100";"marmo";"marmo";"42";"profondità mt. 6; larghezza mt. 7";"si";"9";"manuale";"7";"2";"agevole";"15";;"cinema - teatro";"{""type"":""Point"",""coordinates"":[12.974154199471744,41.821582289595426]}";"12.9741541994717";"41.8215822895954"
"Sala Oratorio S. Cuore di Gesù";"Allumiere";"Roma";"Piazza Teodolfo Mertel, 1";"00051";"1972";"buona";"parziale";"privata";"privata";"200";"cemento";"legno poggiato su cemento armato";"40";"profondità mt. 5; larghezza mt. 8";"no";"8";"manuale";"6";"2";"agevole";"18";"L'Oratorio viene utilizzato secondo le necessità della Parrocchia S. Assunta in cielo, che ne ha la proprietà e la gestione.";"spazio alternativo";"{""type"":""Point"",""coordinates"":[11.886357490195939,42.168647321438904]}";"11.8863574901959";"42.1686473214389"
"Sala Polifunzionale";"Nazzano";"Roma";"Via Mazzini, 9";"00060";"XIII secolo";"ristrutturato";"si";"pubblica";"comunale";"80";"cementato";"legno";"48";"profondità mt. 6; larghezza mt. 8";"si";"0";"no";"6";"4";"agevole";"10";"Anticamente lo spazio era il granaio del castello. La ristrutturazione iniziò negli anni '70. Recentemente è stata completata l'opera di ristrutturazione con l'annessione del Museo del Fiume che fa parte del Polo Scientifico Museale.";"spazio alternativo";"{""type"":""Point"",""coordinates"":[12.594786095162117,42.22623324068352]}";"12.5947860951621";"42.2262332406835"
"Sala polivalente Ex Chiesa di S. Agostino";"Antrodoco";"Rieti";"Piazza S. Agostino";"02013";"1200";"ristrutturato";"si";"pubblica";"comunale";"130";"cotto";"legno";"96";"profondità mt. 8; larghezza mt. 12";"si";"0";"elettrico";"0";"1";"agevole";"15";;"spazio alternativo";"{""type"":""Point"",""coordinates"":[13.096987873023265,42.422293367718567]}";"13.0969878730233";"42.4222933677186"
"Scuderie Palazzo Farnese";"Caprarola";"Viterbo";"Via Regina Margherita, 2";"01032";"1585";"ristrutturato";"parziale";"pubblica";"comunale";"99";"cotto";"legno";"36";"profondità mt. 6; larghezza mt. 6";"si";"5,3";"manuale";"6";"2";"agevole";"20";"La proprietà è del Comune di Roma, la gestione del Comune di Caprarola.Le Scuderie sono state costruite su progetto del Vignola tra il 1570-1585. Imponente edificio adibito a stalle, rimessa per le carroze e fienile.  Nel periodo fascista furono adibite";"spazio alternativo";"{""type"":""Point"",""coordinates"":[12.223896729359325,42.33323882781972]}";"12.2238967293593";"42.3332388278197"
"Spazio teatrale Supercinema";"Tuscania";"Viterbo";"Via Garibaldi 1";"01017";"1930";"buona";"no";"privata";"privata";"100";;"legno";"99";"profondità mt. 11; larghezza mt. 9";;"0";;"0";"1";"agevole";"10";"Ristrutturato a fine anni '90. Recentemente è stato acquistato da un pittore che ne sta facendo un atelier.";"cinema - teatro";"{""type"":""Point"",""coordinates"":[11.887592300652503,42.438457020855523]}";"11.8875923006525";"42.4384570208555"
"Teatrino Comunale";"Labro";"Rieti";"Via S. Maria Maggiore";"02010";"1984";"ristrutturato";"parziale";"pubblica";"comunale";"100";"cotto";"legno";"25";"profondità mt. 5; larghezza mt. 5";"no";"2,5";"manuale";"3,5";"1";"disagevole";"15";"Il teatrino nasce da un progetto che prevedeva la trasformazione dello spazio composto dalla vecchia cappella quattrocentesca di San Pancrazio e la collegiata di Santa Maria Maggiore. Lungo la platea, formata da un piano inclinato, una controsoffittatur";"spazio alternativo";"{""type"":""Point"",""coordinates"":[12.800455016189757,42.528585125819646]}";"12.8004550161898";"42.5285851258196"
"Teatrino di Tata di Ovada";"Ladispoli";"Roma";"Via Glasgow, 32";"00055";"1988";"buona";"si";"privata";"privata";"60";"piastrelle";"moquette";"16";"profondità mt. 4; larghezza mt. 4";"si";"3,2";"manuale";"0";"2";"agevole";"3";"Lo spazio esercita esclusivamente un'attività per ragazzi, in particolare attraverso gli spettacoli del clown Tata di Ovada. Oltre alla sala, sono state approntate diverse costruzioni gonfiabili giganti, da utilizzare all'aperto per giochi e incontri con";"spazio alternativo";"{""type"":""Point"",""coordinates"":[12.104665957368395,41.956433992669041]}";"12.1046659573684";"41.956433992669"
"Teatro Alberini";"Orte";"Viterbo";"Via del Plebiscito";"01028";"1950";"ristrutturato";"parziale";"pubblica";"privata";"280";"mattonata";"legno";"108";"profondità mt. 9; larghezza mt. 12";"si";"8";"manuale";"12";"2";"agevole";"13";"Attualmente è utilizzato prevalentemente come cinema. L'intestazione dello spazio è riferito ad Alberini Filoteo, pioniere del cinema e inventore del chinematografo. La gestione è affidata  al signor Rodolfo Gioacchini.";"tradizionale";"{""type"":""Point"",""coordinates"":[12.384550798730084,42.472249975595282]}";"12.3845507987301";"42.4722499755953"
"Teatro Aleandri";"Monte S. Giovanni in Sabina";"Rieti";"Viale Regina Margherita, 2";"02040";"1980";"buona";"parziale";"pubblica";"comunale";"60";"monocottura";"legno";"24";"profondità mt. 4; larghezza mt. 6";"no";"5";"manuale";"3,5";"1";"agevole";"10";;"tradizionale";"{""type"":""Point"",""coordinates"":[12.778195688436048,42.331858163287606]}";"12.778195688436";"42.3318581632876"
"Teatro Archimimus";"Viterbo";"Viterbo";"Via S.Pietro, 26";"01100";"Medioevo";"buona";"si";"privata";"privata";"50";"cotto";"legno";"30";"profondità mt. 6; larghezza mt. 5";"no";"3";"manuale";"0";"3";"agevole";"6";"Il teatro è localizzato all'interno del quartiere medievale della città. La struttura scenica è ricavata da 3 archi naturali in peperino, ci sono delle panche mobili che permettono un differenziato utilizzo dello spazio. Teatro dal 1996 è sede di un labo";"spazio alternativo";"{""type"":""Point"",""coordinates"":[12.127964124724214,42.442716655793959]}";"12.1279641247242";"42.442716655794"
"Teatro Boni";"Acquapendente";"Viterbo";"Piazza della Costituente";"01021";"1802";"in ristrutturazione";"no";"pubblica";"comunale";"250";;;"0";;;"0";;"0";;;;"L'apertura del teatro è prevista per l'inizio del 2004.";"tradizionale";"{""type"":""Point"",""coordinates"":[11.89420057186905,42.748185221923592]}";"11.8942005718691";"42.7481852219236"
"Teatro Caesar";"San Vito Romano";"Roma";"Via Giovanni XXIII";"00030";"1970";"buona";"parziale";"pubblica";"comunale";"340";"marmo";"legno";"97,5";"profondità mt. 7,50; larghezza mt. 13";"si";"8";"manuale";"9";"4";"agevole";"25";;"tradizionale";"{""type"":""Point"",""coordinates"":[12.981070409037542,41.888303654044869]}";"12.9810704090375";"41.8883036540449"
"Teatro Capocroce";"Frascati";"Roma";"Piazza Capocroce, 3";"00044";"1956";"ristrutturato";"si";"privata";"privata";"276";"moquette";"legno";"60";"profondità mt. 6; larghezza mt. 10";"si";"6";"elettrico";"8";"4";"disagevole";"15";"Il teatro, di proprietà della Parrocchia Capocroce,  ha visto gli esordi del grande attore Tino Buazzelli, che era nato appunto a Frascati. Dopo qualche anno di inattività, lo spazio è stato ristrutturato completamente tre anni fa ed è stato affidato in";"tradizionale";"{""type"":""Point"",""coordinates"":[12.663429374222693,41.836791959975017]}";"12.6634293742227";"41.836791959975"
"Teatro Comunale";"Alvito";"Frosinone";"Piazza G. Marconi, 3";"03041";"1600";"ristrutturato";"parziale";"pubblica";"comunale";"150";"legno";"legno";"30";"profondità mt. 5; larghezza mt. 6";"no";"0";"manuale";"0";"2";"disagevole";;"Il teatro è all'interno del secentesco Palazzo Gallio. La ristrutturazione dello spazio è avvenuta dopo il sisma del 1984. Si stanno effettuando alcuni lavori di completamento che prevedono, tra l'altro, la costruzione del graticcio e la sostituzione del";"tradizionale";"{""type"":""Point"",""coordinates"":[13.751380661105348,41.703033724950295]}";"13.7513806611053";"41.7030337249503"
"Teatro Comunale";"Bagnoregio";"Viterbo";"Via Matteotti 2";"01022";"1942";"ristrutturato";"parziale";"pubblica";"comunale";"200";"monocottura";"pvc";"48";"profondità mt. 6; larghezza mt. 8";"no";"4";"manuale";"6";"1";"agevole";"10";"Era una sala  cinematografica che venne poi trasformata nel 1990 in sala nella quale  hanno luogo manifestazioni culturali.";"spazio alternativo";"{""type"":""Point"",""coordinates"":[12.070885731635013,42.618481265148354]}";"12.070885731635";"42.6184812651484"
"Teatro Comunale";"Campodimele";"Latina";"Via Roma";"04020";"1994";"da ristrutturare";"si";"pubblica";"comunale";"800";"travertino";"marmo";"0";;;"0";;"0";;"agevole";;"Lo spazio presenta una struttura ad anfiteatro. Sono in corso lavori di completamento.";"all'aperto";"{""type"":""Point"",""coordinates"":[13.529372418228988,41.395471346968101]}";"13.529372418229";"41.3954713469681"
"Teatro Comunale";"Canale Monterano";"Roma";"Via della scuola materna";"00060";"1995";"ristrutturato";"parziale";"pubblica";"comunale";"300";"legno";"legno";"48";"profondità mt. 6; larghezza mt. 8";"si";"5,5";"manuale";"6";;"disagevole";"25";"Lo spazio è nuovissimo. Il Comune ha effettuato i lavori necessari per attivare la sala.";"tradizionale";"{""type"":""Point"",""coordinates"":[12.08787081341349,42.144498344365545]}";"12.0878708134135";"42.1444983443655"
"Teatro Comunale";"Cori";"Latina";"Via della Libertà, 3";"04010";"1800";"da ristrutturare";"parziale";"pubblica";"comunale";"200";"marmo";"legno";"44";"irregolari";;"0";"manuale";"0";;"agevole";"15";"La realizzazione del teatro è avvenuta all'interno del complesso comunale risalente  ai primi dell'800.";"tradizionale";"{""type"":""Point"",""coordinates"":[12.917737142070333,41.649275368427951]}";"12.9177371420703";"41.649275368428"
"Teatro Comunale";"Fiuggi";"Frosinone";"Piazza Trento e Trieste";"03014";"1910";"buona";"si";"pubblica";"privata";"266";"parquet";"legno";"64";"profondità mt. 8; larghezza mt. 8";"si";"6";"elettrico";"7";"7";"agevole";"100";"Il Teatro Comunale ha accolto in passato una delle residenze del Lazio, gestita dall'associazione Residenza Fiuggiteatro. Attualmente è direttore artistico Pippo Franco.";"tradizionale";"{""type"":""Point"",""coordinates"":[13.225627730447094,41.797498874076403]}";"13.2256277304471";"41.7974988740764"
"Teatro Comunale";"Forano";"Rieti";"Via del Passeggio, 9";"02044";"1800";"buona";"si";"pubblica";"comunale";"90";"mattonato";"legno";"0";;"no";"0";"manuale";"0";"1";"disagevole";;"L'edificio, al cui interno è inserito il teatro, apparteneva all'ex Opera Pia Giuliana e comprende altri spazi destinati a differenziate attività culturali.";"tradizionale";"{""type"":""Point"",""coordinates"":[12.595638610735687,42.3004204968843]}";"12.5956386107357";"42.3004204968843"
"Teatro Comunale";"Guidonia Montecelio";"Roma";"Via del Pozzo";"00011";"2001";"ristrutturato";"no";"pubblica";"comunale";"120";"cotto";"cemento";"30";"profondità mt. 5; larghezza mt. 6";"no";"5";"manuale";"0";"5";"disagevole";"60";"Lo spazio, ricavato da un mattatoio, è stato appena ristrutturato. Sarà inaugurato nel giugno 2002.";"spazio alternativo";"{""type"":""Point"",""coordinates"":[12.720552955950172,41.999600993896685]}";"12.7205529559502";"41.9996009938967"
"Teatro Comunale";"Monte S. Giovanni campano";"Frosinone";"Piazza G. Marconi";"30025";"1200 circa";"ristrutturato";"si";"pubblica";"comunale";"72";"gres porcellanato";"legno";"27,75";"profondità mt. 3,70; larghezza mt. 7,50";"si";"0";"manuale";"0";"1";"agevole";"20";"Il teatro è inserito nello stesso edificio dove ha sede il Palazzo comunale.";"tradizionale";"{""type"":""Point"",""coordinates"":[13.516566971986032,41.640238980567958]}";"13.516566971986";"41.640238980568"
"Teatro Comunale";"Morlupo";"Roma";"Via del Mattatoio";"00067";"1987";"in ristrutturazione";"si";"pubblica";"comunale";"122";"moquette";"legno";"33";"profondità mt. 5,50; larghezza mt. 6";"si";"8";"no";"6";"4";"agevole";"16";"Il Comunale è stato creato dall'ex-mattatoio, riadattato nel 1987.";"spazio alternativo";"{""type"":""Point"",""coordinates"":[12.506436644269542,42.150460328874253]}";"12.5064366442695";"42.1504603288743"
"Teatro Comunale";"Vallerano";"Viterbo";"Piazza della Repubblica";"01030";"1920";"buona";"si";"pubblica";"comunale";"99";"gres";"legno";"39";"profondità mt. 6.5; larghezza mt. 6";"no";"0";"manuale";"0";;"agevole";;"Ristrutturato nel 1985.";"tradizionale";"{""type"":""Point"",""coordinates"":[12.263414167878565,42.370851249467727]}";"12.2634141678786";"42.3708512494677"
"Teatro Comunale";"Velletri";"Roma";"Via Turati";"00049";"2001";"buona";"si";"pubblica";"comunale";"530";;;"0";;;"0";;"0";;;;"Lo spazio è di recentissima costruzione e comprendente un'avanguardistica torre scenica.";"tradizionale";"{""type"":""Point"",""coordinates"":[12.802625384734226,41.691984009291481]}";"12.8026253847342";"41.6919840092915"
"Teatro Comunale - Palazzo della Cultura";"Latina";"Latina";"Viale Umberto I, 33";"04100";"1980";"ristrutturato";"si";"pubblica";"comunale";"770";"parquet";"legno";"140,6";"profondità mt. 9,50; larghezza mt. 14,80";"si";"21";"elettrico";"11,2";"10";"agevole";"100";"Il Teatro Comunale di Latina, sito nel Palazzo della Cultura, rappresenta nel Lazio un singolare esempio di struttura polifunzionale imponente, che ha impegnato per un decennio il suo progettista, l'architetto Adolfo Antonelli e l'Amministrazione Comunal";"tradizionale";"{""type"":""Point"",""coordinates"":[12.934356663648918,41.457649197694714]}";"12.9343566636489";"41.4576491976947"
"Teatro Comunale Alba Radians";"Albano Laziale";"Roma";"Borgo Garibaldi, 8";"00041";"1953";"da ristrutturare";"no";"pubblica";"comunale";"642";"linoleum";"legno";"120";"profondità mt. 10; larghezza mt. 12";"si";"12";"manuale";"13";"3";"agevole";"10";"Il Teatro è stato acquistato nel 1997 dal Comune con l'intenzione di riattivarlo, ma attualmente necessita di ristrutturazione";"tradizionale";"{""type"":""Point"",""coordinates"":[12.643483772849187,41.72499929700794]}";"12.6434837728492";"41.7249992970079"
"Teatro Comunale Ignazio Gennari";"Casperia";"Rieti";"Via Sabo";"02041";"1946";"ristrutturato";"parziale";"pubblica";"comunale";"75";"monocottura";"legno";"20";"profondità mt. 4; larghezza mt. 5";"no";"6";"manuale";"5";"2";"disagevole";"6";"Realizzato nell'immediato dopoguerra e restaurato nel 1997 con apertura al pubblico nel 1998, il Teatro comunale è stato intitolato a Ignazio Gennari, unico poeta dialettale asprese, nato nel 1886.Il Teatro è ubicato in pieno centro storico ed è raggiun";"tradizionale";"{""type"":""Point"",""coordinates"":[12.668903264503964,42.345870702726884]}";"12.668903264504";"42.3458707027269"
"Teatro Comunale Il Rivellino";"Tuscania";"Viterbo";"Largo del Teatro";"01017";"Fine secolo XVIII";"ristrutturato";"si";"pubblica";"privata";"360";"parquet";"tavolato";"73,5";"profondità mt. 9,30; larghezza mt. 7,90";"si";"0";"manuale";"0";"4";"disagevole";"200";"Il luogo dove sorge questo spazio è stato storicamente molto importante per la città di Tuscania. Vi sorgeva infatti il palazzo del nobile Paolo Romei che, in seguito, fu destinato a residenza del podestà. Verso la metà del XVIII secolo fu trasformato in";"tradizionale";"{""type"":""Point"",""coordinates"":[11.857110783739024,42.436491973112339]}";"11.857110783739";"42.4364919731123"
"Teatro Comunale Jean Pierre Velly";"Formello";"Roma";"Viale Regina Margherita, 6";"00060";"1964";"ristrutturato";"si";"pubblica";"comunale";"200";"monocottura";"legno";"84";"profondità mt. 6; larghezza mt. 14";"si";"0";"manuale";"0";;"agevole";"50";"Lo spazio è stato ristrutturato nel 1996.";"tradizionale";"{""type"":""Point"",""coordinates"":[12.402558837350755,42.085379470586069]}";"12.4025588373508";"42.0853794705861"
"Teatro Comunale Luigi Cianni";"Castelnuovo di Farfa";"Rieti";"Via Roma, 44";"02031";"1992";"ristrutturato";"si";"pubblica";"comunale";"100";"marmo";"legno";"21";"profondità mt. 3,50; larghezza mt. 6";"si";"6";"manuale";"5,5";"2";"agevole";"15";"Precedentemente lo spazio era una sala polivalente. Nel 1992 è stata ristrutturata e resa teatro.";"tradizionale";"{""type"":""Point"",""coordinates"":[12.748026090619447,42.238666164115948]}";"12.7480260906194";"42.2386661641159"
"Teatro Comunale Rotonda";"Monteromano";"Viterbo";"Piazza XXIV maggio";"01010";"1950";"ristrutturato";"si";"pubblica";"comunale";"300";"travertino con passaggi in moquette";"legno";"80";"profondità mt. 8; larghezza mt. 10";"si";"0";"manuale";"8,3";;"agevole";;"Ristrutturato nel 2000. Originariamente concepito come cinema-teatro ora, dopo la ristrutturazione, solo teatro e sala polivalente.";"tradizionale";"{""type"":""Point"",""coordinates"":[11.896493190643698,42.285033574477374]}";"11.8964931906437";"42.2850335744774"
"Teatro Dafne";"Roma - Ostia Lido";"Roma";"Via Mar Rosso, 331";"00119";"1993";"ristrutturato";"si";"privata";"privata";"80";"linoleum";"legno";"31,9";"profondità mt. 5,50; larghezza mt. 5,80";"si";"5,8";"elettrico";"5,5";"2";"agevole";"10";"Il Teatro Dafne è gestito dal 1993 dalla Giocosa Accademia fondata dagli attuali direttori, Gianni Pontillo e Antonia Di Francesco, che da quell'anno hanno ottenuto una sede stabile in cui continuare un'attività che va avanti dal 1987. É l'unico teatro d";"tradizionale";"{""type"":""Point"",""coordinates"":[12.30465,41.73126999999999]}";"12.30465";"41.73126999999999"
"Teatro dei Calanchi";"Lubriano";"Viterbo";"Via Roma 39";"01020";"1695";"buona";"si";"pubblica";"privata";"90";"monocottura";"linoleum";"30";"profondità mt. 5; larghezza mt. 6";"si";"3,5";"manuale";"0";"2";"agevole";"6";"Lo spazio sorge in un'antica chiesa sconsacrata, dedicata a Sant'Antonio Abate e costruita con il materiale di risulta della demolizione della piccola chiesa Santa Maria extramoenia. Già negli anni Venti la chiesa era stata sconsacrata e trasformata in u";"spazio alternativo";"{""type"":""Point"",""coordinates"":[12.104061740073684,42.652148436680605]}";"12.1040617400737";"42.6521484366806"
"Teatro del Combattente";"Collevecchio";"Rieti";"Via dello Statuto";"02042";"1810";"da ristrutturare";"si";"pubblica";"comunale";"150";;;"0";;"no";"0";"manuale";"0";"2";"agevole";"220";"Le mura perimetrali sono del '500.";"tradizionale";"{""type"":""Point"",""coordinates"":[12.551494252117044,42.335782709553669]}";"12.551494252117";"42.3357827095537"
"Teatro dell'Unione";"Viterbo";"Viterbo";"Piazza Giuseppe Verdi";"01100";"1846";"buona";"si";"pubblica";"comunale";"670";"parquet";"legno";"60";"profondità mt. 12 ; larghezza mt. 15";"si";"15";"manuale";"9";"16";"agevole";"90";"Il teatro fu edificato nel 1846 per volontà di un gruppo di cittadini viterbesi che si misero in società, la cosiddetta ""Società dei palchettisti"" dalla cui unione il teatro prende il nome. L'iniziativa fu assunta per la decadenza a cui era ormai giunto";"tradizionale";"{""type"":""Point"",""coordinates"":[12.085628143792057,42.440439741491566]}";"12.0856281437921";"42.4404397414916"
"Teatro delle Fonti";"Fiuggi";"Frosinone";"Viale Anticolana, 1";"03014";"1960";"buona";"parziale";"privata";"privata";"490";"maiolica";"legno";"96";"profondità mt. 4; larghezza mt. 24";"no";"6";"no";"0";"3";"agevole";;"il Teatro delle Fonti, di proprietà della Società Acqua e Terme di Fiuggi, che ne è anche gestore, viene utilizzato prevalentemente come sala congressi, e per quest'uso è ben attrezzato: sono presenti una cabina di proiezione, una saletta con servizio di";"tradizionale";"{""type"":""Point"",""coordinates"":[13.2109369995403,41.818783597568462]}";"13.2109369995403";"41.8187835975685"
"Teatro di Terra";"Velletri";"Roma";"Via S. Crispino 18";"00049";"1500";"da ristrutturare";"parziale";"privata";"privata";"150";"legno";"legno";"42";"profondità mt. 6; larghezza mt. 7";"si";"4,4";"no";"7";;"agevole";"15";"Il Teatro offre uno spazio per le rappresentazioni che è di volta in volta componibile in base alle esigenze della compagnia. E' di proprietà ed è gestito dalla Associazione Culturale Artemista.";"spazio alternativo";"{""type"":""Point"",""coordinates"":[12.761891435093437,41.690983991989093]}";"12.7618914350934";"41.6909839919891"
"Teatro Don Bosco";"Latina";"Latina";"Via Sisto V";"04100";"1933";"buona";"parziale";"privata";"privata";"430";"linoleum";"legno";"49";"profondità mt. 7; larghezza mt. 7";"si";"5";"elettrico";"0";"4";"agevole";"35";"Il Teatro è stato restaurato nel 1988 in occasione del centenario della morte di don Giovanni Bosco, è di proprietà della Comunità Salesiana.";"tradizionale";"{""type"":""Point"",""coordinates"":[12.90178475736311,41.49300281386396]}";"12.9017847573631";"41.493002813864"
"Teatro Eliseo";"Montefiascone";"Viterbo";"Corso Cavour 55";"01027";"1947";"in ristrutturazione";"no";"privata";"privata";"500";"mattonato";"muratura";"30";"profondità mt. 3; larghezza mt. 10";"si";"8";"no";"0";;"agevole";;"É attualmente chiuso per ristrutturazione. Il proprietario è il signor Germano Bartolozzi.";"tradizionale";"{""type"":""Point"",""coordinates"":[12.029793669850253,42.559920731824491]}";"12.0297936698503";"42.5599207318245"
"Teatro Flavio Vespasiano";"Rieti";"Rieti";"Via Garibaldi";"02100";"1853";"buona";"si";"pubblica";"comunale";"480";"parquet";"legno";"255";"profondità mt. 15; larghezza mt. 17";"si";"17";"elettrico";"12";"6";"agevole";"70";"Direttore artistico è Piero Fascioli. Lo scarico delle scene avviene tramite una buca che accede al palcoscenico.";"tradizionale";"{""type"":""Point"",""coordinates"":[12.860328849421824,42.431293338179195]}";"12.8603288494218";"42.4312933381792"
"Teatro in S. Francesco";"Bolsena";"Viterbo";"Piazza Matteotti";"01023";"XIII secolo";"in ristrutturazione";"parziale";"pubblica";"comunale";"300";"cotto";"legno";"100";"profondità mt. 10; larghezza mt. 10";"no";"0";"manuale";"0";"4";"agevole";;"Era una chiesa che è stata sconsacrata due anni fa.";"spazio alternativo";"{""type"":""Point"",""coordinates"":[11.960788340899622,42.635276905372102]}";"11.9607883408996";"42.6352769053721"
"Teatro Lilliput";"Nettuno";"Roma";"Via delle Grugnole, 13";"00048";"1994";"buona";"si";"privata";"privata";"750";"gomma";"legno";"80";"profondità mt. 8; larghezza mt. 10";"no";"4";"manuale";"10";"4";"agevole";"18";"Lo spazio è ricavato da un ex capannone industriale in cui l'Associazione Stravagario Maschere ha creato un circolo privato che gestisce e organizza attività per ragazzi. I posti sono distribuiti in tre sale da 250 posti l'una. Nel progetto del Centro Li";"spazio alternativo";"{""type"":""Point"",""coordinates"":[12.702186790532382,41.463006075064591]}";"12.7021867905324";"41.4630060750646"
"Teatro Manlio";"Magliano Sabina";"Rieti";"Via Roma";"02046";"1998";"buona";"si";"pubblica";"comunale";"162";"impiallacciatura legno";"legno";"46,8";"profondità mt. 6,50; larghezza mt. 7,20";"si";"4,2";"manuale";"7";"3";"agevole";"25";"Il Teatro Manlio, ristrutturato e inaugurato nel 1998, è stato messo a disposizione, nello stesso anno, di una delle tre residenze operanti nella Regione Lazio, l'Associazione Culturale Magliano Sabina Teatro. Fondata dalla compagnia teatrale Quellichere";"tradizionale";"{""type"":""Point"",""coordinates"":[12.491249182949682,42.36648146714672]}";"12.4912491829497";"42.3664814671467"
"Teatro napoleonico";"Canino";"Viterbo";;"01011";;"ristrutturato";;"pubblica";"comunale";;;;"0";;;"0";;"0";;;;;"tradizionale";"{""type"":""Point"",""coordinates"":[11.697481543652618,42.466760949851725]}";"11.6974815436526";"42.4667609498517"
"Teatro Nazionale";"Nettuno";"Roma";"Piazza IX settembre, 12";"00048";"1960";"buona";"parziale";"privata";"privata";"500";"legno";"legno";"69";"profondità mt. 6; larghezza mt. 11,50";"si";"5";"manuale";"9";"1";"agevole";"3";"Il Comune affitta lo spazio di volta in volta per l'allestimento di spettacoli teatrali. Come camerini vengono utilizzati spazi sottostanti il palcoscenico. Attualmente il responsabile del teatro è Cesare Leoni.";"tradizionale";"{""type"":""Point"",""coordinates"":[12.669598401571715,41.483186495904647]}";"12.6695984015717";"41.4831864959046"
"Teatro Paladino";"Rignano Flaminio";" Roma";"Via San Rocco";"00068";"1996";"buona";"si";"pubblica";"comunale";"260";"granito";"parquet";"4420";"profondità mt. 5,20; larghezza mt. 8,50";"si";"3,3";"elettrico";"8,3";"4";"agevole";"15";"Durante i mesi invernali il Teatro presenta una programmazione di spettacoli e concerti piuttosto ricca, raccogliendo consensi da parte della popolazione..";"tradizionale";"{""type"":""Point"",""coordinates"":[12.481036416196565,42.213549362776725]}";"12.4810364161966";"42.2135493627767"
"Teatro Potlach";"Fara in Sabina";"Rieti";"Via S. Maria in Castello, 10";"02032";"1500";"da ristrutturare";"si";"pubblica";"privata";"99";"parquet";"gradinate mobili";"126";"profondità mt. 7; larghezza mt. 18";;"0";;"0";"5";"agevole";"20";"Lo spazio è gestito dall'Associazione Teatro Potlach. Si tratta di un ex convento, confiscato dopo la seconda guerra mondiale. Attualmente solo una parte è ancora utilizzata dalle monahe di clausura. Oltre all'attività teatrale, che vi si svolge dal 1970";"spazio alternativo";"{""type"":""Point"",""coordinates"":[12.703969294132724,42.194247752265561]}";"12.7039692941327";"42.1942477522656"
"Teatro Principe";"Palestrina";"Roma";"Corso Pierluigi da Palestrina, 60";"00036";"1954";"da ristrutturare";"no";"privata";"privata";"550";"marmo";"legno";"55";"profondità mt. 5; larghezza mt. 11";"si";"6";"manuale";"11";"3";"agevole";"12";"É inattivo dall'aprile del 1999 e necessita di restauri. Esiste una trattativa perchè lo spazio possa essere acquistato dal Comune, che ne prevede la trasformazione in auditorium.";"tradizionale";"{""type"":""Point"",""coordinates"":[12.879307589946706,41.836288097583427]}";"12.8793075899467";"41.8362880975834"
"Teatro Reali";"Priverno";"Latina";"Via San Giovanni";"04015";"1950";"ristrutturato";"si";"pubblica";"comunale";"298";"moquette antistatica";"legno";"53,3";"profondità mt. 6,5; larghezza mt. 8,20";"si";"4";"manuale";"2,3";"3";"agevole";;"L'immobile è stato acquistato nei primi anni '90 con i fondi della legge 64/86, i lavori di restauro sono stati effettuati con i fondi comunali e con un contributo della Regione Lazio. La restaurazione del Teatro Reali è appena stata completata. Lo stabi";"tradizionale";"{""type"":""Point"",""coordinates"":[13.14852081598513,41.485800718342396]}";"13.1485208159851";"41.4858007183424"
"Teatro Romano";"Cassino";"Frosinone";"Via Monte Cassino - Località Crocefisso";"03043";"età augustea";"buona";"parziale";"pubblica";"comunale";;;;"0";;;"0";;"0";;;;"Edificato all'interno della città muraria, il teatro ne occupa l'angolo nord-occidentale. Vi si accede attraverso una stradina che ricalca un tracciato antico collegato con la via Latina. É di età augustea (27 a.C. - 14 d.C.) e presenta strutture in opus";"all'aperto";"{""type"":""Point"",""coordinates"":[13.814933297345041,41.509350882498772]}";"13.814933297345";"41.5093508824988"
"Teatro Romano";"Minturno";"Latina";"Via Appia km. 156 - c/o Comprensorio archeologico - Marina di Minturno";"04020";"I sec. d. C.";"buona";"parziale";"pubblica";"pubblica";"2600";;;"140";"profondità mt. 7; larghezza mt. 20";;"0";;"0";;"agevole";"25";"Costruito alla fine del regno di Augusto o all'inizio di quello di Tiberio, il Teatro sorge nell'area archeologica dell'antica Minturnae ed è la sede, da 38 stagioni, di un ciclo estivo di rappresentazioni teatrali. É dotato di un palcoscenico in legno,";"all'aperto";"{""type"":""Point"",""coordinates"":[13.746812375026263,41.268438738683173]}";"13.7468123750263";"41.2684387386832"
"Teatro Romano";"Roma - Ostia antica";"Roma";"Via dei Romagnoli 717";"00119";"epoca augustea";;"parziale";"pubblica";"Teatro di Roma";"2700";;;"0";;;"0";;"0";;;;"La costruzione originaria del Teatro romano di Ostia antica risale ad epoca augustea. Un'iscrizione ne attribuisce la paternità ad Agrippa, genero dell'imperatore, morto nel 12 a.C. L'edificio aveva alle origini una capienza di circa 3.000 posti, che div";"all'aperto";"{""type"":""Point"",""coordinates"":[12.3004926,41.7592052]}";"12.3004926";"41.7592052"
"Teatro S. Antonio";"Scandriglia";"Rieti";"Piazza Umberto I, 2";"02038";"Fine '800";"da ristrutturare";"parziale";"pubblica";"comunale";"120";"monocottura";"legno";"24";"profondità mt. 4; larghezza mt. 6";"si";"6";"manuale";"0";"2";"agevole";"10";;"tradizionale";"{""type"":""Point"",""coordinates"":[12.843166609469115,42.166789170131885]}";"12.8431666094691";"42.1667891701319"
"Teatro S.Leonardo";"Viterbo";"Viterbo";"Via Cavour,9";"01100";"1950 (su struttura del 1636)";"ristrutturato";"si";"privata";"privata";"357";"moquette";"legno";"80";"profondità mt. 8; larghezza mt.10";"si";"9";"manuale";"750";"5";"agevole";"18";"Il Teatro San Leonardo è stato inaugurato a ottobre del 1991. Era un antico convento ed è ancora di proprietà della Curia. É stato costruito sulla Chiesa di San Leonardo risalente al 1636, poi distrutta e trasformata negli anni '50 in cinema-teatro. Dal";"tradizionale";"{""type"":""Point"",""coordinates"":[12.065105597241587,42.418027157680392]}";"12.0651055972416";"42.4180271576804"
"Teatro Sacro Cuore";"Grottaferrata";"Roma";"Via Garibaldi, 15";"00046";"1940";"buona";"parziale";"pubblica";"comunale";"100";"marmittone";"materiale plasticato antiscivolo";"24";"profondità mt. 6; larghezza mt. 4";"si";"0";"manuale";"0";"1";"agevole";;;"tradizionale";"{""type"":""Point"",""coordinates"":[12.667482078945996,41.7942530130302]}";"12.667482078946";"41.7942530130302"
"Teatro Santa Lucia";"Fiamignano";"Rieti";"Via delle Fornaci";"02023";"1964";"buona";"parziale";"pubblica";"comunale";"110";"granito";"granito";"30";"profondità mt. 3; larghezza mt. 10";"no";"2,7";"manuale";"10";"2";"agevole";"4";;"spazio alternativo";"{""type"":""Point"",""coordinates"":[13.154721524022477,42.272273168605743]}";"13.1547215240225";"42.2722731686057"
"Teatro Tevere";"Castiglione in Teverina";"Viterbo";;"01024";"Fine anni '60";"buona";"parziale";"pubblica";"comunale";"263";;;"31,5";"profondità mt. 3,50; larghezza mt. 9";"no";"6,5";"no";"0";"2";;"10";"L'attuale gestore è Stefano Perquoti.";"tradizionale";"{""type"":""Point"",""coordinates"":[12.173853836907446,42.658421713026343]}";"12.1738538369074";"42.6584217130263"
"Teatro Traiano";"Civitavecchia";"Roma";"Corso Centocelle, 1";"00053";"1844";"ristrutturato";"si";"pubblica";"comunale";"692";"moquette";"legno con cassa armonica";"150";"profondità mt. 10,40; larghezza mt. 14,50 possibilità di ampliare il proscenio raggiungendo una profondità di mt. 13,60.";"si";"16";"elettrico";"13";"5";"agevole";"600";"Il Teatro Traiano, di antica costruzione (l'inaugurazione risale al 1844), ha accompagnato da sempre la vita e la crescita della città di Civitavecchia. Ha ospitato al suo interno la nascita di eventi storici come la Repubblica romana. Il 2 ottobre 1870";"tradizionale";"{""type"":""Point"",""coordinates"":[11.790811570696611,42.116860116498749]}";"11.7908115706966";"42.1168601164987"
"Teatro Traiano";"Terracina";"Latina";"Via Traiano, 16";"04019";;"buona";"si";"privata";"privata";"898";"marmo";"legno";"91";"profondità mt. 7; larghezza mt. 13";"si";"15";"elettrico";"10";"8";"agevole";"30";"Il Teatro Traiano organizza la stagione in collaborazione con il Comune e con ATCL";"tradizionale";"{""type"":""Point"",""coordinates"":[13.208478745098386,41.312104629215732]}";"13.2084787450984";"41.3121046292157"
"Villa Adele";"Anzio";"Roma";"Via Paolini, 1";"00042";"secolo XVII";"buona";"parziale";"pubblica";"comunale";"600";"marmo";"legno";"120";"profondità mt. 10; larghezza mt. 12";"no";"0";"no";"0";;"agevole";"30";"Lo spazio è all'aperto e viene perciò allestito esclusivamente nel periodo estivo. Per la programmazione estiva si costruisce ogni anno un palcoscenico. Un'associazione locale si occupa dell'organizzazione.";"all'aperto";"{""type"":""Point"",""coordinates"":[12.611514257017811,41.485761809300698]}";"12.6115142570178";"41.4857618093007"
"Villa Adriana";"Tivoli";"Roma";"Ponte Lucano";"00019";"118-138 d. C.";"buona";"parziale";"pubblica";"pubblica";;;;"0";;;"0";;"0";;;;"Villa Adriana, situata alle pendici di Tivoli su un pianoro tufaceo nei pressi di Ponte Lucano, dove la via Tiburtina attraversa l'Aniene, è la grandiosa e fastosa residenza che l'Imperatore Adriano realizzò durante il suo regno. Il complesso, diversamen";"all'aperto";"{""type"":""Point"",""coordinates"":[12.769351958623588,41.946168365456977]}";"12.7693519586236";"41.946168365457"
"Villa Aldobrandini";"Frascati";"Roma";;"00044";"1500";"buona";"parziale";"pubblica";"comunale";"2000";;;"0";;;"0";;"0";;;;"Da alcuni anni le Ville Tuscolane sono sede del Festival delle Ville Tuscolane curato da ATCL. Villa Aldobrandini è una costruzione cinquecentesca che sorge dove nell'antichità sorgeva la villa degli Ottavi, in seguito degli Attilii. Inferiormente due ba";"spazio alternativo";"{""type"":""Point"",""coordinates"":[12.657594153990065,41.812137185899523]}";"12.6575941539901";"41.8121371858995"
"Villa Falconieri";"Frascati";"Roma";;"00044";"1500";"buona";"parziale";"pubblica";"comunale";"400";;;"0";;;"0";;"0";;;;"Da alcuni anni le Ville Tuscolane sono sede del Festival delle Ville Tuscolane curato da ATCL.Villa Falconieri si identifica con la più antica delle ville tuscolane, secondo dati storici. L'attuale denominazione modifica quella originaria di Villa Rufin";"spazio alternativo";"{""type"":""Point"",""coordinates"":[12.69325669476037,41.832037856249627]}";"12.6932566947604";"41.8320378562496"
"Villa Mondragone";"Monteporzio Catone";"Roma";;"00040";"1500";"buona";"parziale";"pubblica";"comunale";"400";;;"0";;;"0";;"0";;;;"Da alcuni anni le Ville Tuscolane sono sede del Festival delle Ville Tuscolane curato da ATCL.";"spazio alternativo";"{""type"":""Point"",""coordinates"":[12.714871174732894,41.810977848800526]}";"12.7148711747329";"41.8109778488005"
"Villa Torlonia";"Frascati";"Roma";;"00044";"1500";"buona";"parziale";"pubblica";"comunale";"1000";;;"0";;;"0";;"0";;;;"Da alcuni anni le Ville Tuscolane sono sede del Festival delle Ville Tuscolane curato da ATCL.     Nel 1563 l'Abbazia di Grottaferrata cede ad Annibal Caro un piccolo podere alle porte di Frascati, riservandosi un canone annuo di quattro scudi. Il Caro";"spazio alternativo";"{""type"":""Point"",""coordinates"":[12.681428687839396,41.816126126129731]}";"12.6814286878394";"41.8161261261297"
