Nome,Name,Descrizione breve,Short description,url,Citta,Indirizzo,Numero civico,latitude,longitude,Culto,Orario,Esercizio storico,Telefono,Da sapere,Good to know,Kind of religion,Phone number,Email,Come arrivare,How to arrive,Opening times,Accessibilita  ai disabili,Accessibility for the disabled
S. Donato a Lucardo,,Vicariato della Valdelsa Fiorentina. Don Marco Domenico Viola AMMINISTRATORE PARROCCHIALE 0571 669125,,,Certaldo,Via San Donato,219,43.593690,11.114330,Cattolico,"Domenicali e festive    07:15 - S. Donato a Lucardo (Fiano), 08:30 - Pieve di S. Lazzaro a Lucardo, 10:15 - S. Donato a Lucardo (Fiano), 11:30 - Pieve di S. Lazzaro a Lucardo. Feriali    07:30 - S. Donato a Lucardo (Fiano).Prefestive    16:30 - S. Gaudenz",false,,,,,,,,,,,
Santo Stefano all'Albereta,,Santo Stefano all'Albereta,,,Pelago,via I Maggio,15,43.784980,11.455760,Cattolico,,false,055-8368457,,,,,,,,,,
S. Donato a Polcanto,,Vicariato del Mugello Est. Don M Maurizio Tagliaferri AMMINISTRATORE PARROCCHIALE    Diac. Roberto Berti SERVIZIO PRESSO PARROCCHIA 055 8409870,,,Borgo San Lorenzo,Via della Chiesa,89,43.893052,11.320833,Cattolico,"Domenicali e festive    11:00 - S. Donato a Polcanto. Feriali    08:30 - S. Donato a Polcanto, 17:00 - S. Donato a Polcanto. Prefestive    17:15 - S. Ansano a Monte Aceraia (Salaiole)",false,,,,,,,,,,,
San Miniato,,San Miniato,,,Reggello,,1,43.755450,11.557100,Cattolico,,false,055-862251,,,,,,,,,,
San Martino a Altoreggi,,San Martino a Altoreggi,,,Figline Valdarno,,,43.622860,11.454410,Cattolico,,false,055-9500016,,,,,,,,,,
S. Donato a Torri,,Vicariato di Pontassieve. Don Mario Gianni PARROCO 055 6593091 donato.torri@parrocchie.diocesifirenze.it,,,Fiesole,Via Ellera,8,43.787930,11.366890,Cattolico,Domenicali e festive    11:00 - San Donato a Torri. Feriali    17:00 - San Donato a Torri. Prefestive    17:00 - San Donato a Torri,false,,,,,,,,,,,
S. Donato in Collina,,Vicariato di Antella Ripoli e Impruneta. Don Giuseppe Marino AMMINISTRATORE PARROCCHIALE 055 699035,,,Rignano sull'Arno,Via Montisoni,1,43.720470,11.380980,Cattolico,,false,,,,,,,,,,,
Sant'Agata in Arfoli,,Sant'Agata in Arfoli,,,Reggello,via Sant Agata,33,43.697910,11.524360,Cattolico,,false,055-868043 -,,,,,,,,,,
S. Donato in Poggio,,Vicariato di S. Casciano Montesp. Tav.. Don Luca Zanaga PARROCO 055 8072934,,,Tavarnelle Val di Pesa,Via La Pieve,25,43.537529,11.235817,Cattolico,,false,,,,,,,,,,,
Sant'Antonio al Bombone,,Sant'Antonio al Bombone,,,Rignano sull'Arno,via del Bombone,34/A,43.723860,11.449950,Cattolico,,false,055-8305054 -,,,,,,,,,,
San Bernardino a Borgunto,,San Bernardino a Borgunto,,,Fiesole,via Federico Colzi,3,43.806785,11.301964,Cattolico,,false,055-59422,,,,,,,,,,
S. Donato in Polverosa,,Vicariato di Porta al Prato. P. Giuliano Riccadonna PARROCO   P. Lwanga Kambale Kalolerya  VICARIO PARROCCHIALE 055 417188 donato.polverosa@parrocchie.diocesifirenze.it,,http://www.sandonatoinpolverosa.it,Firenze,Via di Novoli,31,43.790670,11.226140,Cattolico,"Domenicali e festive   08:30 - San Donato in Pol1sa, 10:00 - San Donato in Pol1sa, 11:30 - San Donato in Pol1sa. Feriali    18:00 - San Donato in Pol1sa.  Prefestive    18:00 - San Donato in Pol1sa",false,,,,,,,,,,,
S. Donato in Val di Botte,,Vicariato di Empoli Montelupo. Don Emmanuel Uwayezu AMMINISTRATORE PARROCCHIALE 0571 590828,,,Empoli,Via San Donato in Poggio,9,43.702540,10.988640,Cattolico,Domenicali e festive    10:00 - San Donato in Val di Botte. Prefestive    16:30 - San Donato in Val di Botte,false,,,,,,,,,,,
Santa Maria a Caiano,,Santa Maria a Caiano,,,Londa,,,43.861440,11.585860,Cattolico,,false,055-8351537,,,,,,,,,,
Sant'Andrea a Caldine,,Sant'Andrea a Caldine,,,Fiesole,via della Liberta' ,10,43.863441,11.302058,Cattolico,,false,055-5040107,,,,,,,,,,
S. Donnino a Campi,,Vicariato di Campi Bisenzio. Don Giovanni Momigli PARROCO    Don Destin Mouene Ndzorombe VICARIO PARROCCHIALE 055 8997200 parrocchia@spazioreale.it,,www.spazioreale.it,Campi Bisenzio,Via di Trento,191,43.792205,11.148021,Cattolico,"Domenicali e festive   08:00 - Chiesa di S. Donnino, 11:30 - Chiesa di S. Donnino. Feriali   17:30 - Chiesa di S. Donnino",false,,,,,,,,,,,
S. Donnino a Villamagna,,Vicariato di Antella Ripoli e Impruneta. Don Andrzej Wierzbicki  AMMINISTRATORE PARROCCHIALE 055 6519168,,,Bagno a Ripoli,piazza Villamagna,10,43.761170,11.382410,Cattolico,Domenicali e festive   10:30 - S. Donnino a Villamagna. Prefestive   17:00 - S. Donnino a Villamagna,false,,,,,,,,,,,
Sant'Andrea a Campiglia,,Sant'Andrea a Campiglia,,,Figline Valdarno,,,43.581800,11.430200,Cattolico,,false,055-958733,,,,,,,,,,
S. Egidio in S.Maria Nuova (Ospedale),,Vicariato di S. Giovanni. Diac. Rosario Forello SERVIZIO PRESSO PARROCCHIA 055 2758846,,,Firenze,Via San Egidio,20,43.772632,11.260465,Cattolico,"Domenicali e festive    06:30 - S. Egidio, 07:30 - S. Egidio, 18:00 - S. Egidio. Feriali    07:30 - S. Egidio, 10:30 - S. Egidio, 18:00 - S. Egidio. Prefestive    18:00 - S. Egidio",false,,,,,,,,,,,
Santa Margherita a Cancelli,,Santa Margherita a Cancelli,,,Reggello,via Don Minzoni,1,43.688500,11.511630,Cattolico,,false,055-868043 -,,,,,,,,,,
S. Eustachio in Acone,,Vicariato di Pontassieve. Don Vincenzo Arnone AMMINISTRATORE PARROCCHIALE 055 8361670,,,Pontassieve,Via San Eustachio in Acone,1,43.846570,11.476740,Cattolico,Domenicali e festive    12:00 - San Eustachio in Acone,false,,,,,,,,,,,
San Lorenzo a Cappiano,,San Lorenzo a Cappiano,,,Incisa in Val d'Arno,via Entrata,38,43.665701,11.422559,Cattolico,,false,055-8335731,,,,,,,,,,
S. Felice a Ema,,Vicariato di Porta Romana. Diac. Alberto Bargiacchi SERVIZIO PRESSO PARROCCHIA     Don Floriano Donatini PARROCO 055 2049248,,,Firenze,Via San Felice,47,43.739750,11.237630,Cattolico,"Domenicali e festive    08:00 - S. Felice, 11:00 - S. Felice, 18:00 - S. Felice. Feriali    07:30 - S. Felice, 18:00 - Cappella Immacolata. Prefestive    18:00 - Cappella Immacolata",false,,,,,,,,,,,
Santa Lucia,,Santa Lucia,,,Pelago,via Nuova del Carbonile,15,43.752939,11.472964,Cattolico,,false,055-8311040 -,,,,,,,,,,
S. Felice in Piazza,,Vicariato di Porta Romana. Don Gianfranco Rolfi PARROCO 055 221706,,,Firenze,piazza San Felice,5,43.765109,11.248057,Cattolico,Domenicali e festive    11:00 - S. Felice in Piazza,false,,,,,,,,,,,
San Niccolo' a Casale,,San Niccolo' a Casale,,,San Godenzo,,,43.907630,11.634530,Cattolico,,false,,,,,,,,,,,
Sant'Andrea a Cascia,,Sant'Andrea a Cascia,,,Reggello,,,43.671970,11.515870,Cattolico,,false,055-8667319,,,,,,,,,,
S. Felicita a Firenze,,Vicariato di Porta Romana. Don Grzegorz Sierzputowski AMMINISTRATORE PARROCCHIALE     P. Ivan Quintino Rosario Caputo VICARIO PARROCCHIALE 055 213018 parrocchia@santafelicita.it,,www.santafelicita.it,Firenze,piazza San Felicita,3,43.766895,11.252457,Cattolico,"Domenicali e festive   09:00 - Santa Felicita, 11:00 - Santa Felicita. Feriali    18:00 - Santa Felicita. Prefestive   18:00 - Santa Felicita",false,,,,,,,,,,,
S. Ferdinando nella Pia Casa di Lavoro,,Vicariato di S. Giovanni. Don Rocco Melchionna AMMINISTRATORE PARROCCHIALE 055 2339444 piacasalavoro@parrocchie.diocesifirenze.it,,,Firenze,Via Malcontenti,8,43.767370,11.266930,Cattolico,Domenicali e festive   11:00 - S. Ferdinando Pia Casa di Lavoro,false,,,,,,,,,,,
San Giovenale a Cascia,,San Giovenale a Cascia,,,Reggello,via San Giovenale,1,43.664370,11.530510,Cattolico,,false,055-868129,,,,,,,,,,
S. Francesco a Firenze,,Vicariato di Porta alla Croce. P. Fausto Lanti VICARIO PARROCCHIALE   P. Sandro Celli  PARROCO 055 572715 economo@osmtoscana.org,,,Firenze,Via Antonio Giacomini,3,43.782903,11.266330,Cattolico,"Domenicali e festive    08:00 - S. Francesco, 10:00 - S. Francesco, 11:30 - S. Francesco, 18:00 - S. Francesco. Feriali    07:00 - S. Francesco, 08:30 - S. Francesco, 18:00 - S. Francesco. Prefestive    18:00 - S. Francesco",false,,,,,,,,,,,
San Pietro a Cascia,,San Pietro a Cascia,,,Reggello,Piazza S. Pietro,1,43.675148,11.529711,Cattolico,,false,055-868129,,,,,,,,,,
S. Frediano in Cestello,,Vicariato di Porta Romana. Don Enio Lombardini VICARIO PARROCCHIALE   Don Cristian Meriggi  PARROCO  Don Johnson Taundayil Joseph SERVIZIO PRESSO PARROCCHIA 055 215816,,,Firenze,Via di Cestello,4,43.769970,11.243770,Cattolico,"Domenicali e festive    09:00 - San Frediano in Cestello, 11:00 - San Frediano in Cestello, 21:00 - San Frediano in Cestello. Feriali    18:30 - San Frediano in Cestello. Prefestive    18:30 - San Frediano in Cestello",false,,,,,,,,,,,
San Siro A Cascia,,San Siro A Cascia,,,Reggello,,,43.671800,11.515100,Cattolico,,false,055-869149,,,,,,,,,,
San Michele a Caselli,,San Michele a Caselli,,,Reggello,via Caselli,,43.685140,11.535720,Cattolico,,false,,,,,,,,,,,
Gesu' Buon Pastore a Casellina,,Vicariato di Scandicci. Don Pietro (Piero) Pilo PARROCO     Don Noel Assayi VICARIO PARROCCHIALE 055 750902 donpiero@piloalice.it,,,Scandicci,Via Baccio da Montelupo,55,43.764590,11.176560,Cattolico,"Domenicali e festive   08:00 - Gesa'¹ Buon Pastore a Casellina, 10:00 - Gesa'¹ Buon Pastore a Casellina, 11:30 - Gesa'¹ Buon Pastore a Casellina, 18:00 - Gesa'¹ Buon Pastore a Casellina. Feriali   07:30 - Gesa'¹ Buon Pastore a Casellina, 18:00 - Gesa'¹ Buon Pastore a",false,,,,,,,,,,,
S. Giorgio a Ruballa,,Vicariato di Antella Ripoli e Impruneta. Don Daniel Diac AMMINISTRATORE PARROCCHIALE 055 620722,,,Bagno a Ripoli,Via del Borro di S. Giorgio,12,43.728106,11.347013,Cattolico,"Domenicali e festive   08:00 - S. Giorgio a Ruballa, 11:00 - S. Giorgio a Ruballa. Prefestive    17:00 - S. Giorgio a Ruballa",false,,,,,,,,,,,
San Martino a Castagno,,San Martino a Castagno,,,San Godenzo,via del Borgo,2,43.897490,11.659070,Cattolico,,false,055-8375027,,,,,,,,,,
S. Giorgio al Ferrone,,Vicariato di Antella Ripoli e Impruneta. Don Gianluca Mozzi AMMINISTRATORE PARROCCHIALE   Diac. Roberto Massimo  SERVIZIO PRESSO PARROCCHIA     Don Herve' Mamboueni Mboumba  VICARIO PARROCCHIALE 055 850634 ferrone@parrocchie.diocesifirenze.it,,,Greve in Chianti,Via Poneta,1,43.657220,11.259380,Cattolico,"Domenicali e festive    11:00 - San Giorgio al Ferrone. Feriali    17:00 - San Giorgio al Ferrone - Periodo ora solare, 18:00 - San Giorgio al Ferrone - Periodo ora legale. Prefestive    17:00 - San Giorgio al Ferrone - Periodo ora solare, 18:00 - San Gio",false,,,,,,,,,,,
S. Stefano a Castiglioni,,S. Stefano a Castiglioni,,,Rufina,,1,43.826896,11.491227,Cattolico,,false,055-8398015,,,,,,,,,,
Cattedrale di San Romolo,San Romolo Cathedral,Cattedrale di San Romolo,San Romolo Cathedral,www.vieromee.it,Fiesole,Piazza della Cattedrale,,43.807350,11.292180,Cattolico,,false,0039 055 599566,Duomo di Fiesole,The Duomo in Fiesole,Catholic,0039 055 599566,curia@diocesifiesole.it,,,,,
S. Giorgio e Spirito Santo alla Costa,,Vicariato di Porta Roman. Don Grzegorz Sierzputowski AMMINISTRATORE PARROCCHIALE 055 213018 sangiorgi@osantafelicita.it,,www.santafelicita.it,Firenze,Costa San Giorgio,32,43.765312,11.255107,Cattolico,,false,,,,,,,,,,,
S. Giovanni Batt. Decoll. a Cornacchiaia,,Vicariato di Firenzuola. Don Carlo Giorgi  AMMINISTRATORE PARROCCHIALE    Don Jean Patrick Mabiala Mbumba  AMMINISTRATORE PARROCCHIALE 055 8149059,,,Firenzuola,,,44.135970,11.375510,Cattolico,Domenicali e festive    10:00 - S. Giovanni Battista Decollato a Cornacchiaia. Feriali    15:30 - S. Giovanni Battista Decollato a Cornacchiaia - Periodo ora solare. Prefestive    17:30 - Chiesa di Figliola,false,,,,,,,,,,,
S. Stefano a Cetina,,S. Stefano a Cetina,,,Reggello,,,43.664980,11.467210,Cattolico,,false,055-863027,,,,,,,,,,
S. Giovanni Batt. nell'Osp. Careggi,,Vicariato di Rifredi. P. Santino (lamberto) Tozzi VICARIO PARROCCHIALE    P. Marco Fantappie' PARROCO 055 2774396,,,Firenze,Viale Pieraccini,13,43.807310,11.249980,Cattolico,"Domenicali e festive    08:00 - S. Giovanni Battista nell'Osp. di Careggi, 11:30 - S. Giovanni Battista nell'Osp. di Careggi, 18:00 - S. Giovanni Battista nell'Osp. di Careggi",false,,,,,,,,,,,
Santa Maria a Chiocchio,,Santa Maria a Chiocchio,,,Greve in Chianti,via Mugnana,1,43.640060,11.320070,Cattolico,,false,055-8572137 -,,,,,,,,,,
S. Giovanni Batt. nell'Osp. S.Salvi,,Vicariato di Porta alla Croce. Don Silvano Seghi AMMINISTRATORE PARROCCHIALE    Diac. Dante Gaeta  SERVIZIO PRESSO PARROCCHIA     Diac. Salvatore Imbesi SERVIZIO PRESSO PARROCCHIA 055 6263582 giovanni.sansalvi@parrocchie.diocesifirenze.it,,,Firenze,Via San Salvi,12,43.771860,11.285850,Cattolico,Domenicali e festive   09:30 - S. Giovanni Battista a S. Salvi - Non sempre.  Feriali    09:30 - S. Giovanni Battista a S. Salvi - Non sempre,false,,,,,,,,,,,
Santa Maria a Cintoia,,Santa Maria a Cintoia,,,Greve in Chianti,via Cintoia Bassa,,43.629660,11.345490,Cattolico,,false,055-8572137,,,,,,,,,,
S. Giovanni Battista a Firenzuola,,Vicariato di Firenzuola. Don Carlo Giorgi PARROCO 055 819009,,,Firenzuola,Via SS. Annunziata,2,44.119410,11.379370,Cattolico,"Domenicali e festive    08:00 - Giugnola, 08:30 - S. Giovanni Battista a Firenzuola, 10:00 - S. Pellegrino, 11:00 - Casetta di Tiara, 11:30 - S. Giovanni Battista a Firenzuola, 18:00 - S. Giovanni Battista a Firenzuola - Periodo ora solare, 18:30 - S. Gio",false,,,,,,,,,,,
San Pietro a Cintoia,,San Pietro a Cintoia,,,Greve in Chianti,via Cintoi Alta La Panca,,43.618109,11.359455,Cattolico,,false,055-8572137 -,,,,,,,,,,
San Domenico alla Consuma,,San Domenico alla Consuma,,,Pelago,via Casentinese,353,43.781550,11.597290,Cattolico,,false,055-8306529,,,,,,,,,,
S. Giovanni Battista a Remole o Sieci,,Vicariato di Pontassieve. Don Jozef Budzinski PARROCO    Don Tomasz Korszun SERVIZIO PRESSO PARROCCHIA 055 8309208 sieci@parrocchie.diocesifirenze.it,,www.pievesieci.it,Pontassieve,Via Aretina,101,43.789640,11.392930,Cattolico,"Domenicali e festive    08:00 - San Giovanni Battista a Remole, 11:30 - San Giovanni Battista a Remole - da Settembre a Maggio. Feriali    18:00 - San Giovanni Battista a Remole. Prefestive    18:00 - San Giovanni Battista a Remole",false,,,,,,,,,,,
San Giovanni Battista,,San Giovanni Battista,,,Rufina,via Ceccherini 44,,43.860809,11.528713,Cattolico,,false,055-8389878 -,,,,,,,,,,
S. Giovanni Battista a Senni,,Vicariato del Mugello Ovest. P. Giovanni Roncari  AMMINISTRATORE PARROCCHIALE  senni@parrocchie.diocesifirenze.it,,,Scarperia,,,44.026690,11.337760,Cattolico,"Domenicali e festive    10:00 - Casa di Riposo S. Carlo, 11:30 - Convento p. Cappuccini. Feriali    07:00 - Convento p. Cappuccini, 17:30 - Casa di Riposo S. Carlo. Prefestive    17:00 - Casa di Riposo S. Carlo.",false,,,,,,,,,,,
S. Giovanni Battista a Vicchio,,Vicariato del Mugello Est. Don Giuliano Landini PARROCO IN SOLIDUM MODERATORE   Don Sergio Bugada PARROCO IN SOLIDUM    Don Marcin Jaroslaw Zielinski VICARIO PARROCCHIALE 055 844167 pieve.vicchio@libero.it,,,Vicchio,piazza Giotto,5,43.933410,11.465610,Cattolico,"Domenicali e festive    08:00 - Pieve di S. Giovanni Battista, 11:00 - Pieve di S. Giovanni Battista, 11:00 - San Michele Rupecanina, 17:30 - Pieve di S. Giovanni Battista - Periodo ora solare, 18:00 - Pieve di S. Giovanni Battista - Periodo ora legale. F",false,,,,,,,,,,,
S. Stefano alle Corti,,S. Stefano alle Corti,,,Rignano sull'Arno,,,43.728950,11.415110,Cattolico,,false,055-8305054,,,,,,,,,,
San Lorenzo a Diacceto,,San Lorenzo a Diacceto,,,Pelago,,,43.782640,11.502940,Cattolico,,false,055-8326019,,,,,,,,,,
S. Giovanni Battista al Lago,,Vicariato del Mugello Ovest. Don Emilio Pacchiarini AMMINISTRATORE PARROCCHIALE,,,Barberino di Mugello,,,43.966640,11.294970,Cattolico,,false,,,,,,,,,,,
S. Giovanni Battista Decollato a Misileo,,Vicariato del Mugello Est. Don Abalo Kedalor Zondokpo AMMINISTRATORE PARROCCHIALE 055 8046014,,,Palazzuolo sul Senio,,,44.106060,11.530770,Cattolico,,false,,,,,,,,,,,
Sant'Antonio,,Sant'Antonio,,,Dicomano,via Giuseppe Garibaldi,111,43.888335,11.525735,Cattolico,,false,055-838048,,,,,,,,,,
S. Vincenzo a Torri,,Vicariato di Scandicci. Don Salvatore D'Amicis AMMINISTRATORE PARROCCHIALE 055 769098 pievepesa@interfree.it,,,Scandicci,Via Empolese,11,43.702040,11.093210,Cattolico,"Domenicali e festive    08:00 - S. Vincenzo a Torri, 09:30 - S. Michele a Torri, 11:00 - S. Vincenzo a Torri. Feriali    08:30 - S. Vincenzo a Torri.Prefestive    17:00 - Marciola",false,,,,,,,,,,,
Santa Maria a Donnini,,Santa Maria a Donnini,,,Reggello,,,43.732220,11.501520,Cattolico,,false,055-860039,,,,,,,,,,
S. Vito e Modesto a Bellosguardo,,Vicariato di Porta Romana. Don Dr. Giovanni Alpigiano PARROCO 055 2298638,,,Firenze,piazza San Francesco di Paola,6,43.764730,11.237720,Cattolico,"Domenicali e festive    09:00 - Cappella via Villani, 10:15 - S. Vito, 11:30 - Cappella via Villani.Feriali    18:00 - Cappella via Villani.Prefestive    18:00 - Cappella via Villani",false,,,,,,,,,,,
San Michele a Dudda,,San Michele a Dudda,,,Greve in Chianti,,1,43.598350,11.385110,Cattolico,,false,055-8549008,,,,,,,,,,
San Giusto a Falgano,,San Giusto a Falgano,,,Rufina,,,43.805460,11.509350,Cattolico,,false,,,,,,,,,,,
S. Zanobi a Casignano,,Vicariato di Scandicci. Don Brunetto Fioravanti  AMMINISTRATORE PARROCCHIALE     Diac. Claudio Raspollini  SERVIZIO PRESSO PARROCCHIA 055 768812 sanzanobi@sanzanobi.net,,http://www.sanzanobi.net,Scandicci,Via San Zanobi,3,43.724370,11.178030,Cattolico,,false,,,,,,,,,,,
S. Zanobi e Santi Fiorentini,,Vicariato di Porta alla Croce. Don Marco Zanobini  PARROCO 055 603340 santifiorentini@parrocchie.diocesifirenze.it,,,Firenze,Via Centostelle,11,43.781992,11.289892,Cattolico,"Domenicali e festive    08:30 - S. Zanobi e Santi Fiorentini, 10:00 - S. Zanobi e Santi Fiorentini, 11:30 - S. Zanobi e Santi Fiorentini, 18:00 - S. Zanobi e Santi Fiorentini. Feriali    08:30 - S. Zanobi e Santi Fiorentini, 18:00 - S. Zanobi e Santi Fior",false,,,,,,,,,,,
San Quirico alla Felce,,San Quirico alla Felce,,,Rignano sull'Arno,,,43.700620,11.410000,Cattolico,,false,,,,,,,,,,,
Ascensione di N.S.G.C. Firenze,Ascensione di N.S.G.C. Firenze,Ascensione di N.S.G.C. Firenze,Ascensione di N.S.G.C. Firenze,http://www.diocesifirenze.it/pls/diocesifirenze/bd_dioc_annuario_css.singolo_ente?p_pagina=23943&id_dioc=15&cod_icsc=2550019&id_en=22&colore1=&colore2=&layout=0&rifi=&rifp=&vis=1,Firenze,Via Giovanni dei Marignolli,76,43.791518,11.236803,Cattolico,Orari delle SS Messe: domenicali e festive 8.30  10.00  11.30  18.00  feriali e prefestive 18.00,false,0039 055 366433,Zona Firenze Nord,Northern area of Florence,Catholic,0039 055 366433,info@diocesifirenze.it,Da Piazza Stazione bus 23,From Piazza Stazione bus 23,Timetable of the Holy Mass: Sunday and public holidays 8.30  10.00  11.30  18.00  weekdays and pre-holiday 18.00,,
San Pietro a Ferrano,,San Pietro a Ferrano,,,Pelago,via Della Chiesa,1,43.780241,11.527560,Cattolico,,false,055-8326717,,,,,,,,,,
San Jacopo a Festigliano,,San Jacopo a Festigliano,,,Vaglia,,84,43.863790,11.302190,Cattolico,,false,055-409001,,,,,,,,,,
S. Agata di Mugello,,Vicariato del Mugello Ovest. Don Francesco Chilleri AMMINISTRATORE PARROCCHIALE Don Giovanni Prestianni VICARIO PARROCCHIALE 055 8406926 agata@parrocchie.diocesifirenze.it,,,Scarperia,piazza della Liberta,1,44.020790,11.334650,Cattolico,Domenicali e festive  11:00 - S. Agata di Mugello. Feriali  17:00. Prefestive  17:00,false,,,,,,,,,,,
Collegiata di Santa Maria,,Collegiata di Santa Maria,,,Figline Valdarno,Piazza Marsilio Ficino,43,43.617640,11.472260,Cattolico,,false,055-958518,,,,,,,,,,
S. Alessandro a Giogoli,,Vicariato di Scandicci. Don Giorgio Mazzanti PARROCO 055 7301860,,,Scandicci,Via San Alessandro,1,43.725570,11.197980,Cattolico,"Domenicali e festive 11:00 - S. Alessandro a Giogoli, 17:00 - S. Alessandro a Giogoli",false,,,,,,,,,,,
S. Ambrogio,,Vicariato di S. Giovanni. P. Carlo Guarnieri PARROCO 055 240104,,,Firenze,Via Giosua Carducci,1,43.771672,11.266385,Cattolico,"Domenicali e festive 08:00 - S. Ambrogio, 10:15 - S. Ambrogio, 18:00 - S. Ambrogio. Feriali  09:00 - S. Ambrogio, 18:00 - S. Ambrogio. Prefestive    18:00 - S. Ambrogio",false,,,,,,,,,,,
SS. Crocifisso a Fontelucente,,SS. Crocifisso a Fontelucente,,,Fiesole,via Fontelucente,23,43.811220,11.287640,Cattolico,,false,055-59296,,,,,,,,,,
S. Andrea a Botinaccio,,Vicariato di Empoli Montelupo. Don Angelo Gorini AMMINISTRATORE PARROCCHIALE Diac. Giampaolo Agatensi SERVIZIO PRESSO PARROCCHIA; Don Dr. Paul Kwaku Poku VCARIO PARROCCHIALE  botinaccio@parrocchie.diocesifirenze.it,,,Montespertoli,Via di Botinaccio,17,43.678888,11.029528,Cattolico,Domenicali e festive  09:30 - S. Andrea a Botinaccio,false,,,,,,,,,,,
San Lorenzo a Fontisterni,,San Lorenzo a Fontisterni,,,Pelago,,,43.742620,11.492890,Cattolico,,false,055-8311040 -,,,,,,,,,,
S. Andrea a Candeli,,Vicariato di Antella Ripoli e Impruneta. Can. Vasco Giuliani AMMINISTRATORE PARROCCHIALE 055 630375,,,Bagno a Ripoli,Via Villamagna,48,43.762591,11.336519,Cattolico,Domenicali e festive 11:00 - S. Andrea a Candeli. Feriali 17:00 - S. Andrea a Candeli. Prefestive 17:00 - S. Andrea a Candeli,false,,,,,,,,,,,
San Lorenzo a Fornace,,San Lorenzo a Fornace,,,Londa,via Fornace,,43.857280,11.611590,Cattolico,,false,055-8354105,,,,,,,,,,
S. Andrea a Cercina,,Vicariato di Rifredi. Don Dr. Janusz Aptacy AMMINISTRATORE PARROCCHIALE 055 402006,,,Firenze,Via Dante da Castiglione,32,43.757778,11.241240,Cattolico,Domenicali e festive 11:30 - S. Andrea a Cercina,false,,,,,,,,,,,
San Giacomo a Frascole,,San Giacomo a Frascole,,,Dicomano,via di Frascole,56,43.873208,11.547688,Cattolico,,false,055-8351546,,,,,,,,,,
San Donato in Fronzano,,San Donato in Fronzano,,,Reggello,via Achille Grandi,55,43.710220,11.519560,Cattolico,,false,055-8652027,,,,,,,,,,
S. Andrea a Doccia,,Vicariato di Pontassieve. Don Daniele Rossi AMMINISTRATORE PARROCCHIALE +39 055 8361378,,,Pontassieve,Via Doccia,39,43.823010,11.425980,Cattolico,Domenicali e festive 10:00 - San Andrea a Doccia. Feriali 16:00 - San Andrea a Doccia,false,,,,,,,,,,,
S. Andrea a Empoli,,Vicariato di Empoli Montelupo. Don Guido Engels PARROCO  Don Andrea Malavolti VICARIO PARROCCHIALE 0571 72220 andrea.empoli@parrocchie.diocesifirenze.it,,,Empoli,Piazza Propositura,3,43.719280,10.946440,Cattolico,"Domenicali e festive 07:00 - Chiesa delle Giuseppine, 08:00 - Chiesa delle Domenicane, 08:00 - Collegiata Sant'Andrea a Empoli, 09:00 - Chiesa Santuario Madonna del Pozzo, 09:00 - Cappella di Casa San Rocco, 10:00 - Cappella Istituto Scolopi, 10:30 - Coll",false,,,,,,,,,,,
San Biagio a Gaglianello,,San Biagio a Gaglianello,,,Figline Valdarno,via San Biagio,1,43.625650,11.462830,Cattolico,,false,055-952949,,,,,,,,,,
S. Andrea a Montespertoli,,Vicariato di S. Casciano Montesp. Tav.. Don Roberto Bartolini PARROCO Don Serge Jonas Ombomi VICARIO PARROCCHIALE 0571 608088 montespertoli@parrocchie.diocesifirenze.it,,,Montespertoli,piazza Machiavelli,1,43.643780,11.077700,Cattolico,"Domenicali e festive 07:30 - Chiesa S.Andrea, Piazza Machiavelli, 09:30 - Chiesa S.Andrea, Piazza Machiavelli, 11:00 - Chiesa S.Andrea, Piazza Machiavelli, 17:00 - Chiesa S.Andrea, Piazza Machiavelli. Feriali   07:30 - Chiesa S.Andrea, Piazza Machiavelli,",false,,,,,,,,,,,
San Romolo a Gaville,,San Romolo a Gaville,,,Figline Valdarno,null,,43.589720,11.434250,Cattolico,,false,+39 055 9501701,,,,,,,,,,
S. Andrea a Mosciano,,Vicariato di Scandicci. Don Alessandro Rugi AMMINISTRATORE PARROCCHIALE 055 768961,,,Scandicci,Via Pacchi,1,43.750810,11.176290,Cattolico,Domenicali e festive 11:00 - S. Andrea a Mosciano,false,,,,,,,,,,,
Sacro Cuore di Gesa'¹,,Sacro Cuore di Gesa'¹,,,Greve in Chianti,via Chiantigiana,66,43.542530,11.316720,Cattolico,,false,055-854083,,,,,,,,,,
S. Andrea a Rovezzano,,Vicariato di Porta alla Croce. Don Silvano Puccini PARROCO 055 690177,,,Firenze,Via Sant Andrea a Rovezzano,46,43.767583,11.321944,Cattolico,Domenicali e festive  11:00 - S. Andrea a Rovezzano. Feriali   17:00 - S. Andrea a Rovezzano. Prefestive   17:00 - S. Andrea a Rovezzano,false,,,,,,,,,,,
Santa Croce a Greve,,Santa Croce a Greve,,,Greve in Chianti,Piazzetta Santa Croce,1,43.581692,11.317298,Cattolico,,false,055-853085 -,,,,,,,,,,
Sant'Alessandro,,Sant'Alessandro,,,Incisa in Val d'Arno,Piazza Municipio,1,43.663420,11.449598,Cattolico,,false,055-8335451 -,,,,,,,,,,
S. Andrea a S. Donnino,,Vicariato di Campi Bisenzio. Don Giovanni Momigli AMMINISTRATORE PARROCCHIALE 055 8997200 parrocchia@spazioreale.it,,www.spazioreale.it,Campi Bisenzio,piazza Costituzione,2,43.795150,11.150300,Cattolico,Domenicali e festive  10:00 - Chiesa S. Andrea. Feriali  17:30 - Chiesa S. Andrea. Prefestive  18:00 - Chiesa S. Andrea,false,,,,,,,,,,,
S. Andrea a Vico d'Elsa,,Vicariato della Valdelsa Fiorentina. Don Dino Fusi AMMINISTRATORE PARROCCHIALE 0571 660163,,,Barberino Val d'Elsa,piazza S. Andrea,5,43.513797,11.096022,Cattolico,"Domenicali e festive   09:00 - S. Margherita a Sciano, 10:30 - S. Andrea a Vico d'Elsa, 12:00 - S. Donnino. Feriali  12:00 - S. Andrea a Vico d'Elsa - Celebrazioni occasionali l'orario cambia. Prefestive    21:00 - S. Andrea a Vico d'Elsa",false,,,,,,,,,,,
San Donato a Lamole,,San Donato a Lamole,,,Greve in Chianti,,1,43.549830,11.355350,Cattolico,,false,055-8547015,,,,,,,,,,
S. Andrea in Percussina,,Vicariato di S. Casciano Montesp. Tav.. Don Andrea Bigalli PARROCO 055 820351,,,San Casciano in Val di Pesa,Via Scopeti,48,43.686590,11.206000,Cattolico,"Domenicali e festive   08:00 - Sant'Andrea in Percussina, 11:00 - Sant'Andrea in Percussina",false,,,,,,,,,,,
Santa Maria del Fiore al Lapo,,SANTA MARIA DEL FIORE,,,Firenze,via Faentina,245,43.797840,11.274190,Cattolico,,false,055-572073,,,,,,,,,,
S. Angelo a Lecore,,Vicariato delle Signe. Don Etienne Milembou AMMINISTRATORE PARROCCHIALE 055 8797990 angelo.lecore@parrocchie.diocesifirenze.it,,,Signa,Piazza San Angelo (lecore),3,43.811580,11.072460,Cattolico,"Domenicali e festive  08:00 - S. Angelo a Lecore, 11:00 - S. Angelo a Lecore. Feriali   08:00 - S. Angelo a Lecore. Prefestive   17:00 - S. Angelo a Lecore - Periodo ora solare, 18:00 - S. Angelo a Lecore - Periodo ora legale",false,,,,,,,,,,,
San Salvatore,,San Salvatore,,,Reggello,via Ciro Menotti,89,43.697930,11.472640,Cattolico,,false,055-8657950,,,,,,,,,,
SS Concezione in Londa,,SS Concezione in Londa,,,Londa,Piazza Umberto,44,43.860270,11.566270,Cattolico,,false,055-8351546,,,,,,,,,,
S. Angelo a Legnaia,,Vicariato di Porta S. Frediano. Don Moreno Bucalossi PARROCO Don Senthuryan Susai VICARIO PARROCCHIALE 055 700583 s.angeloalegnaia@virgilio.it,,,Firenze,Via Pisana,436,43.770310,11.215250,Cattolico,"Domenicali e festive  08:00 - S. Angelo a Legnaia - No in luglio e Agosto, 10:00 - S. Angelo a Legnaia, 11:30 - S. Angelo a Legnaia, 18:00 - S. Angelo a Legnaia - No in Luglio e Agosto. Feriali   08:00 - S. Angelo a Legnaia - No in luglio e Agosto, 18:00",false,,,,,,,,,,,
S. Antonino a Bellariva,,Vicariato di Porta alla Croce. Don Faliero Crocetti PARROCO  Dott. Diac. Giovanni Bocale SERVIZIO PRESSO PARROCCHIA  Don Stefano Mantelli VICARIO PARROCCHIALE 055 669963,,,Firenze,piazza Giovanni Rosadi,2,43.767970,11.288700,Cattolico,"Domenicali e festive    08:30 - S. Antonino a Bellariva, 10:00 - S. Antonino a Bellariva, 11:30 - S. Antonino a Bellariva, 18:00 - S. Antonino a Bellariva. Feriali     09:00 - S. Antonino a Bellariva, 18:00 - S. Antonino a Bellariva . Prefestive   18:00 -",false,,,,,,,,,,,
San Vito a Loppiano,,San Vito a Loppiano,,,Incisa in Val d'Arno,via Loppiano,12,43.662089,11.450087,Cattolico,,false,055-8335592,,,,,,,,,,
S. Antonio da Padova al Romito,,Vicariato di Rifredi. Don Dr. Riccardo Moretti VICARIO PARROCCHIALE   Don Giovanni Di Mario Martini PARROCO 055 486329,,,Firenze,Via Filippo Corridoni,31,43.795140,11.240740,Cattolico,"Domenicali e festive   08:30 - S. Antonio da Padova al Romito, 10:00 - S. Antonio da Padova al Romito, 11:30 - S. Antonio da Padova al Romito. Feriali    18:00 - S. Antonio da Padova al Romito. Prefestive    18:00 - S. Antonio da Padova al Romito",false,,,,,,,,,,,
San Martino a Lubaco,,San Martino a Lubaco,,,Pontassieve,,57,43.853467,11.367239,Cattolico,,false,+39 3299384976,,,,,,,,,,
S. Stefano a Lucolena,,S. Stefano a Lucolena,,,Greve in Chianti,via Lucolena Centro,1,43.574956,11.372056,Cattolico,,false,055-851022,,,,,,,,,,
S. Appiano a Barberino d'Elsa,,Vicariato di S. Casciano Montesp. Tav.. Don Luciano Marchetti AMMINISTRATORE PARROCCHIALE 055 8075001,,,Barberino Val d'Elsa,,,43.511260,11.090260,Cattolico,,false,,,,,,,,,,,
S. Bartolo a Cintoia,,Vicariato di Porta S. Frediano. Don Angelo Stefanini AMMINISTRATORE PARROCCHIALE 055 781341 san_bartoloalice.it,,,Firenze,Via San Bartolo,82,43.779308,11.189973,Cattolico,"Domenicali e festive   07:30 - S. Bartolo a Cintoia, 10:00 - S. Bartolo a Cintoia, 11:30 - S. Bartolo a Cintoia. Feriali   18:00 - S. Bartolo a Cintoia. Prefestive   18:00 - S. Bartolo a Cintoia",false,,,,,,,,,,,
San Michele alle Macchie,,San Michele alle Macchie,,,Vaglia,via Fontebuona Macchie,,43.870870,11.290130,Cattolico,,false,055-409018,,,,,,,,,,
Beata Vergine Immacolata in Val d'Orme,Beata Vergine Immacolata in Val d'Orme,Beata Vergine Immacolata in Val d'Orme,Beata Vergine Immacolata in Val d'Orme,,Empoli,Via di Valdorme,266,43.696425,10.955422,Cattolico,"Domenicali e festive   08:00 - Beata Vergine Immacolata in Valdorme, 09:00 - Cappella Case Nuove, 11:00 - Beata Vergine Immacolata in Valdorme. Feriali   21:00 - Beata Vergine Immacolata in Valdorme. Prefestive    17:00 - Beata Vergine Immacolata in Valdo",false,+39 0571 924106,Empoli,Empoli,Catholic,+39 0571 924106,donicola2000@hotmail.it,,,"Sundays and public holidays 08:00 - Beata Vergine Immacolata in Valdorme, 09:00 - Cappella Case Nuove, 11:00 - Beata Vergine Immacolata in Valdorme. Weekdays 21:00 - Beata Vergine Immacolata in Valdorme. Pre-holiday    17:00 - Beata Vergine Immacolata in Valdorme",,
San Cresci,,San Cresci,,,Vaglia,via Macioli,32,43.865640,11.302610,Cattolico,,false,055-409291,,,,,,,,,,
San Martino a Maiano,,San Martino a Maiano,,,Fiesole,via delle Cave di Maiano,6,43.797042,11.307292,Cattolico,,false,055-59253,,,,,,,,,,
B.V.M. Divina Provvidenza,B.V.M. Divina Provvidenza,B.V.M. Divina Provvidenza,B.V.M. Divina Provvidenza,www.divinaprovvidenza.net,Firenze,Via Dino Compagni,6,43.788430,11.275110,Cattolico,"Domenicali e festive   08:00 - B.V.M. Divina Provvidenza, 10:30 - B.V.M. Divina Provvidenza, 12:00 - B.V.M. Divina Provvidenza, 18:00 - B.V.M. Divina Provvidenza. Feriali   08:00 - B.V.M. Divina Provvidenza, 09:00 - B.V.M. Divina Provvidenza, 18:00 - B.V.",false,39 055 583008,Padri Barnabiti,Barnabite Fathers,Catholic,39 055 583008,divinaprovvidenza@parrocchie.diocesifirenze.it,,,"Sundays and holidays    08:00 - B.V.M. 
Divina Provvidenza, 10:30 - B.V.M. Divina Provvidenza, 12:00 - B.V.M. Divina Provvidenza, 18:00 - B.V.M. Divina Provvidenza. Weeksdays08:00 - B.V.M. Divina Provvidenza, 09:00 - B.V.M. Divina Provvidenza, 18:00 - B.V.",,
B.V.M. Immacolata a Sesto F.no,B.V.M. Immacolata in Sesto F.no,B.V.M. Immacolata a Sesto F.no,B.V.M. Immacolata in Sesto F.no,www.immacolatasesto.it,Sesto Fiorentino,piazza San Francesco,40,43.836998,11.198669,Cattolico,"Domenicali e festive   07:30 - Immacolata a Sesto Fiorentino, 09:30 - Immacolata a Sesto Fiorentino - Ottobre-Giugno, 11:00. Feriali   17:00 - Immacolata a Sesto Fiorentino - Periodo ora solare 18:00",false,+39 055 4200487,E' presente il cineforum,Cineforum available,Catholic,+39 055 4200487,info@immacolatasesto.it,,,"Sundays and holidays  07:30 - Immacolata in Sesto Fiorentino, 09:30 - Immacolata in Sesto Fiorentino - Oct-June , 11:00. Weekdays 17:00 - Immacolata a Sesto Fiorentino - solar time 18:00",,
Santa Maria Primerana,,Santa Maria Primerana,,,Fiesole,Piazza Mino,27,43.806270,11.293400,Cattolico,,false,055-59400,,,,,,,,,,
Santa Maria Regina a Matassino,,Santa Maria Regina a Matassino,,,Reggello,via Giovanni XXIII Matassino,,43.627200,11.482780,Cattolico,,false,055-861181 -,,,,,,,,,,
B.V.M. Madre delle Grazie all'Isolotto,B.V.M. Madre delle Grazie all'Isolotto,B.V.M. Madre delle Grazie all'Isolotto,B.V.M. Madre delle Grazie all'Isolotto,www.madredellegrazie.it,Firenze,Via delle Mimose,14,43.777450,11.216850,Cattolico,"Domenicali e festive   08:00 - B.V.M. Madre delle Grazie Isolotto - dal 15/06 al 05/09 circa, 10:00 - B.V.M. Madre delle Grazie Isolotto, 11:30 - B.V.M. Madre delle Grazie Isolotto, 18:00 - B.V.M. Madre delle Grazie Isolotto - Periodo ora solare. Feriali",false,+39 055 705767,E' presente il cineforum,Cineforum available,Catholic,+39 055 705767,isolotto@parrocchie.diocesifirenze.it,,,"Sundays and holidays   08:00 - B.V.M. Madre delle Grazie Isolotto -  from  15/06 through about 05/09, 10:00 - B.V.M. Madre delle Grazie Isolotto, 11:30 - B.V.M. Madre delle Grazie Isolotto, 18:00 - B.V.M. Madre delle Grazie Isolotto - Solar time. Weeksdays",,
B.V.M. Madre di Dio al Lippi,B.V.M. Madre di Dio al Lippi,B.V.M. Madre di Dio al Lippi,B.V.M. Madre di Dio al Lippi,http://www.diocesifirenze.it/pls/diocesifirenze/bd_dioc_annuario_css.singolo_ente?p_pagina=23943&id_dioc=15&cod_icsc=2550055&id_en=58&colore1=&colore2=&layout=0&rifi=&rifp=&vis=1,Firenze,Via P. Fanfani,19,43.807631,11.230227,Cattolico,"Domenicali e festive   08:30 - Beata Vergine Maria al Lippi, 10:00 - Beata Vergine Maria al Lippi, 11:30 - Beata Vergine Maria al Lippi. Feriali   18:00 - Beata Vergine Maria al Lippi. Prefestive    18:00 - Beata Vergine Maria al Lippi",false,+39 055 410748,Zona Firenze Nord,Northern area of Florence,Catholic,+39 055 410748,materlippi@alice.it,,,"Sundays and holidays   08:30 - Beata Vergine Maria al Lippi, 10:00 - Beata Vergine Maria al Lippi, 11:30 - Beata Vergine Maria al Lippi. Feriali   18:00 - Beata Vergine Maria al Lippi. Pre-holiday   18:00 - Beata Vergine Maria al Lippi",,
San Leone,,San Leone,,,Greve in Chianti,,1,43.579930,11.326220,Cattolico,,false,055-853085,,,,,,,,,,
B.V.M. Regina della Pace,B.V.M. Regina della Pace,B.V.M. Regina della Pace,B.V.M. Regina della Pace,www.firenze.chiesacattolica.it/pls/diocesifirenze/bd_dioc_annuario_css.singolo_ente?p_pagina=23943&id_dioc=15&cod_icsc=2550039&id_en=42&colore1=&colore2=&layout=0&rifi=&rifp=&vis=1,Firenze,Via di Caciolle,1,43.796510,11.230610,Cattolico,"Domenicali e festive   08:00 - Beata Vergine Maria Regina della Pace, 10:00 - Beata Vergine Maria Regina della Pace, 11:30 - Beata Vergine Maria Regina della Pace, 17:30 - Beata Vergine Maria Regina della Pace. Feriali   07:30 - Beata Vergine Maria Regina",false,0039 055 410075,Zona Firenze Nord,Northern area of Florence,Catholic,0039 055 410075,reginapace@parrocchie.diocesifirenze.it,,,"Sundays and holidays  08:00 - Beata Vergine Maria Regina della Pace, 10:00 - Beata Vergine Maria Regina della Pace, 11:30 - Beata Vergine Maria Regina della Pace, 17:30 - Beata Vergine Maria Regina della Pace. Weeksdays  07:30 - Beata Vergine Maria Regina",,
San Martino a Mensola,,San Martino a Mensola,,,Firenze,via San Martino a Mensola,4,43.783140,11.307580,Cattolico,,false,055-602115,,,,,,,,,,
S. Bartolomeo a Barberino d'Elsa,,Vicariato di S. Casciano Montesp. Tav. Don Luciano Marchetti PARROCO 055 8075001 bartolomeo.barberino@parrocchie.diocesifirenze.it,,,Barberino Val d'Elsa,Via Francescoo da Barberino,41,43.543146,11.171938,Cattolico,,false,,,,,,,,,,,
San Niccolo' a Montagliari,,San Niccolo' a Montagliari,,,Greve in Chianti,,1,43.545691,11.325992,Cattolico,,false,055-852037,,,,,,,,,,
S. Bartolomeo a Gagliano,,Vicariato del Mugello Ovest. Don Emilio Pacchiarini PARROCO 055 8428030 gagliano@parrocchie.diocesifirenze.it,,,Barberino di Mugello,piazza IV Novembre,1,44.015830,11.291180,Cattolico,"Domenicali e festive   08:30, 11:00. Feriali   17:30. Prefestive   17:30",false,,,,,,,,,,,
San Miniato a Montanino,,San Miniato a Montanino,,,Reggello,via G. Amendola,19,43.712470,11.517390,Cattolico,,false,055-8665066,,,,,,,,,,
S. Bartolomeo a Martignana,,Vicariato di Empoli Montelupo. Don Massimo Scalzi  PARROCO 0571 929354 sanbartolomeo.martignana@gmail.com,,,Empoli,Via della Chiesa,1,43.677670,10.988170,Cattolico,"Domenicali e festive   09:00, 11:00. Feriali    18:00. Prefestive   18:00",false,,,,,,,,,,,
Santo Stefano a Montefioralle,,Santo Stefano a Montefioralle,,,Greve in Chianti,via Montefioralle,1,43.581230,11.304870,Cattolico,,false,055-853876,,,,,,,,,,
S. Bartolomeo a Palazzuolo,,Vicariato di S. Casciano Montesp. Tav.. Don Rosario Palumbo AMMINISTRATORE PARROCCHIALE 055 8074239,,,Tavarnelle Val di Pesa,Via Palazzuolo,,43.566930,11.169140,Cattolico,Domenicali e festive   09:30 - San Bartolomeo a Palazzuolo. Feriali   15:00 - San Bartolomeo a Palazzuolo.,false,,,,,,,,,,,
San Quirico Montelfi,,San Quirico Montelfi,,,Incisa in Val d'Arno,,,43.679056,11.445627,Cattolico,,false,055-863027,,,,,,,,,,
S. Bartolomeo a Quarate,,Vicariato di Antella Ripoli e Impruneta. Don Renato Bellucci AMMINISTRATORE PARROCCHIALE  quarate@parrocchie.diocesifirenze.it,,,Bagno a Ripoli,Via di Quarate,18,43.691496,11.333306,Cattolico,"Domenicali e festive   09:00 - S. Stefano a Tizzano, 10:30 - S. Bartolomeo a Quarate. Feriali  17:00 - S. Bartolomeo a Quarate. Prefestive    16:00 - S. Giuseppe a Capannuccia - luglio e agosto puo' slittare alle 21.00, 17:00 - S. Andrea a Morgiano",false,,,,,,,,,,,
San Giovanni Battista,,San Giovanni Battista,,,Pontassieve,Monteloro,1,43.814880,11.374800,Cattolico,,false,055-8309588,,,,,,,,,,
S. Bartolomeo a Sovigliana,,Vicariato di Empoli Montelupo. P. Sesto Pieroni PARROCO 0571 508040,,,Vinci,Via Empolese (Sovigliana Spicchio),71,43.724520,10.935680,Cattolico,"Domenicali e festive    08:00 - San Bartolomeo a Sovigliana, 09:30 - Chiesa di Petroio, 11:00 - San Bartolomeo a Sovigliana, 18:00 - San Bartolomeo a Sovigliana. Feriali   18:30 - San Bartolomeo a Sovigliana. Prefestive     18:30 - San Bartolomeo a Sovigl",false,,,,,,,,,,,
Sant'Ilario,,Sant'Ilario,,,Fiesole,via dei Bosconi  Montereggi,,43.835650,11.331540,Cattolico,,false,055-540180,,,,,,,,,,
San Leolino a Monti,,San Leolino a Monti,,,Londa,via S. Leolino,9,43.845075,11.576784,Cattolico,,false,055-8351546,,,,,,,,,,
S. Bartolomeo in Tuto a Scandicci,,Vicariato di Scandicci. Don Marco Calamandrei  PARROCO  Don Daniele Rialti VICARIO PARROCCHIALE    Diac. Riccardo Casini SERVIZIO PRESSO PARROCCHIA 055 252741 bartolomeo.tuto@parrocchie.diocesifirenze.it,,www.sanbartolomeointuto.it,Scandicci,Via Salvemini snc,,43.758810,11.186289,Cattolico,"Domenicali e festive    08:00 - S. Bartolomeo in Tuto, 10:00 - S. Bartolomeo in Tuto, 11:30 - S. Bartolomeo in Tuto. Feriali    17:00 - S. Bartolomeo in Tuto. Prefestive   17:00 - S. Bartolomeo in Tuto",false,,,,,,,,,,,
Maria SS.ma Ausiliatrice,,Maria SS.ma Ausiliatrice,,,Vaglia,via Montorsoli,40,43.842408,11.289310,Cattolico,,false,055-401448,,,,,,,,,,
S. Bartolomeo nella Badia a Ripoli,,Vicariato di Porta Romana. Don Antonino Spano' PARROCO   Don Dr. Fabio Marella  VICARIO PARROCCHIALE 055 6820507 bartolomeo.ripoli@parrocchie.diocesifirenze.it,,http://www.badiadiripoli.it,Firenze,Via di Ripoli,219,43.755160,11.299460,Cattolico,"Domenicali e festive   10:00, 10:30 - San Pierino, 11:30, 18:00. Feriali    08:30, 17:00. Prefestive   18:00",false,,,,,,,,,,,
S. Biagio a Petriolo,,Vicariato di Porta al Prato. Don Dr. Gilbert Louis Shahzad AMMINISTRATORE PARROCCHIALE 055 317406,,,Firenze,Via San Biagio,18,43.794702,11.193052,Cattolico,"Domenicali e festive   08:00 - San Biagio a Petriolo, 11:00 - San Biagio a Petriolo. Feriali   18:00 - San Biagio a Petriolo. Prefestive    18:00 - San Biagio a Petriolo",false,,,,,,,,,,,
San Michele a Muscoli,,San Michele a Muscoli,,,Fiesole,via San Clemente,7,43.815620,11.320370,Cattolico,,false,055-59531,,,,,,,,,,
Corpus Domini al Bandino,,Vicariato di Porta Romana. Diac. Franco Brogi SERVIZIO PRESSO PARROCCHIA Don Edoardo Biotti PARROCO  P. Antonio Tamburini VICARIO PARROCCHIALE    Don Alphonse Onema Ethoyi  SERVIZIO PRESSO PARROCCHIA 055 6818091 bandino@parrocchie.diocesifirenze.it,,,Firenze,Via Gran Bretagna,62,43.759750,11.291480,Cattolico,"Domenicali e festive   08:45 - Corpus Domini al Bandino, 10:30 - Corpus Domini al Bandino, 12:00 - Corpus Domini al Bandino, 18:30 - Corpus Domini al Bandino. Feriali   08:30 - Corpus Domini al Bandino, 18:00 - Corpus Domini al Bandino. Prefestive    18:0",false,,,,,,,,,,,
San Niccolo' a Nipozzano,,San Niccolo' a Nipozzano,,,Pelago,,,43.784900,11.470440,Cattolico,,false,,,,,,,,,,,
Cuore Immacolato di Maria SS. a Ortimino,,Vicariato della Valdelsa Fiorentina. Don Marco Domenico Viola AMMINISTRATORE PARROCCHIALE 0571 674071 ortimino@parrocchie.diocesifirenze.it,,,Montespertoli,Via Volterrana Sud,139,43.635980,11.023690,Cattolico,Domenicali e festive    10:00 - Cuore Immacolato di Maria a Ortimino,false,,,,,,,,,,,
Santa Maria a Ontignano,,Santa Maria a Ontignano,,,Fiesole,via Ontignano,64,43.800090,11.336800,Cattolico,,false,338-2765949,,,,,,,,,,
S. Carlo,,Vicariato di S. Giovanni. Mons. Giancarlo Corti AMMINISTRATORE PARROCCHIALE 055 210305,,,Firenze,Via dei Tavolini,7,43.770850,11.255530,Cattolico,,false,,,,,,,,,,,
San Tommaso a Ostina,,San Tommaso a Ostina,,,Reggello,,,43.653790,11.513230,Cattolico,,false,,,,,,,,,,,
S. Cassiano a SAN CASCIANO VAL DI PESA,,Vicariato di S. Casciano Montesp. Tav.. Diac. Mario Fusi SERVIZIO PRESSO PARROCCHIA   Don Massimiliano Gori PARROCO   Don Dr. Bledar (Pio) Xhuli VICARIO PARROCCHIALE 055 820218 pievepesainter@free.it,,,San Casciano in Val di Pesa,Via Guarducci,8,43.657250,11.185750,Cattolico,"Domenicali e festive   08:00 - San Cassiano, 10:00 - San Cassiano, 11:15 - San Cassiano, 17:30 - San Cassiano. Feriali   08:30 - San Cassiano, 17:30 - San Cassiano. Prefestive   17:30 - San Cassiano",false,,,,,,,,,,,
San Martino a Pagiano,,San Martino a Pagiano,,,Pelago,,41,43.748520,11.510760,Cattolico,,false,055-8301190,,,,,,,,,,
San Miniato a Pagnolle,,San Miniato a Pagnolle,,,Pontassieve,Pagnolle Molin del Piano,,43.774447,11.438414,Cattolico,,false,055-8364260,,,,,,,,,,
S. Cassiano in Padule,,Vicariato del Mugello Est. Don Giuliano Landini AMMINISTRATORE PARROCCHIALE 055 8407977,,,Vicchio,,,43.960200,11.494500,Cattolico,Domenicali e festive   10:00 - San Cassiano in Padule,false,,,,,,,,,,,
S. Caterina a Cerbaia,,Vicariato di S. Casciano Montesp. Tav.. Don Francisco Evaristo PARROCO 055 8259468 parrocchia@cerbaia.it,,,San Casciano in Val di Pesa,Via Empolese,298,43.682870,11.131110,Cattolico,Domenicali e festive   09:00 - Santa Caterina a Cerbaia. Feriali     18:00 - Santa Caterina a Cerbaia. Prefestive    18:00 - Santa Caterina a Cerbaia,false,,,,,,,,,,,
Santa Maria alle Palaie,,Santa Maria alle Palaie,,,Pelago,Via Di Lucente,15,43.770236,11.464523,Cattolico,,false,,,,,,,,,,,
S. Caterina da Siena a Coverciano,,Vicariato di Porta alla Croce. Don Luciano Genovese PARROCO   Diac. Patrizio Fabbri Ferri SERVIZIO PRESSO PARROCCHIA 055 601575 chiesasantacaterina@libero.it,,,Firenze,Via del Mezzetta,1,43.771920,11.297720,Cattolico,"Domenicali e festive   08:00 - S. Caterina a Coverciano, 10:00 - S. Caterina a Coverciano, 11:30 - S. Caterina a Coverciano, 18:30 - S. Caterina a Coverciano. Feriali    08:00 - S. Caterina a Coverciano, 18:30 - S. Caterina a Coverciano. Prefestive    18:",false,,,,,,,,,,,
Santa Maria di Loreto a Palazzolo,,Santa Maria di Loreto a Palazzolo,,,Incisa in Val d'Arno,Via Palazzolo,,43.690120,11.435689,Cattolico,,false,055-8335915,,,,,,,,,,
S. Cecilia a Decimo,,Vicariato di S. Casciano Montesp. Tav.. Don Massimiliano Gori AMMINISTRATORE PARROCCHIALE 055 8229602,,,San Casciano in Val di Pesa,Via Decimo,66,43.658920,11.195990,Cattolico,"Domenicali e festive    09:30 - Santa Cecilia a Decimo, 11:00 - Santa Cecilia a Decimo. Feriali   17:30 - Santa Cecilia a Decimo. Prefestive    17:00 - Santa Cecilia a Decimo",false,,,,,,,,,,,
San Leolino,,San Leolino,,,Greve in Chianti,via San Leolino,1,43.545731,11.313606,Cattolico,,false,055-852041,,,,,,,,,,
S. Colombano a Bargino,,Vicariato di S. Casciano Montesp. Tav.. Don Armando Ermini PARROCO 055 8249016,,,San Casciano in Val di Pesa,Via Cassia per Siena,87,43.633030,11.182870,Cattolico,"Domenicali e festive   08:00 - San Colombano a Bargino, 10:30 - La Collina, 11:45 - San Colombano a Bargino. Feriali   17:00 - San Colombano a Bargino. Prefestive   17:00 - San Colombano a Bargino",false,,,,,,,,,,,
Santa Maria a Panzano,,Santa Maria a Panzano,,,Greve in Chianti,via della Chiesa Panzano,1,43.548078,11.310284,Cattolico,,false,055-852037 -,,,,,,,,,,
S. Colombano a Settimo,,Vicariato di Scandicci. Diac. Stefano Marchi SERVIZIO PRESSO PARROCCHIA   Don Robert Swiderski AMMINISTRATORE PARROCCHIALE 055 790173 colombano.settimo@parrocchie.diocesifirenze.it,,,Scandicci,Via San Colombano,119,43.777220,11.135690,Cattolico,"Domenicali e festive    08:00 - S. Colombano a Settimo, 10:30 - S. Colombano a Settimo. Feriali   08:00 - S. Colombano a Settimo, 17:30 - S. Colombano a Settimo. Prefestive   17:30 - S. Colombano a Settimo",false,,,,,,,,,,,
San Biagio a Passignano,,San Biagio a Passignano,,,Tavarnelle Val di Pesa,,,43.578490,11.247980,Cattolico,,false,055-8071622,,,,,,,,,,
S. Cresci a Campi,,Vicariato di Campi Bisenzio. Don Michele Scudiero PARROCO 055 8998457,,,Campi Bisenzio,Via Allori,1,43.807520,11.134380,Cattolico,"Domenicali e festive   08:00 - S. Cresci a Campi, 09:30 - S. Cresci a Campi, 11:00 - S. Cresci a Campi. Feriali   07:30 - S. Cresci a Campi, 17:00 - S. Cresci a Campi. Prefestive   17:00 - S. Cresci a Campi",false,,,,,,,,,,,
San Michele a Pavelli,,San Michele a Pavelli,,,Figline Valdarno,,,43.596770,11.443040,Cattolico,,false,055-958169,,,,,,,,,,
S. Cresci e Sacra Famiglia a Sagginale,,Vicariato del Mugello Est. Don M Maurizio Tagliaferri AMMINISTRATORE PARROCCHIALE 055 8490021,,,Borgo San Lorenzo,piazza della Chiesa,70/a,43.932778,11.418056,Cattolico,"Domenicali e festive    09:15 - San Cresci a Sagginale, 11:30 - Sacra Famiglia a Sagginale. Feriali    17:00 - Sacra Famiglia a Sagginale - Dicembre-Febbraio, 17:00 - Cappella di Arliano, 17:30 - Sacra Famiglia a Sagginale - Ottobre - Dicembre e Marzo - M",false,,,,,,,,,,,
San Clemente a Pelago,,San Clemente a Pelago,,,Pelago,Piazza Cavalcanti,,43.769860,11.505640,Cattolico,,false,055-8326019 -,,,,,,,,,,
S. Cristina a Montefiridolfi,,Vicariato di S. Casciano Montesp. Tav.. P. Rosario Landrini AMMINISTRATORE PARROCCHIALE 055 8244209,,,San Casciano in Val di Pesa,Via S. Maria a Macerata,58,43.609562,11.214670,Cattolico,"Domenicali e festive   09:00 - San Andrea a Fabbrica, 10:30 - Santa Cristina a Montefiridolfi. Feriali   18:00 - Santa Cristina a Montefiridolfi. Prefestive    18:00 - Sant'Angelo a Bibbione, 21:00 - Santa Cristina a Montefiridolfi",false,,,,,,,,,,,
Santa Maria a Petriolo,,Santa Maria a Petriolo,,,Greve in Chianti,,1,43.558840,11.338110,Cattolico,,false,055-853643,,,,,,,,,,
S. Cristina a Pagnana,,Vicariato di Empoli Montelupo. Don Vieri Vivoli AMMINISTRATORE PARROCCHIALE 0571 581305,,,Empoli,Via della Motta,299,43.726940,10.892070,Cattolico,"Domenicali e festive    10:00 - S. Cristina a Pagnana. Feriali   17:00 - S. Cristina a Pagnana - Periodo ora solare, 18:00 - S. Cristina a Pagnana - Periodo ora legale",false,,,,,,,,,,,
San Giorgio a Petrognano,,San Giorgio a Petrognano,,,San Godenzo,,,43.942060,11.607000,Cattolico,,false,,,,,,,,,,,
S. Cristina a Pancole e S. Ilario a Pitigliolo,,Vicariato di Antella Ripoli e Impruneta. Don Gianluca Mozzi AMMINISTRATORE PARROCCHIALE 055 858065,,,Greve in Chianti,Via di Pancole,63,43.667650,11.285620,Cattolico,Domenicali e festive   11:30 - S. Cristina a Pancole. Prefestive   18:45 - S. Cristina a Pancole,false,,,,,,,,,,,
San Pietro a Pretrognano,,San Pietro a Pretrognano,,,Rufina,null,,43.826478,11.522532,Cattolico,,false,055-8318846,,,,,,,,,,
S. Cristofano a Novoli,,Vicariato di Porta al Prato. Diac. Alessandro Bicchi SERVIZIO PRESSO PARROCCHIA   Don Enrico Banchini AMMINISTRATORE PARROCCHIALE 055 413082 cristofano.novoli@parrocchie.diocesifirenze.it,,,Firenze,Via Alessandro Allori,108,43.796746,11.210996,Cattolico,"Domenicali e festive    08:30 - San Cristofano a Novoli, 10:30 - San Cristofano a Novoli, 12:00 - San Cristofano a Novoli. Feriali   07:30 - San Cristofano a Novoli. Prefestive     18:00 - San Cristofano a Novoli",false,,,,,,,,,,,
San Giovanni Battista Decollato,,San Giovanni Battista Decollato,,,Fiesole,via XXV Aprile,2,43.814910,11.300970,Cattolico,,false,055-541239,,,,,,,,,,
S. Cristoforo a Strada,,Vicariato di Antella Ripoli e Impruneta. Don Gianluca Mozzi PARROCO 055 858065 gimo.cristoforo@alice.it,,,Greve in Chianti,Via della Chiesa,24,43.573440,11.386150,Cattolico,"Domenicali e festive    08:00 - S. Cristoforo a Strada, 10:30 - S. Cristoforo a Strada. Feriali    07:30 - S. Cristoforo a Strada, 16:00 - S. Cristoforo a Strada.Prefestive     18:00 - S. Cristoforo a Strada",false,,,,,,,,,,,
Santa Croce al Pino,,Santa Croce al Pino,,,Firenze,via Bolognese,263,43.805700,11.272760,Cattolico,,false,055-400139,,,,,,,,,,
S. Cristoforo a Viciano,,Vicariato di Antella Ripoli e Impruneta. Don Andre Jacques Mambuene Yabu AMMINISTRATORE PARROCCHIALE 055 2020023,,,Impruneta,Via San Cristofano,26,43.723543,11.208072,Cattolico,Domenicali e festive    11:00 - San Paolo della Croce. Feriali   19:00 - San Paolo della Croce. Prefestive    17:30 - San Paolo della Croce.,false,,,,,,,,,,,
San Pietro a Pitiana,,San Pietro a Pitiana,,,Reggello,via Pieve a Pitiana  Donnini,,43.726064,11.504721,Cattolico,,false,055-860039,,,,,,,,,,
S. Croce a Quinto,,Vicariato di Sesto e Calenzano. Don Giacomo Antonio Ubbiali PARROCO    Don Felix Nervaise Mokomako VICARIO PARROCCHIALE     Don Raoul De Dieu Ngamuki Ikuma SERVIZIO PRESSO PARROCCHIA 055 442753 croce@parrocchie.diocesifirenze.it,,,Sesto Fiorentino,Via Gramsci,691,43.825550,11.215170,Cattolico,"Domenicali e festive    08:00 - Santa Croce a Quinto, 10:00 - Santa Croce a Quinto, 11:30 - Santa Croce a Quinto, 18:00. Feriali   08:30 - Santa Croce a Quinto, 08:30 - Santa Croce a Quinto, 09:30 - Cimitero, 17:30 - Santa Croce a Quinto. Prefestive    18",false,,,,,,,,,,,
San Cerbone,,San Cerbone,,,Incisa in Val d'Arno,null,46,43.650523,11.393999,Cattolico,,false,055-855049,,,,,,,,,,
S. Donato a Calenzano,,Vicariato di Sesto e Calenzano. Don Alfredo Amerighi PARROCO 055 8879116,,,Calenzano,Via San Donato,24,43.867079,11.168958,Cattolico,Feriali   17:00 - San Donato a Calenzano. Prefestive    17:00 - San Donato a Calenzano,false,,,,,,,,,,,
San Bartolomeo a Pomino,,San Bartolomeo a Pomino,,,Rufina,,76,43.814670,11.551460,Cattolico,,false,055-8318996,,,,,,,,,,
S. Donato a Chiesanuova,,Vicariato di S. Casciano Montesp. Tav.. Don Pierrot (Pier Paul) Mudju Paluku Angha PARROCO 055 8242215,,,San Casciano in Val di Pesa,Via Torino,2,43.701910,11.184420,Cattolico,"Domenicali e festive   08:00 - San Donato a Chiesanuova, 11:00 - San Donato a Chiesanuova. Feriali    07:30 - San Donato a Chiesanuova",false,,,,,,,,,,,
San Francesco,,San Francesco,,,Pelago,Piazza Verdi,1,43.777780,11.444820,Cattolico,,false,055-8368107,,,,,,,,,,
S. Donato a Cistio,,Vicariato del Mugello Est. Don Giuliano Landini AMMINISTRATORE PARROCCHIALE 055 844721,,,Vicchio,Via Cistio,21,43.914450,11.439440,Cattolico,Domenicali e festive    09:30 - San Donato a Cistio,false,,,,,,,,,,,
Santa Maria a Ponterosso,,Santa Maria a Ponterosso,,,Figline Valdarno,Piazza Pierallini,5,43.622380,11.463540,Cattolico,,false,055-9155659,,,,,,,,,,
S. Donato a Livizzano e S.Maria a Pulica,,Vicariato di Empoli Montelupo. Don Francesco Saverio Bazzoffi PARROCO   Diac. Vittorino Bezzerri SERVIZIO PRESSO PARROCCHIA 0571 671935 sandonatoalivizzano@interfree.it,,,Montespertoli,,,43.647620,11.068160,Cattolico,"Domenicali e festive   08:00 - San Donato a Livizzano, 11:00 - San Donato a Livizzano, 17:00 - San Donato a Livizzano - Periodo ora solare. Tranne il primo e l'ultimo venerdi' del mese, 18:00 - San Donato a Livizzano - Periodo ora legale. Tranne il primo e",false,,,,,,,,,,,
San Martino a Pontifogno,,San Martino a Pontifogno,,,Reggello,,,43.684870,11.551940,Cattolico,,false,,,,,,,,,,,
S. Giovanni Evangelista a Empoli,,Vicariato di Empoli Montelupo. Don Wieslaw Olfier PARROCO   Diac. Giuseppe Aiello  SERVIZIO PRESSO PARROCCHIA    Don Dr. Matteo Ambu  VICARIO PARROCCHIALE 0571 76007,,,Empoli,Via Puccini,31,43.721970,10.954950,Cattolico,"Domenicali e festive    08:00 - S. Giovanni Evangelista ad Empoli, 10:00 - S. Giovanni Evangelista ad Empoli, 11:30 - S. Giovanni Evangelista ad Empoli, 18:00 - S. Giovanni Evangelista ad Empoli.Feriali     08:30 - S. Giovanni Evangelista ad Empoli, 18:00",false,,,,,,,,,,,
San Giacomo,,San Giacomo,,,Reggello,viale Dante Alighieri,1,43.682522,11.535696,Cattolico,,false,055-868177,,,,,,,,,,
S. Giovanni Evangelista a Montelupo,,Vicariato di Empoli Montelupo. Don Francesco Catelani PARROCO    Diac. Giampaolo Agatensi  SERVIZIO PRESSO PARROCCHIA      Don Daniele Centorbi  VICARIO PARROCCHIALE    Don Philippe Mulondo Nkoy SERVIZIO PRESSO PARROCCHIA 0571 51048 montelupo@parrocchie.d,,,Montelupo Fiorentino,Via Baccio da Montelupo,37,43.733460,11.022330,Cattolico,"Domenicali e festive    08:00 - S. Giovanni Battista a Montelupo, 09:30 - S. Caterina e S. Francesco al Turbone, 11:30 - S. Giovanni Battista a Montelupo. Feriali    18:00 - S. Giovanni Battista a Montelupo. Prefestive    18:00 - S. Giovanni Battista a Mo",false,,,,,,,,,,,
San leolino a Rignano,,San leolino a Rignano,,,Rignano sull'Arno,via della Pieve,1,43.723340,11.454910,Cattolico,,false,055-8348626,,,,,,,,,,
S. Giovanni Gualberto a Pontassieve,,Vicariato di Pontassieve. Don Luciano Santini PARROCO    Diac. Andrea Cecchi SERVIZIO PRESSO PARROCCHIA   Don Dr. Luca Carnasciali VICARIO PARROCCHIALE   Don Gerard Kilambwe Ngandu SERVIZIO PRESSO PARROCCHIA 055 8368150 luciano.santini@gmail.com,,,Pontassieve,Via Algeri,5,43.769600,11.434970,Cattolico,"Domenicali e festive    08:00 - San Giovanni Gualberto a Pontassieve, 10:00 - San Giovanni Gualberto a Pontassieve, 11:30 - San Giovanni Gualberto a Pontassieve. Feriali    18:00 - San Giovanni Gualberto a Pontassieve. Prefestive    18:00 - San Giovanni G",false,,,,,,,,,,,
Santa Maria Immacolata a Rignano,,Santa Maria Immacolata a Rignano,,,Rignano sull'Arno,Piazza XXV Aprile,23,43.722600,11.453480,Cattolico,,false,055-8348079 -,,,,,,,,,,
S. Giovanni in Sugana,,Vicariato di S. Casciano Montesp. Tav.. Don Francisco Evaristo AMMINISTRATORE PARROCCHIALE 055 825062,,,San Casciano in Val di Pesa,Via Empolese,73,43.674890,11.153090,Cattolico,"Domenicali e festive    09:00 - Santa Caterina a Cerbaia - 1° dom di ottobre - 1° di giugno, 11:00 - San Giovanni in Sugana - tutto l'anno. Feriali   18:00 - Santa Caterina a Cerbaia - ora solare, 18:30 - Santa Caterina a Cerbaia - ora legale.Prefestive",false,,,,,,,,,,,
Sant'Elena a Rincine,,Sant'Elena a Rincine,,,Londa,via Rincine,7,43.868400,11.603570,Cattolico,,false,055-8354105,,,,,,,,,,
S. Giovanni Maggiore a Panicaglia,,Vicariato del Mugello Est. Don Paolo Ferrantini PARROCO,,,Borgo San Lorenzo,Via San Giovanni Maggiore,,43.975350,11.397560,Cattolico,"Domenicali e festive   08:00 - S. Maria a Pulicciano, 09:00 - S. Maria a Salto, 11:00 - S. Giovanni Maggiore a Panicaglia",false,,,,,,,,,,,
Sant'Andrea a Ripalta,,Sant'Andrea a Ripalta,,,Figline Valdarno,,,43.602540,11.487410,Cattolico,,false,055-958518,,,,,,,,,,
S. Giovannino dei Cavalieri,,Vicariato di S. Giovanni. Mons. Dr. Andrea Bellandi PARROCO 055 470864 giovannin@oparrocchie.diocesifirenze.it,,,Firenze,Via San Gallo,66,43.780090,11.258610,Cattolico,Domenicali e festive    11:30 - Orario Estivo 10.30. Feriali    08:10. Prefestive    18:45,false,,,,,,,,,,,
Sant'Egidio,,Sant'Egidio,,,Pelago,,,43.767160,11.522910,Cattolico,,false,055-8326717,,,,,,,,,,
San Lorenzo a Rona,,San Lorenzo a Rona,,,Reggello,,1,43.643990,11.472410,Cattolico,,false,055-861181,,,,,,,,,,
S. Giuliano a Settimo,,Vicariato di Scandicci. Don Dr. Massimo Cardoni PARROCO 055 7310077 giuliano.settimo@parrocchie.diocesifirenze.it,,www.pieveasettimo.it,Scandicci,Via della Pieve,44,43.769790,11.149280,Cattolico,"Domenicali e festive    08:00 - S. Giuliano a Settimo, 11:00 - S. Giuliano a Settimo, 18:00 - S. Giuliano a Settimo.Feriali    08:00 - S. Giuliano a Settimo, 18:00 - S. Giuliano a Settimo.Prefestive    18:00 - S. Giuliano a Settimo",false,,,,,,,,,,,
Cristo Re,,Cristo Re,,,Rignano sull'Arno,via la Pira,21,43.769290,11.424360,Cattolico,,false,055-8303001,,,,,,,,,,
S. Giuseppe a Firenze,,Vicariato di S. Giovanni. Diac. Ivano Vicini SERVIZIO PRESSO PARROCCHIA     P. Carlo Guarnieri  AMMINISTRATORE PARROCCHIALE 055 2476089,,,Firenze,Via delle Casine,9,43.767380,11.265250,Cattolico,"Domenicali e festive    10:00 - S. Giuseppe, 11:30 - S. Giuseppe. Feriali     18:00 - S. Giuseppe. Prefestive    18:00 - S. Giuseppe",false,,,,,,,,,,,
S. Giuseppe Artigiano a Sesto F.no,,Vicariato di Sesto e Calenzano. P. Oronzo Stella PARROCO    P. Ferruccio Corazzolla VICARIO PARROCCHIALE    P. Dante Alcides Angel Alvarado  VICARIO PARROCCHIALE 055 4207328 sangiuseppe.sesto@alice.it,,,Sesto Fiorentino,Via Calenzano,70,43.842170,11.190440,Cattolico,"Domenicali e festive    07:30 - San Giuseppe Artigiano, 10:00 - San Giuseppe Artigiano, 11:30 - San Giuseppe Artigiano, 18:00 - San Giuseppe Artigiano. Feriali    08:30 - San Giuseppe Artigiano. Prefestive    18:00 - San Giuseppe Artigiano.",false,,,,,,,,,,,
San Giusto a Rota,,San Giusto a Rota,,,Reggello,,,43.675823,11.529461,Cattolico,,false,,,,,,,,,,,
S. Giuseppe Artigiano Passo dei Pecorai,,Vicariato di S. Casciano Montesp. Tav.. Don Gianluca Mozzi AMMINISTRATORE PARROCCHIALE   Diac. Roberto Massimo SERVIZIO PRESSO PARROCCHIA     Don Herve' Mamboueni Mboumba VICARIO PARROCCHIALE  passodeipecorai@parrocchie.diocesifirenze.it,,,Greve in Chianti,Via Falconi,2,43.621065,11.286812,Cattolico,"Domenicali e festive    09:30 - San Giuseppe Artigiano.Feriali    17:00 - San Giuseppe Artigiano - Periodo ora solare, 18:00 - San Giuseppe Artigiano - Periodo ora legale.",false,,,,,,,,,,,
San Miniato a Rubbiana,,San Miniato a Rubbiana,,,Greve in Chianti,via Rubbiana,,43.672990,11.359570,Cattolico,,false,,,,,,,,,,,
San Martino a Rufina,,San Martino a Rufina,,,Rufina,Piazza umberto I,7,43.826970,11.490330,Cattolico,,false,055-8397326,,,,,,,,,,
S. Giusto a Ema,,Vicariato di Antella Ripoli e Impruneta. Can. Dr. Gianni Cioli AMMINISTRATORE PARROCCHIALE 055 640649,,,Bagno a Ripoli,Via di Vacciano,50 GRASSINA,43.742390,11.281830,Cattolico,"Domenicali e festive    11:00 - S. Giusto a Ema. Prefestive     16:30 - S. Giusto a Ema - Periodo ora solare, 17:30 - S. Giusto a Ema - Periodo ora legale",false,,,,,,,,,,,
Immacolata Concezione alla Ginestra,,Vicariato delle Signe. Don James Savarirajan PARROCO 055 8713251 ginestra@parrocchie.diocesifirenze.it,,,Lastra a Signa,,,43.712570,11.068430,Cattolico,"Domenicali e festive    08:00 - Immacolata Concezione alla Ginestra, 11:00 - Immacolata Concezione alla Ginestra.Feriali    08:30 - Immacolata Concezione alla Ginestra.",false,,,,,,,,,,,
Santa Brigida,,Santa Brigida,,,Pontassieve,via Piana,28,43.852210,11.394770,Cattolico,,false,055-8300021 -,,,,,,,,,,
Immacolata e S. Martino a Montughi,,Vicariato di Rifredi. Don Dr. Massimiliano Gabbricci  AMMINISTRATORE PARROCCHIALE     Don Albert Bakonou SERVIZIO PRESSO PARROCCHIA 055 475301 immacolata.montughi@parrocchie.diocesifirenze.it,,,Firenze,Via Paoletti,36,43.790060,11.253330,Cattolico,"Domenicali e festive    08:30, 10:00 - Immacolata e S. Martino a Montughi, 11:30 - Immacolata e S. Martino a Montughi, 18:00. Feriali    18:00. Prefestive    18:00",false,,,,,,,,,,,
Santa Maria in Campo,,Santa Maria in Campo,,,Firenze,Piazzetta S. Maria in Campo,2,43.772160,11.257960,Cattolico,,false,055-2381383,,,,,,,,,,
S. Ilario a Colombaia,,Vicariato di Porta Romana. Diac. Paolo Sirigatti SERVIZIO PRESSO PARROCCHIA   Don Dr. Pedro Daniel Dalio AMMINISTRATORE PARROCCHIALE 055 220576,,,Firenze,Via Sant Ilario,10,43.757659,11.238812,Cattolico,"Domenicali e festive    08:00 - S. Ilario, 09:00 - Cappella della Pace, 10:00 - S. Ilario, 11:30 - S. Ilario. Feriali     08:00 - S. Ilario, 18:00 - S. Ilario. Prefestive    18:00 - S. Ilario",false,,,,,,,,,,,
Santa Maria a Sant'Ellero,,Santa Maria a Sant'Ellero,,,Reggello,via Contessa Itta,,43.737770,11.475140,Cattolico,,false,,,,,,,,,,,
S. Jacopo a Querceto,,Vicariato di Sesto e Calenzano. P. Ferruccio Zammataro PARROCO 055 4211736,,,Sesto Fiorentino,Via Bortolotti,33,43.845700,11.203690,Cattolico,"Domenicali e festive    08:30 - Monastero Suore Domenicane, 11:00 - San Jacopo a Querceto. Feriali    17:30 - San Jacopo a Querceto. Prefestive    17:30 - San Jacopo a Querceto",false,,,,,,,,,,,
Santa Margherita a Saletta,,Santa Margherita a Saletta,,,Fiesole,via Caldine,10,43.830660,11.325850,Cattolico,,false,055-540868,,,,,,,,,,
San Babila,,San Babila,,,Dicomano,,,43.920080,11.571347,Cattolico,,false,055-8374070,,,,,,,,,,
S. Jacopo a Sambuca,,Vicariato di S. Casciano Montesp. Tav.. Don Attilio Belladelli PARROCO 055 8071612,,,Tavarnelle Val di Pesa,Via Senese,36,43.566210,11.218590,Cattolico,,false,,,,,,,,,,,
S. Jacopo ad Avane,,Vicariato di Empoli Montelupo. P. Donath Rebeiro AMMINISTRATORE PARROCCHIALE,,,Empoli,Via della Motta,2,43.725200,10.921830,Cattolico,"Domenicali e festive    08:00 - S. Jacopo ad Avane, 11:00 - S. Jacopo ad Avane.",false,,,,,,,,,,,
San Clemente a Rignano,,San Clemente a Rignano,,,Reggello,San Clemente,,43.719840,11.457160,Cattolico,,false,055-8654534,,,,,,,,,,
San Domenico di Fiesole,,San Domenico di Fiesole,,,Fiesole,Piazza San Domenico,4,43.801360,11.285840,Cattolico,,false,055-598837,,,,,,,,,,
S. Jacopo al Girone,,Vicariato di Pontassieve. Don Simone Pestelli AMMINISTRATORE PARROCCHIALE 055 6593300 girone@parrocchie.diocesifirenze.it,,http://www.parrocchiagirone.it,Fiesole,Via dell Arno,1,43.768400,11.338520,Cattolico,Domenicali e festive   11:00 - San Jacopo al Girone. Feriali   17:00 - San Jacopo al Girone.Prefestive    17:00 - San Jacopo al Girone,false,,,,,,,,,,,
S. Jacopo alla Cavallina,,Vicariato del Mugello Ovest. Don Leonardo Guerri PARROCO     Don Dr. Joseph Vazhuthanapally  VICARIO PARROCCHIALE    Don Jean de Dieu Noel Elondabare  VICARIO PARROCCHIALE 055 8420035,,,Barberino di Mugello,Via della Chiesa,37,43.983700,11.237100,Cattolico,"Domenicali e festive    08:30, 10:30.Feriali    17:00 - - da Ottobre a Maggio. Prefestive    17:30",false,,,,,,,,,,,
San Gaudenzo,,San Gaudenzo,,,San Godenzo,Piazza Dante,5,43.925930,11.618400,Cattolico,,false,055-8374061,,,,,,,,,,
S. Jacopo alla Traversa,,Vicariato di Firenzuola. Don Didier Alain Mbungu Khonde  AMMINISTRATORE PARROCCHIALE 055 815269,,,Firenzuola,,,44.135970,11.375510,Cattolico,Prefestive    17:00 - S. Jacopo alla Traversa,false,,,,,,,,,,,
San Paolo a Ema,,San Paolo a Ema,,,Greve in Chianti,via della Chiesa,,43.660503,11.298057,Cattolico,,false,055-855049,,,,,,,,,,
S. Jacopo in Polverosa,,Vicariato di Porta al Prato. Don Fulvio Capitani PARROCO     Don Dr. Marco Paglicci  VICARIO PARROCCHIALE 055 354600 jacopo@parrocchie.diocesifirenze.it,,,Firenze,Via Benedetto Marcello,24,43.782280,11.239300,Cattolico,"Domenicali e festive    08:00 - San Jacopo in Pol1sa, 10:00 - San Jacopo in Pol1sa, 11:30 - San Jacopo in Pol1sa, 18:00 - San Jacopo in Pol1sa. Feriali    07:30 - San Jacopo in Pol1sa, 18:00 - San Jacopo in Pol1sa. Prefestive    18:00 - San Jacopo in Pol1",false,,,,,,,,,,,
San Cristoforo in Perticaia,,San Cristoforo in Perticaia,,,Rignano sull'Arno,San Cristoforo,34,43.714869,11.395175,Cattolico,,false,,,,,,,,,,,
Madonna del Sasso,,Madonna del Sasso,,,Pontassieve,,,43.774447,11.438414,Cattolico,,false,055-8300013,,,,,,,,,,
S. Leonardo a Cerbaiola,,Vicariato di Empoli Montelupo. Don Welars Kalimaze Nzabanita AMMINISTRATORE PARROCCHIALE 0571 924658,,,Empoli,Via della Chiesa,,43.677670,10.988170,Cattolico,,false,,,,,,,,,,,
S. Leonardo in Arcetri,,Vicariato di Porta Romana. Don Leonardo Altobelli ARROCO 055 223084,,,Firenze,Via S. Leonardo,25,43.759616,11.254993,Cattolico,Domenicali e festive    11:00 - S. Leonardo in Arcetri,false,,,,,,,,,,,
San Bartolomeo,,San Bartolomeo,,,Figline Valdarno,via Giovanni da Verrazzano,47,43.609843,11.476267,Cattolico,,false,055-9544870,,,,,,,,,,
S. Leone Magno a Firenze,,Vicariato di Porta Romana. P. Alfio Orlando Campagna VICARIO PARROCCHIALE     P. Antonio Benedetto Pinna PARROCO 055 2320056,,,Firenze,Via Beata Angela,7,43.751080,11.236650,Cattolico,"Domenicali e festive    08:30 - Cappella Oasi, 09:30 - S. Leone, 11:00 - S. Leone. Feriali    17:00 - S. Leone.Prefestive    17:00 - S. Leone",false,,,,,,,,,,,
Santa Maria Regina a Scopeti,,Santa Maria Regina a Scopeti,,,Rufina,,,43.848260,11.501680,Cattolico,,false,,,,,,,,,,,
S. Lorenzo a Borgo S. Lorenzo,,Vicariato del Mugello Est. Don M Maurizio Tagliaferri  PARROCO   Diac. Andrea Salvadori SERVIZIO PRESSO PARROCCHIA   Don Gianni Castorani  VICARIO PARROCCHIALE   Don Francesco Bolognesi  VICARIO PARROCCHIALE Don Gabriel Fartadi  VICARIO PARROCCHIALE  Don,,,Borgo San Lorenzo,Via Cocchi,4,43.953850,11.387510,Cattolico,"Domenicali e festive    07:30 - S. Lorenzo a Borgo S. Lorenzo, 10:00 - S. Lorenzo a Borgo S. Lorenzo, 11:30 - S. Lorenzo a Borgo S. Lorenzo, 18:00 - S. Lorenzo a Borgo S. Lorenzo - Eccetto primo venerdi' del mese. Feriali    08:00 - S. Lorenzo a Borgo S. L",false,,,,,,,,,,,
Santa Maria a Sociana,,Santa Maria a Sociana,,,Rignano sull'Arno,,1,43.709765,11.465081,Cattolico,,false,,,,,,,,,,,
S. Lorenzo a Campi,,Vicariato di Campi Bisenzio. Diac. Marco De Bastiani  SERVIZIO PRESSO PARROCCHIA    Don Ivo Basilio Marchi PARROCO   Don Jonas Munoz Espinoza  SERVIZIO PRESSO PARROCCHIA  Don Michele Pieravanti VICARIO PARROCCHIALE 055 8953003 lorenzo.campi@parrocchie.dio,,,Campi Bisenzio,Via San Lorenzo,54,43.823493,11.128753,Cattolico,"Domenicali e festive    07:00 - S. Lorenzo a Campi, 09:00 - S. Lorenzo a Campi, 10:00 - Chiesa delle Suore Beata Teresa della Croce, 11:00 - S. Lorenzo a Campi. Feriali    05:00 - Chiesa delle Suore Beata Teresa della Croce - Periodo ora solare, 06:00 - C",false,,,,,,,,,,,
Santa Maria a Tartigliese,,Santa Maria a Tartigliese,,,Figline Valdarno,,,43.595060,11.492910,Cattolico,,false,055-952458,,,,,,,,,,
San Pietro a Terreno,,San Pietro a Terreno,,,Figline Valdarno,,1,43.642090,11.417060,Cattolico,,false,055-9500014,,,,,,,,,,
BASILICA DI SAN LORENZO,BASILICA DI SAN LORENZO,BASILICA DI SAN LORENZO,BASILICA DI SAN LORENZO,,Firenze,PIAZZA DI SAN LORENZO,,43.774795,11.254716,Cattolico,"Messe feriali (lunedi'-sabato): 9:30 e 18.
Prefestivi: 18.
Messe festive: 9:30, 11 e 18.",false,+39 055 216634,,,Catholic,+39 055 216634,,Da Piazza Stazione pochi minuti a piedi.,A few minutes walk from Piazza Stazione.,"Weekday mass (Monday-Saturday): 9:30am and 6pm.
Sunday and holidays: 9:30, 11am and 6pm.
The day before a holiday: 6pm",Accessibile,Fully accessible
S. Lorenzo a Montegufoni,,Vicariato di S. Casciano Montesp. Tav.. Don Roberto Tempestini PARROCO  Don Dominique Tinoudji SERVIZIO PRESSO PARROCCHIA 0571 671130,,,Montespertoli,Via Volterrana Nord,159,43.672020,11.102110,Cattolico,,false,,,,,,,,,,,
San Stefano a Torri,,San Stefano a Torri,,,Rignano sull'Arno,,1,43.746290,11.447380,Cattolico,,false,055-8305054,,,,,,,,,,
San Gaudenzo a Torsoli,,San Gaudenzo a Torsoli,,,Greve in Chianti,,1,43.559900,11.390760,Cattolico,,false,055-851011,,,,,,,,,,
S. Lorenzo a Pietramala,,Vicariato di Firenzuola. Don Emanuele Dondoli PARROCO 055 813215 san.lor@tin.it,,,Firenzuola,Via Canonica,1,44.164648,11.333055,Cattolico,"Domenicali e festive    11:00 - S. Lorenzo a Pietramala. Feriali    15:00 - Casa di riposo nuova villa Valverde, 16:00 - S. Lorenzo a Pietramala.Prefestive    15:30 - San Lorenzo al Peglio - Escluso il primo sabato del mese",false,,,,,,,,,,,
Sant'Andrea a Tosi,,Sant'Andrea a Tosi,,,Reggello,Piazza Indipendenza,11,43.750000,11.529890,Cattolico,,false,055-864506,,,,,,,,,,
S. Lorenzo a Ponte a Greve,,Vicariato di Porta S. Frediano. Don Marco Cioni PARROCO   Don Fabio Minatti VICARIO PARROCCHIALE 055 782998 ponteagreve@parrocchie.diocesifirenze.it,,,Firenze,Via Pisana,837,43.767540,11.190410,Cattolico,"Domenicali e festive    07:30 - S. Lorenzo a Ponte a Greve, 10:00 - S. Lorenzo a Ponte a Greve, 11:30 - S. Lorenzo a Ponte a Greve. Feriali    08:30 - S. Lorenzo a Ponte a Greve - Eccetto il 1° venerdi' del mese, 18:00.Prefestive    18:00 - S. Lorenzo a Po",false,,,,,,,,,,,
S. Lorenzo a Serpiolle,,Vicariato di Rifredi. P. Dr. Filippo Belli AMMINISTRATORE PARROCCHIALE 055 4255113,,,Firenze,Via di Serpiolle,4,43.823360,11.253390,Cattolico,"Domenicali e festive    08:00 - S. Lorenzo a Serpiolle, 11:00 - S. Lorenzo a Serpiolle. Prefestive    17:00 - Cappella delle Masse - Periodo ora solare, 18:00 - Cappella delle Masse - Periodo ora legale",false,,,,,,,,,,,
Santa Margherita a Tosina,,Santa Margherita a Tosina,,,Pelago,,3,43.797750,11.539670,Cattolico,,false,055-8321621,,,,,,,,,,
Sacro cuore di Gera'¹ a Troghi,,Sacro cuore di Gera'¹ a Troghi,,,Rignano sull'Arno,via Roma,63,43.717749,11.450778,Cattolico,,false,055-8307021,,,,,,,,,,
S. Lorenzo a Vicchio di Rimaggio,,Vicariato di Antella Ripoli e Impruneta. Don Andrea Faberi AMMINISTRATORE PARROCCHIALE 055 630080,,,Bagno a Ripoli,Via Vicchio e Paterno,22,43.756730,11.342830,Cattolico,Domenicali e festive    10:30 - San Lorenzo a Vicchio di Rimaggio,false,,,,,,,,,,,
S. Lorenzo a Villore,,Vicariato del Mugello Est. Don Giuliano Landini AMMINISTRATORE PARROCCHIALE,,,Vicchio,,,43.960200,11.494500,Cattolico,Domenicali e festive    09:30 - Santa Maria a Meleto,false,,,,,,,,,,,
S. Pietro a Turicchi,,S. Pietro a Turicchi,,,Rufina,,,43.850290,11.530700,Cattolico,,false,,,,,,,,,,,
Cuore Immacolato di Maria,,Cuore Immacolato di Maria,,,Reggello,Piazza Tasso,33,43.643190,11.511170,Cattolico,,false,055-8656712,,,,,,,,,,
S. Lorenzo alle Rose,,Vicariato di Antella Ripoli e Impruneta. Don Raffaele Palmisano AMMINISTRATORE PARROCCHIALE 055 2020465,,,Impruneta,Vicolo delle Rose,3,43.711010,11.221240,Cattolico,"Domenicali e festive    10:30 - S. Lorenzo alle Rose.Prefestive    17:00 - S. Lorenzo alle Rose - Periodo ora solare, 18:00 - S. Lorenzo alle Rose - Periodo ora legale",false,,,,,,,,,,,
S. Luca a Vingone,,Vicariato di Scandicci. Don Alessandro Rugi PARROCO    Diac. Paolo Baiardi SERVIZIO PRESSO PARROCCHIA 055 741627,,,Scandicci,Via Pacchi Gaetano,3,43.750290,11.175030,Cattolico,"Domenicali e festive    07:30 - S. Luca a Vingone, 09:30 - S. Luca a Vingone, 11:00 - S. Luca a Vingone, 18:00 - S. Luca a Vingone. Feriali  18:00 - S. Luca a Vingone. Prefestive    18:00 - S. Luca a Vingone",false,,,,,,,,,,,
Santa Maria a Vallombrosa,,Santa Maria a Vallombrosa,,,Reggello,Vallombrosa,115,43.731930,11.555790,Cattolico,,false,055-862251 -,,,,,,,,,,
S. Lucia a Settimello,,Vicariato di Sesto e Calenzano. Don Leonardo De Angelis PARROCO 055 882098,,,Calenzano,Via della Chiesa,21,43.850270,11.181013,Cattolico,"Domenicali e festive    09:00 - Istituto San Giuseppe, 10:30. Feriali    17:00. Prefestive    18:00",false,,,,,,,,,,,
Santa Maria a Vicchiomaggio,,Santa Maria a Vicchiomaggio,,,Greve in Chianti,via Vicchiomaggio,,43.618810,11.302360,Cattolico,,false,055-853085,,,,,,,,,,
S. Lucia a Trespiano,,Vicariato di Porta alla Croce. Don Servais Oyetunde Ayeni AMMINISTRATORE PARROCCHIALE 055 400258,,,Firenze,Via Santa Lucia,6,43.774870,11.243563,Cattolico,Domenicali e festive    11:00 - S. Lucia a Trespiano. Feriali    18:00 - S. Lucia a Trespiano. Prefestive   18:30 - Madonnina,false,,,,,,,,,,,
San Lorenzo a Vierle,,San Lorenzo a Vierle,,,Londa,,,43.832770,11.580600,Cattolico,,false,055-8351546,,,,,,,,,,
S. Lucia alla Sala,,Vicariato di Porta al Prato. Diac. Renato Giotti SERVIZIO PRESSO PARROCCHIA     Don Paolo Anfuso AMMINISTRATORE PARROCCHIALE   Don Jacob Kabamba Kabamba SERVIZIO PRESSO PARROCCHIA 055 310240 sala@parrocchie.diocesifirenze.it,,,Firenze,Via della Sala,87,43.796410,11.172410,Cattolico,"Domenicali e festive    08:00 - Santa Lucia alla Sala, 11:00 - Santa Lucia alla Sala. Feriali    17:00 - Santa Lucia alla Sala, 18:00 - Santa Lucia alla Sala. Prefestive    17:00 - Santa Lucia alla Sala, 18:00 - Santa Lucia alla Sala",false,,,,,,,,,,,
Santi Cosma e Damiano aL Vivaio,,Santi Cosma e Damiano aL Vivaio,,,Incisa in Val d'Arno,via del Vivaio,12,43.646760,11.450960,Cattolico,,false,055-8335022,,,,,,,,,,
San Michele a Volognano,,San Michele a Volognano,,,Rignano sull'Arno,,184,43.758620,11.448020,Cattolico,,false,055-8303001,,,,,,,,,,
S. Lucia de Magnoli,,Vicariato di Porta Romana. Don Grzegorz Sierzputowski AMMINISTRATORE PARROCCHIALE 055 2342436 sldm@libero.it,,www.santaluciadeimagnoli.com,Firenze,Via dei Bardi,22,43.765380,11.256840,Cattolico,"Domenicali e festive    10:00 - Santa Lucia de' Magnoli, 12:00 - Santa Lucia de' Magnoli.Feriali    17:30 - Santa Lucia de' Magnoli.Prefestive    17:30 - Santa Lucia de' Magnoli",false,,,,,,,,,,,
S. Lucia sul Prato,,Vicariato di S. Giovanni. Don Paolo Arzani PARROCO 055 217887,,,Firenze,Via Santa Lucia,10,43.774590,11.243480,Cattolico,"Domenicali e festive    09:00 - S. Lucia sul Prato, 10:30 - S. Lucia sul Prato, 12:00 - S. Lucia sul Prato.Feriali    18:00 - S. Lucia sul Prato. Prefestive    18:00 - S. Lucia sul Prato",false,,,,,,,,,,,
Madonna del Rosario e S.Pio V a Ponzano,,Vicariato di Empoli Montelupo. Don Dr. Luigi Agostini AMMINISTRATORE PARROCCHIALE    Don Emmanuel Uwayezu 	VICARIO PARROCCHIALE 0571 922163 ponzano@parrocchie.diocesifirenze.it,,,Empoli,Via Ponzano,39,43.713410,10.950090,Cattolico,"Domenicali e festive    08:00 - San Pio V, 09:00 - Madonna del Rosario, 11:15 - Madonna del Rosario. Feriali    08:30 - Madonna del Rosario - il lunedi' solo durante l'ora solare, 19:00 - Madonna del Rosario - Periodo ora legale. Prefestive    18:00 - Mado",false,,,,,,,,,,,
Madonna della Tosse a Firenze,,Vicariato di Porta alla Croce. Don Giacomino Stinghi PARROCO 055 571168 madonnatosse@parrocchie.diocesifirenze.it,,,Firenze,Largo Adone Zoli,1,43.786570,11.265180,Cattolico,"Domenicali e festive    09:00, 10:30 - Madonna del Buon Consiglio (Gesuiti), 11:00, 19:00 - Madonna del Buon Consiglio (Gesuiti). Feriali    08:30, 19:00 - Madonna del Buon Consiglio (Gesuiti). Prefestive    18:00, 19:00 - Madonna del Buon Consiglio (Gesu",false,,,,,,,,,,,
Maria SS. Madre di Dio a Cambiano-Sala,,Vicariato della Valdelsa Fiorentina. Don Gaetano Risicato PARROCO 0571 582030,,,Castelfiorentino,Via Sala,270,43.625830,10.968150,Cattolico,"Domenicali e festive    08:00 - S.Bartolomeo a Sala, 11:00 - S. Prospero a Cambiano. Feriali    12:00 - S.Bartolomeo a Sala - Celebrazione saltuaria l'orario cambia, 12:00 - S. Prospero a Cambiano - Celebrazione saltuaria l'orario cambia. Prefestive    15",false,,,,,,,,,,,
BASILICA DI SAN MARCO,BASILICA DI SAN MARCO,BASILICA DI SAN MARCO,BASILICA DI SAN MARCO,,Firenze,PIAZZA DI SAN MARCO,2,43.778146,11.258857,Cattolico,"Messe feriali: 7:30 e 18.
Messe festive: 11, 12 e 18.",false,+39 055 287628,,,Catholic,+39 055 287628,,"Da Piazza Stazione bus ATAF 14 (direzione Ripa/Il Girone), bus ATAF 17 (direzione Coverciano/Viale Verga) o bus ATAF 23 (direzione Sorgane/Nave a Rovezzano).","From Piazza Stazione ATAF bus 14 (direction Ripa/Il Girone), ATAF bus 17 (direction Coverciano/Viale Verga) or ATAF bus 23 (direction Sorgane/Nave a Rovezzano).","Weekday mass: 7:30am and 6pm.
Sundays and holidays: 11am, 12pm and 6pm.",Accessibile,Fully accessible
S. Marco Vecchio a Firenze,,Vicariato di Porta alla Croce. Don Dr. Leonardo Salutati PARROCO 055 588274 parrocchia@sanmarcovecchio.it,,,Firenze,Via Faentina,139,43.791440,11.269430,Cattolico,"Domenicali e festive    08:30 - S. Marco Vecchio, 10:00 - S. Marco Vecchio, 11:30 - S. Marco Vecchio, 18:00 - S. Marco Vecchio. Feriali    18:00 - S. Marco Vecchio. Prefestive    18:00 - S. Marco Vecchio",false,,,,,,,,,,,
S. Margherita a Montici,,Vicariato di Porta Romana. Don Leonardo Altobelli AMMINISTRATORE PARROCCHIALE   Diac. Sandro Manzati SERVIZIO PRESSO PARROCCHIA 055 6818172 montici@parrocchie.diocesifirenze.it,,,Firenze,Via Santa Margherita a Montici,62,43.746776,11.273006,Cattolico,Domenicali e festive    11:00 - Santa Margherita a Montici,false,,,,,,,,,,,
S. Margherita e S.Maria De Ricci,,Vicariato di S. Giovanni. Don Roberto Tassi PARROCO 055 215044,,,Firenze,Via Santa Margherita,2,43.771048,11.257083,Cattolico,"Domenicali e festive    10:00 - Oratorio della Misericordia, 11:00 - S. Maria de' Ricci, 11:30 - Oratorio della Misericordia, 18:30 - S. Maria de' Ricci, 18:30 - Oratorio della Misericordia. Feriali    09:00 - Oratorio della Misericordia, 10:00 - Oratorio",false,,,,,,,,,,,
S. Maria a Brucianesi,,Vicariato delle Signe. Diac. Marcello Fiorenzo Pesci SERVIZIO PRESSO PARROCCHIA    Don Antony Bascal Selva Cruz AMMINISTRATORE PARROCCHIALE 055 8729627 brucianesi@parrocchie.diocesifirenze.it,,,Lastra a Signa,,,43.779710,11.077090,Cattolico,"Domenicali e festive    10:00 - S. Maria a Brucianesi. Feriali    17:30 - S. Maria a Brucianesi - Periodo ora solare, 18:00 - S. Maria a Brucianesi - Periodo ora legale",false,,,,,,,,,,,
S. Maria a Campi,,Vicariato di Campi Bisenzio. Don Andrea Pucci PARROCO    Diac. Renzo Tesi SERVIZIO PRESSO PARROCCHIA 055 8954109 maria.campi@parrocchie.diocesifirenze.it,,,Campi Bisenzio,Via Spartaco Lavagnini,28,43.823905,11.135721,Cattolico,"Domenicali e festive    07:45 - Santa Maria a Campi, 09:30 - Chiesino di La Villa, 11:00 - Santa Maria a Campi. Prefestive    17:30 - Santa Maria a Campi",false,,,,,,,,,,,
S. Maria a Carraia,,Vicariato di Sesto e Calenzano. Don Alvaro Guidotti PARROCO 055 8819910,,,Calenzano,Via di Carraia,54,43.892470,11.175990,Cattolico,"Domenicali e festive    08:00 - Santa Maria a Carraia, 11:15 - Santa Maria a Carraia. Feriali    08:30 - Santa Maria a Carraia. Prefestive    18:00 - Santa Maria a Carraia",false,,,,,,,,,,,
S. Maria a Castagnolo,,Vicariato delle Signe. Don Stefano Cherici AMMINISTRATORE PARROCCHIALE 055 8722375,,,Lastra a Signa,Via Gramsci,172,43.766440,11.118340,Cattolico,"Domenicali e festive    09:00 - S. Maria a Castagnolo - esclusa il mese di agosto, 12:00 - S. Maria a Castagnolo - Escluso mese agosto.Prefestive    16:00 - S. Maria a Castagnolo",false,,,,,,,,,,,
S. Maria a Castello di Signa,,Vicariato delle Signe. Don Vincenzo Varriale PARROCO 055 875622,,,Signa,Via Santa Maria,1,43.778383,11.095412,Cattolico,"Domenicali e festive    08:00 - S. Maria a Castel di Signa, 10:00 - S. Maria a Castel di Signa.Feriali    07:00 - S. Maria a Castel di Signa, 18:00 - S. Maria a Castel di Signa. Prefestive    18:00 - S. Maria a Castel di Signa",false,,,,,,,,,,,
S. Maria a Cintoia,,Vicariato di Porta S. Frediano. Can. Corinno (Rino) Perbellini PARROCO    Don Francis Batten Chooraparambil VICARIO PARROCCHIALE 055 780927,,,Firenze,Via del Saletto,9,43.779060,11.194800,Cattolico,"Domenicali e festive    08:30 - S. Maria a Cintoia, 11:00 - S. Maria a Cintoia, 18:00 - S. Maria a Cintoia. Feriali    08:30 - S. Maria a Cintoia, 18:00 - S. Maria a Cintoia.Prefestive    18:00 - S. Maria a Cintoia",false,,,,,,,,,,,
S. Maria a Cortenuova,,Vicariato di Empoli Montelupo. Don Dr. Paolo Merciai AMMINISTRATORE PARROCCHIALE 0571 591445 cortenuova@parrocchie.diocesifirenze.it,,,Empoli,Via della Chiesa,,43.677670,10.988170,Cattolico,Domenicali e festive    09:00 - S. Maria a Cortenuova,false,,,,,,,,,,,
S. Maria a Coverciano,,Vicariato di Porta alla Croce. Don Aldo Menichetti PARROCO    Don Mathieu Cossi Aifan SERVIZIO PRESSO PARROCCHIA 055 601522 maria.coverciano@parrocchie.diocesifirenze.it,,,Firenze,Via Domenico Maria Manni,85,43.777910,11.295290,Cattolico,"Domenicali e festive     08:30, 08:45 - Ancelle di Maria, 10:30, 12:00. Feriali    18:30. Prefestive    18:30",false,,,,,,,,,,,
S. Maria a Dicomano,,Vicariato del Mugello Est. Don Carlo Ballerini PARROCO 055 838050 pievedicomano@alice.it,,,Dicomano,Via della Pieve,25,43.893600,11.522810,Cattolico,"Domenicali e festive    07:00 - Santissima Annunziata a Dicomano, 09:00 - San Martino a Corella, 11:00 - Pieve di Santa Maria a Dicomano, 17:30 - San Onofrio a Dicomano - Periodo ora solare, 18:00 - San Onofrio a Dicomano - Periodo ora legale. Feriali",false,,,,,,,,,,,
S. Maria a Fagna,,Vicariato del Mugello Ovest. Diac. Romano Biancalani SERVIZIO PRESSO PARROCCHIA    Don Francesco Chilleri AMMINISTRATORE PARROCCHIALE     Don Giovanni Prestianni VICARIO PARROCCHIALE 055 8469832 fagna@parrocchie.diocesifirenze.it,,,Scarperia,Via della Chiesa,35,43.983104,11.346788,Cattolico,"Domenicali e festive    09:30 - S. Maria a Fagna, 17:00. Prefestive    17:00",false,,,,,,,,,,,
S. Maria a Fibbiana,,Vicariato di Empoli Montelupo. Don Vincenzo Lo Castro PARROCO     Don Liston Lukoo SERVIZIO PRESSO PARROCCHIA 0571 541006,,,Montelupo Fiorentino,Via del Ponte Nuovo,5,43.731324,10.994162,Cattolico,"Domenicali e festive    08:00 - S. Maria a Fibbiana, 11:00 - S. Maria a Fibbiana. Feriali   18:00 - S. Maria a Fibbiana, 19:30 - S. Maria a Fibbiana - Sostituisce saltuariamente la messa delle 18",false,,,,,,,,,,,
S. Maria a Mantignano,,Vicariato di Porta S. Frediano. Don Rossano Carli AMMINISTRATORE PARROCCHIALE 055 780919,,,Firenze,Via di Mantignano,61,43.783240,11.176720,Cattolico,"Domenicali e festive    09:45. Feriali    10:00 - dalle Suore, 16:30. Prefestive    17:00 - S. Maria a Mantignano",false,,,,,,,,,,,
S. Maria a Marcialla,,Vicariato di S. Casciano Montesp. Tav.. Don Rosario Palumbo  PARROCO 055 8074105,,,Barberino Val d'Elsa,piazza Brandi,25,43.574320,11.139835,Cattolico,,false,,,,,,,,,,,
S. Maria a Marignolle,,Vicariato di Porta Romana. Don Dr. Giovanni Alpigiano AMMINISTRATORE PARROCCHIALE 055 2335088,,,Firenze,piazza Santa Maria,2,43.756720,11.226200,Cattolico,Domenicali e festive    11:00 - Santa Maria a Marignolle,false,,,,,,,,,,,
S. Maria a Marliano,,Vicariato delle Signe. Diac. Renzo Biagini  SERVIZIO PRESSO PARROCCHIA    Don John Bosco Mendon AMMINISTRATORE PARROCCHIALE 055 878249 marliano@parrocchie.diocesifirenze.it,,,Lastra a Signa,Via del Pollaiolo,30,43.734400,11.094240,Cattolico,Domenicali e festive    09:45 - S. Maria a Marliano,false,,,,,,,,,,,
S. Maria a Mercatale,,Vicariato di S. Casciano Montesp. Tav.. Don Mario Tomasello PARROCO    P. Kulandairaj Lazer VICARIO PARROCCHIALE 055 821081 mercatale@parrocchie.diocesifirenze.it,,,San Casciano in Val di Pesa,Via Gramsci,4,43.633440,11.237060,Cattolico,"Domenicali e festive    08:00 - Santa Maria a Mercatale, 10:00 - Santa Maria a Mercatale - Messa dei fanciulli, 11:15 - Santa Maria a Mercatale. Feriali    18:00 - Cappella delle Suore, 18:00 - Santa Maria a Mercatale. Prefestive    18:00 - Santa Maria a",false,,,,,,,,,,,
S. Maria a Morello,,Vicariato di Sesto e Calenzano. Don Daniele Bani AMMINISTRATORE PARROCCHIALE 055 4489451,,,Sesto Fiorentino,Via Chiosina,9,43.867340,11.215280,Cattolico,,false,,,,,,,,,,,
S. Maria a Novoli,,Vicariato di Porta al Prato. Don Rocco Di Bello AMMINISTRATORE PARROCCHIALE 055 412744 maria.novoli@parrocchie.diocesifirenze.it,,,Firenze,Via Lippi e Macia,10,43.796100,11.218440,Cattolico,"Domenicali e festive    08:00 - Santa Maria a Novoli, 10:00 - Santa Maria a Novoli, 11:30 - Santa Maria a Novoli. Feriali    18:00 - Santa Maria a Novoli.Prefestive    18:00 - Santa Maria a Novoli",false,,,,,,,,,,,
S. Maria a Olmi,,Vicariato del Mugello Est. Don M Maurizio Tagliaferri AMMINISTRATORE PARROCCHIALE 055 8459561 olmi@parrocchie.diocesifirenze.it,,,Borgo San Lorenzo,Via Olmi,4,43.943770,11.387290,Cattolico,Domenicali e festive    10:30 - S. Maria a Olmi,false,,,,,,,,,,,
S. Maria a Peretola,,Vicariato di Porta al Prato. Don Paolo Pescini PARROCO 055 317217 pescinidonpa@gmail.com,,www.parrocchiadiperetola.com,Firenze,piazza Garibaldi,12,43.797150,11.197240,Cattolico,"Domenicali e festive    08:00 - Santa Maria a Peretola, 10:00 - Santa Maria a Peretola, 11:30 - Santa Maria a Peretola, 18:00 - Santa Maria a Peretola. Feriali    17:30 - Santa Maria a Peretola. Prefestive    18:00 - Santa Maria a Peretola",false,,,,,,,,,,,
S. Maria a Quarto,,Vicariato di Rifredi. Diac. Giovanni Leoncini SERVIZIO PRESSO PARROCCHIA     Don Francesco Carensi  AMMINISTRATORE PARROCCHIALE     Don Domenico De Paola 	VICARIO PARROCCHIALE 055 450563,,,Firenze,Via dell'Osservatorio,154,43.818700,11.240760,Cattolico,Domenicali e festive    10:00 - S. Maria a Quarto,false,,,,,,,,,,,
S. Maria a Quarto (di Ripoli),,Vicariato di Antella Ripoli e Impruneta. Don Andrea Faberi PARROCO 055 630080,,,Bagno a Ripoli,Via di Quarto,7,43.754520,11.326390,Cattolico,"Domenicali e festive    08:00 - Chiesa della Pentecoste, 10:00 - Chiesa della Pentecoste, 11:30 - Chiesa della Pentecoste - escluso luglio-agosto, 17:00 - Chiesa della Pentecoste - Periodo ora solare, 18:00 - Chiesa della Pentecoste - Periodo ora legale.",false,,,,,,,,,,,
S. Maria a Quinto,,Vicariato di Sesto e Calenzano. Can. Dr. Carlo Nardi  AMMINISTRATORE PARROCCHIALE 055 4492255 michelino@katamail.com,,,Sesto Fiorentino,Via di Castello,27,43.830000,11.220370,Cattolico,"Domenicali e festive    08:00 - Santa Maria a Quinto, 11:00 - Santa Maria a Quinto. Prefestive    17:00 - Villa Solaria",false,,,,,,,,,,,
S. Maria a Ricorboli,,Vicariato di Porta Romana. Don Raffaele Palmisano PARROCO   Diac. Roberto Bargiacchi SERVIZIO PRESSO PARROCCHIA    Don Kossi Frederic Serge Kogue ERVIZIO PRESSO PARROCCHIA 055 6812717 ricorboli@parrocchie.diocesifirenze.it,,,Firenze,Via Marsuppini,7,43.761990,11.273700,Cattolico,"Domenicali e festive    08:00 - Santa maria a Ricorboli, 10:30 - Santa maria a Ricorboli. Feriali    18:00 - Santa maria a Ricorboli. Prefestive    18:00 - Santa maria a Ricorboli",false,,,,,,,,,,,
S. Maria a Rignalla,,Vicariato di Antella Ripoli e Impruneta. Don Andrzej Wierzbicki  AMMINISTRATORE PARROCCHIALE 055 696454,,,Bagno a Ripoli,Via di Rignalla,8,43.768010,11.358150,Cattolico,Domenicali e festive    11:30 - S. Maria a Rignalla,false,,,,,,,,,,,
S. Maria a Ripa,,Vicariato di Empoli Montelupo. P. Donath Rebeiro AMMINISTRATORE PARROCCHIALE     P. Alwin Aranha VICARIO PARROCCHIALE    P. Manoj Victor Braganza VICARIO PARROCCHIALE 0571 80247 smariaempoli@yahoo.it,,,Empoli,Via della Repubblica,129,43.719890,10.930560,Cattolico,"Domenicali e festive    08:00 - Santa Maria a Ripa, 10:30 - Santa Maria a Ripa, 12:00 - Santa Maria a Ripa, 17:00 - Santa Maria a Ripa - Periodo ora solare, 18:00 - Santa Maria a Ripa - Periodo ora legale, 18:00 - Santa Maria a Ripa - Periodo ora solare,",false,,,,,,,,,,,
S. Maria a Sammontana,,Vicariato di Empoli Montelupo. Don Angelo Gorini AMMINISTRATORE PARROCCHIALE     Diac. Giampaolo Agatensi SERVIZIO PRESSO PARROCCHIA   Don Dr. Paul Kwaku Poku VICARIO PARROCCHIALE 0571 542277 sammontana@parrocchie.diocesifirenze.it,,,Montelupo Fiorentino,Via Sammontana,1,43.714910,11.007470,Cattolico,"Domenicali e festive    10:00 - S. Maria a Sammontana. Feriali    07:15 - S. Maria a Sammontana, 18:30 - S. Maria a Sammontana. Prefestive    17:00 - S. Maria a Sammontana",false,,,,,,,,,,,
S. Maria a Scandicci,,Vicariato di Scandicci. Don Brunetto Fioravanti PARROCO    Don Lorenzo Paolino  VICARIO PARROCCHIALE    Don Gildas Vigan  VICARIO PARROCCHIALE    Don Michael Francis Vutakamba SRVIZIO PRESSO PARROCCHIA 055 250178 s.mariascandicci@virgilio.it,,www.santamariascandicci.it,Scandicci,piazza Benini,1,43.752690,11.186130,Cattolico,"Domenicali e festive    07:30 - Propositura di S. Maria a Scandicci, 08:30 - S. Martino a Scandicci Alto - Escluso Luglio e Agosto, 09:30 - Propositura di S. Maria a Scandicci, 11:00 - Propositura di S. Maria a Scandicci, 18:00 - Propositura di S. Maria a",false,,,,,,,,,,,
S. Maria a Settignano,,Vicariato di Porta alla Croce. Don Giorgio Tarocchi PARROCO 055 697477 settignano@parrocchie.diocesifirenze.it,,,Firenze,piazza Tommaseo,18,43.783360,11.322460,Cattolico,"Domenicali e festive    09:00 - S. Maria a Settignano, 11:00 - S. Maria a Settignano. Feriali    08:00 - S. Maria a Settignano, 17:00 - S. Maria a Settignano. Prefestive    17:00 - S. Maria a Settignano",false,,,,,,,,,,,
S. Maria a Spicchio,,Vicariato di Empoli Montelupo. Don Enrico Giachetti PARROCO 0571 508141 spicchio@parrocchie.diocesifirenze.it,,,Vinci,Via della Chiesa,21,43.729350,10.949210,Cattolico,"Domenicali e festive    08:30 - Santa Maria a Spicchio, 11:00 - Santa Maria a Spicchio. Feriali    07:00 - Santa Maria a Spicchio - Periodo ora legale, 18:00 - Santa Maria a Spicchio - Periodo ora solare. Prefestive    18:00 - Santa Maria a Spicchio",false,,,,,,,,,,,
S. Maria a Vezzano,,Vicariato del Mugello Est. Don Slawomir Bogutyn AMMINISTRATORE PARROCCHIALE,,,Vicchio,,,43.960200,11.494500,Cattolico,Domenicali e festive    11:00 - Santa Maria a Vezzano,false,,,,,,,,,,,
S. Maria ad Argiano,,Vicariato di S. Casciano Montesp. Tav.. Don Massimiliano Gori AMMINISTRATORE PARROCCHIALE 055 820404,,,San Casciano in Val di Pesa,Via Argiano,12,43.664360,11.174770,Cattolico,"Domenicali e festive    08:00 - Santa Maria ad Argiano, 11:30 - Santa Maria ad Argiano. Feriali    08:30 - Santa Maria ad Argiano",false,,,,,,,,,,,
S. Maria al Morrocco,,Vicariato di S. Casciano Montesp. Tav.. Don Attilio Belladelli AMMINISTRATORE PARROCCHIALE 055 8071612,,,Tavarnelle Val di Pesa,Via di Morrocco,35,43.562730,11.205510,Cattolico,,false,,,,,,,,,,,
S. Maria al Pignone,,Vicariato di Porta S. Frediano. Can. Alighiero Bitossi PARROCO IN SOLIDUM      Can. Andrea Daniele Coppini PARROCO IN SOLIDUM MODERATORE       Diac. Domenico Zanasi  SERVIZIO PRESSO PARROCCHIA    Diac. Giorgio Chille'  SERVIZIO PRESSO PARROCCHIA   Don Nic,,http://www.pignone.weebly.com,Firenze,Via Felice Cavallotti,11,43.771700,11.234810,Cattolico,"Domenicali e festive    08:00 - S. Maria al Pignone, 10:00 - S. Maria al Pignone - Escluso mesi Luglio, Agosto e Settembre, 11:00 - S. Maria al Pignone - mesi Luglio, Agosto e Settembre, 11:30 - S. Maria al Pignone - Escluso mesi luglio, agosto e settembr",false,,,,,,,,,,,
S. Maria alla Romola,,Vicariato di S. Casciano Montesp. Tav.. Can. Dr. Stefano Tarocchi PARROCO   Diac. Sergio Russo SERVIZIO PRESSO PARROCCHIA 055 827016 info@romolasantamaria.net,,www.romolasantamaria.net,San Casciano in Val di Pesa,Via della Chiesa,12,43.695770,11.159660,Cattolico,Domenicali e festive    10:30 - Santa Maria alla Romola.Feriali    08:00 - Santa Maria alla Romola.Prefestive    18:00 - Santa Maria alla Romola,false,,,,,,,,,,,
S. Maria all'Antella,,Vicariato di Antella Ripoli e Impruneta. Can. Giovanni Di Enzo Martini PARROCO    Don Renzo Salvatici VICARIO PARROCCHIALE 055 621087 maria.antella@parrocchie.diocesifirenze.it,,,Bagno a Ripoli,piazza Peruzzi,29,43.726510,11.322810,Cattolico,"Domenicali e festive    08:00 - S. Maria all'Antella, 09:30 - S. Maria all'Antella, 11:00 - S. Maria all'Antella. Feriali    09:00 - S. Maria all'Antella, 17:30 - S. Maria all'Antella - Ottobre - Aprile, 17:30 - Cappella della Misericordia - Ottobre - Apr",false,,,,,,,,,,,
S. Maria all'Impruneta,,Vicariato di Antella Ripoli e Impruneta. Can. Luigi Oropallo PARROCO    Don Stefano Naldoni VICARIO PARROCCHIALE 055 2011072 impruneta@parrocchie.diocesifirenze.it,,,Impruneta,piazza Buondelmonti,28,43.685070,11.255020,Cattolico,"Domenicali e festive    08:00 - S. Maria all'Impruneta, 09:15 - Casa di riposo, 10:30 - S. Maria all'Impruneta, 18:00 - S. Maria all'Impruneta. Feriali    08:00 - S. Maria all'Impruneta, 18:00 - S. Maria all'Impruneta.Prefestive    18:00 - S. Maria all'Im",false,,,,,,,,,,,
S. Maria Assunta a Petrazzi,,Vicariato della Valdelsa Fiorentina. Don Razvan Laurescu AMMINISTRATORE PARROCCHIALE  petrazzi@parrocchie.diocesifirenze.it,,,Castelfiorentino,Via Charles Darwin,27,43.580850,11.005530,Cattolico,Domenicali e festive    09:30 - S. Maria Assunta a Petrazzi,false,,,,,,,,,,,
S. Maria Ausiliatrice a Novoli,,Vicariato di Porta al Prato. Don Gian Luca Bitossi PARROCO   Don Dr. Alberto Campaioli  VICARIO PARROCCHIALE 055 417116,,,Firenze,Via Mario Morosi,36,43.793220,11.216880,Cattolico,"Domenicali e festive    08:00 - Santa Maria Ausiliatrice a Novoli, 10:00 - Santa Maria Ausiliatrice a Novoli, 11:30 - Santa Maria Ausiliatrice a Novoli, 18:00 - Santa Maria Ausiliatrice a Novoli. Feriali    07:30 - Santa Maria Ausiliatrice a Novoli, 18:00",false,,,,,,,,,,,
S. Maria degli Innocenti,,Vicariato di S. Giovanni. Don Alfredo Jacopozzi AMMINISTRATORE PARROCCHIALE,,,Firenze,piazza SS. Annunziata,10,43.776300,11.260760,Cattolico,Domenicali e festive    18:00 - S. Maria degli Innocenti. Feriali    17:30 - S. Maria degli Innocenti. Prefestive    17:30 - S. Maria degli Innocenti,false,,,,,,,,,,,
S. Maria delle Grazie a Calenzano,,Vicariato di Sesto e Calenzano. Don Roberto Carpini PARROCO 055 8826540 maria.calenzano@parrocchie.diocesifirenze.it,,http://www.parrocchie.it/calenzano/santa,Calenzano,Via di Capalle,46/a,43.853380,11.148950,Cattolico,"Domenicali e festive    08:00 - Santa Maria delle Grazie, 10:30 - Santa Maria delle Grazie. Feriali    18:00 - Santa Maria delle Grazie. Prefestive    18:00 - Santa Maria delle Grazie",false,,,,,,,,,,,
S. Maria e Bartolomeo a Padule,,Vicariato di Sesto e Calenzano. Don Luciano Bianchini PARROCO 055 4210025 padule@parrocchie.diocesifirenze.it,,,Sesto Fiorentino,piazza San Bartolomeo,10,43.836770,11.175860,Cattolico,Feriali    16:00,false,,,,,,,,,,,
S. Maria e S. Brigida al Paradiso,,Vicariato di Porta Romana. Mons. Stefano Jafrancesco PARROCO 055 6801344,,,Firenze,Via Benedetto Fortini,105,43.750320,11.284490,Cattolico,Domenicali e festive    10:00 - Santa Maria e Santa Brigida al Paradiso. Feriali    17:00 - Casa Maria Cristina Ogier.Prefestive    17:30 - Santa Maria e Santa Brigida al Paradiso,false,,,,,,,,,,,
S. Maria e S.Giov.Batt.Dec. a Bordignano,,Vicariato di Firenzuola. Don Giorgio Badiali AMMINISTRATORE PARROCCHIALE,,,Firenzuola,,,44.135970,11.375510,Cattolico,"Domenicali e festive    09:30 - Castelvecchio - Non sempre, 09:30 - Caburaccia - Non sempre, 09:30 - San Giovanni Battista Decollato a Bordignano - Non sempre",false,,,,,,,,,,,
S. Maria Madre della Chiesa a Torregalli,,Vicariato di Scandicci. Don Giuseppe Paperini PARROCO   Don Paolo Leboroni Pierozzi VICARIO PARROCCHIALE   Don Alessio Massimi VICARIO PARROCCHIALE 055 250180 scandicci-direttoresdb@donbosco.it,,,Firenze,Via di Torregalli,13,43.758520,11.202040,Cattolico,"Domenicali e festive    09:00 - S. Maria Madre della Chiesa a Torregalli, 10:30 - S. Maria Madre della Chiesa a Torregalli, 16:30 - Cappella dell'Ospedale di Torregalli, 18:00 - S. Maria Madre della Chiesa a Torregalli. Feriali    08:30 - S. Maria Madre d",false,,,,,,,,,,,
SANTA MARIA MAGGIORE,SANTA MARIA MAGGIORE,SANTA MARIA MAGGIORE,SANTA MARIA MAGGIORE,,Firenze,PIAZZA DI SANTA MARIA MAGGIORE,0,43.773275,11.252736,Cattolico,"Messe feriali: lunedi'-venerdi': 8 e 19, sabato e prefestivi: 19.
Messe festive: 9, 11 e 19.
Mese festive: ore 9, 11, 19.",false,+39 055 215914,Accesso per disabili dal vicolo (avvertire il sagrestano),"Disabled access (from the side street, call the sacristan).",Catholic,+39 055 215914,,"Da Piazza Stazione pochi minuti a piedi, oppure da via Panzani bus ATAF C2 (direzione Piazza Beccaria).","From Piazza Stazione a few minutes walk, or from via Panzani ATAF bus C2 (direction Piazza Beccaria).(direction Piazza Beccaria).","Weekday mass: Monday-Friday 8am and 7pm; Saturday and the day  before a holiday: 7pm.
Sundays and holidays: 9am, 11am and 7pm.",Accessibile,Fully accessible
SANTA MARIA NOVELLA,SANTA MARIA NOVELLA,SANTA MARIA NOVELLA,SANTA MARIA NOVELLA,,Firenze,PIAZZA DI SANTA MARIA NOVELLA,,43.774128,11.249297,Cattolico,"Messe feriali: 7:30 e 18 (Luglio e Agosto: 7:30 e 19).
Messe festive: 10:30, 12 e 18 (Luglio e Agosto 10:30 e 19).",false,+39 055 210113,"Nei giorni festivi e prefestivi accesso dalla facciata della chiesa, nei giorni feriali da Via degli Avelli.","On weekdays the entrance is from Via degli Avelli, Saturdays and holidays from the faa'§ade of the church.",Catholic,+39 055 210113,,Da Piazza Stazione pochi minuti a piedi.,From Piazza Stazione a few minutes walk.,"Weekday mass: 7:30am and 6pm (July and August 7:30am and 7pm).
Sundays and holidays: 10:30am, 12pm and 6pm (July and August 10:30am and 7pm).",Accessibile,Fully accessible
S. Martino a Bagnolo,,Vicariato di Antella Ripoli e Impruneta. Don Umberto Di Tante AMMINISTRATORE PARROCCHIALE 055 2011125,,,Impruneta,,,43.697130,11.246410,Cattolico,"Domenicali e festive    07:30 - Suore Domenicane di S. Caterina, 10:00 - S. Martino a Bagnolo. Feriali    07:30 - Suore Domenicane di S. Caterina",false,,,,,,,,,,,
S. Martino a Brozzi,,Vicariato di Porta al Prato. Don Luigi Bartoletti PARROCO   Don Dr. Koffi Gilbert Afan  SERVIZIO PRESSO PARROCCHIA 055 307018 brozzi@parrocchie.diocesifirenze.it,,,Firenze,Via S.Martino,39,43.766913,11.248478,Cattolico,"Domenicali e festive    08:00 - Cappella delle Suore, 09:30 - S. Martino a Brozzi, 11:30 - S. Martino a Brozzi. Feriali    07:20 - Cappella delle Suore. Prefestive    18:00 - S. Martino a Brozzi",false,,,,,,,,,,,
S. Martino a Bruscoli,,Vicariato di Firenzuola. Don Didier Alain Mbungu Khonde AMMINISTRATORE PARROCCHIALE 055 818016,,,Firenzuola,piazza della Chiesa,1,44.142204,11.243606,Cattolico,Domenicali e festive    09:30 - S. Martino a Bruscoli. Feriali    15:30 - S. Martino a Bruscoli,false,,,,,,,,,,,
S. Martino a Carcheri,,Vicariato delle Signe. Don James Savarirajan AMMINISTRATORE PARROCCHIALE 055 8713251,,,Lastra a Signa,Via di Carcheri,207,43.711150,11.075190,Cattolico,"Domenicali e festive    09:30 - S. Martino a Carcheri - Tranne la prima domenica del mese, 15:30 - S. Martino a Carcheri - Prima domenica del mese. Prefestive    17:00 - S. Martino a Carcheri",false,,,,,,,,,,,
S. Martino a Castro,,Vicariato di Firenzuola. Don Carlo Giorgi AMMINISTRATORE PARROCCHIALE   Don Jean Patrick Mabiala Mbumba AMMINISTRATORE PARROCCHIALE 055 8149059,,,Firenzuola,,,44.135970,11.375510,Cattolico,Domenicali e festive    11:15 - S. Martino a Castro. Feriali    15:30 - S. Martino a Castro - Periodo ora solare,false,,,,,,,,,,,
Parrocchia S. Martino a Gangalandi,,Vicariato delle Signe. Don Renzo Ventisette PARROCO 055 8720008 s.martino-gangalandi@libero.it,,,Lastra a Signa,Via Leon Battista Alberti,-37,43.769480,11.098150,Cattolico,"Domenicali e festive    07:30 - Chiesa S. Martino a Gangalandi, 09:00 - Chiesa S. Anna, 10:00 - Chiesa S. Lucia, 11:00 - Chiesa S. Martino a Gangalandi. Feriali    17:00 - Chiesa S. Martino a Gangalandi - Periodo ora solare, 18:00 - Chiesa S. Martino a Ga",false,,,,,,,,,,,
S. Martino a Pontorme,,Vicariato di Empoli Montelupo. Don Dr. Paolo Merciai PARROCO   Diac. Alessandro Centi SERVIZIO PRESSO PARROCCHIA   Don Mario Costanzi VICARIO PARROCCHIALE 0571 590296 martino.pontorme@parrocchie.diocesifirenze.it,,,Empoli,Via San Martino,18,43.724214,10.964721,Cattolico,"Domenicali e festive    10:15 - Serravalle, 11:30 - S. Martino a Pontorme. Prefestive    17:30 - S. Martino a Pontorme",false,,,,,,,,,,,
S. Martino a Sesto F.no,,Vicariato di Sesto e Calenzano. Don Dr. Stefano Grossi VICARIO PARROCCHIALE   Don Daniele Bani PARROCO  Diac. Renato Giotti  SERVIZIO PRESSO PARROCCHIA  Diac. Luca Orsoni SERVIZIO PRESSO PARROCCHIA  Don Davide Massi VICARIO PARROCCHIALE 055 4489451 pieved,,,Sesto Fiorentino,piazza della Chiesa,83,43.830490,11.198370,Cattolico,"Domenicali e festive    08:00 - San Martino a Sesto Fiorentino, 09:30 - San Martino a Sesto Fiorentino, 10:30 - San Martino a Sesto Fiorentino, 12:00 - San Martino a Sesto Fiorentino, 18:00 - San Martino a Sesto Fiorentino.Feriali    07:00 - San Martino a",false,,,,,,,,,,,
S. Martino a Strada o ai Cipressi,,Vicariato di Antella Ripoli e Impruneta. Don Umberto Cavini AMMINISTRATORE PARROCCHIALE 055 640383 martino.strada@parrocchie.diocesifirenze.it,,,Bagno a Ripoli,Via San Martino,9,43.714122,11.290426,Cattolico,Domenicali e festive    11:30 - S. Martino a Strada. Prefestive    19:00 - S. Martino a Strada,false,,,,,,,,,,,
S. Martino a Vespignano,,Vicariato del Mugello Est. Don Slawomir Bogutyn AMMINISTRATORE PARROCCHIALE 055 844022 vespignano@parrocchie.diocesifirenze.it,,,Vicchio,Via Vespignano,73,43.945980,11.437300,Cattolico,Domenicali e festive    11:00 - San Martino a Vespignano,false,,,,,,,,,,,
S. Martino alla Palma,,Vicariato di Scandicci. Don Lorenzo Paolino AMMINISTRATORE PARROCCHIALE 055 768672,,,Scandicci,Via Calcinaia,48,43.748550,11.142490,Cattolico,Domenicali e festive    11:00 - S. Martino La Palma. Feriali    16:00 - S. Martino La Palma. Prefestive    16:00 - S. Martino La Palma,false,,,,,,,,,,,
S. Martino alle Sieci o Mulin del Piano,,Vicariato di Pontassieve. Don Daniele Rossi PARROCO 055 8317816 martino.sieci@parrocchie.diocesifirenze.it,,,Pontassieve,Via della Torre,27,43.812530,11.400590,Cattolico,"Domenicali e festive    07:30 - San Martino alle Sieci, 09:30 - San Martino alle Sieci, 11:00 - San Martino alle Sieci. Feriali    18:00 - San Martino alle Sieci. Prefestive    18:00 - San Martino alle Sieci",false,,,,,,,,,,,
S. Matteo a Covigliaio e S. Bartolomeo alle Valli,,Vicariato di Firenzuola. Don Didier Alain Mbungu Khonde AMMINISTRATORE PARROCCHIALE,,,Firenzuola,Via Nazionale,1,44.136579,11.307909,Cattolico,"Domenicali e festive    09:30 - S. Bartolomeo Le Valli, 11:15 - S. Matteo a Covigliaio",false,,,,,,,,,,,
S. Mauro a Signa,,Vicariato delle Signe. Don Nsalien Jean Denis Nswete AMMINISTRATORE PARROCCHIALE 055 8739163,,,Signa,Via della Croce,66,43.795820,11.124310,Cattolico,"Domenicali e festive    07:30 - S. Mauro a Signa, 10:30 - S. Mauro a Signa.Feriali    08:30 - S. Mauro a Signa, 16:30 - S. Mauro a Signa.Prefestive    16:30 - S. Mauro a Signa",false,,,,,,,,,,,
S. Michele a Casanuova,,Vicariato di Firenzuola. Don Carlo Giorgi AMMINISTRATORE PARROCCHIALE,,,Firenzuola,,,44.135970,11.375510,Cattolico,Prefestive    15:30 - S. Michele a Casanuova,false,,,,,,,,,,,
S. Michele a Castello,,Vicariato di Rifredi. Don Paolo Aglietti PARROCO   Diac. Giovanni Zanobini SERVIZIO PRESSO PARROCCHIA 055 451335,,,Firenze,Via San Michele,14,43.746142,11.256476,Cattolico,"Domenicali e festive    08:00 - Cappella di via Petraia, 10:30 - S. Michele a Castello.Feriali    08:30 - S. Michele a Castello.Prefestive    18:00 - S. Michele a Castello - Tutti I sabati e vigilie di feste di precetto",false,,,,,,,,,,,
S. Michele a Compiobbi,,Vicariato di Antella Ripoli e Impruneta. Don Andrzej Wierzbicki PARROCO 055 696000 s.micheacompiobbi@tiscali.it,,,Bagno a Ripoli,Via di Compiobbi,7,43.781960,11.361550,Cattolico,Domenicali e festive    10:30 - Chiesa di Vallina.Feriali    17:00 - Chiesa di Vallina.Prefestive    17:00 - S. Michele a Compiobbi,false,,,,,,,,,,,
S. Michele a Lumena e S. Lorenzo a Gabbiano,,Vicariato del Mugello Ovest. Don Francesco Chilleri AMMINISTRATORE PARROCCHIALE   Don Giovanni Prestianni VICARIO PARROCCHIALE 055 8406926 scarperia@parrocchie.diocesifirenze.it,,,Scarperia,,,44.019528,11.335241,Cattolico,Domenicali e festive    16:00 - Chiesa di Lumena - ATTENZIONE!!! Una volta al mese in data variabile,false,,,,,,,,,,,
S. Michele a Montalbano,,Vicariato di Firenzuola. Don Emanuele Dondoli AMMINISTRATORE PARROCCHIALE 055 813215,,,Firenzuola,,,44.135970,11.375510,Cattolico,Domenicali e festive    15:30 - S. Michele a Montalbano.Feriali    15:30 - S. Michele a Montalbano,false,,,,,,,,,,,
S. Michele a Monteripaldi,,Vicariato di Porta Romana. Don Floriano Donatini AMMINISTRATORE PARROCCHIALE,,,Firenze,Via San Michele,42,43.740100,11.257130,Cattolico,"Domenicali e festive    11:00, 17:30 - Cascine del Riccio.Prefestive    17:30 - Cascine del Ricci",false,,,,,,,,,,,
S. Michele a Pontorme,,Vicariato di Empoli Montelupo. Don Emmanuel Kufre Etim  AMMINISTRATORE PARROCCHIALE  Don Clement Esang Nkereuwem SERVIZIO PRESSO PARROCCHIA 0571 592800,,,Empoli,piazza San Michele,1,43.721940,10.962475,Cattolico,"Domenicali e festive    08:00 - S. Michele a Pontorme, 11:00 - S. Michele a Pontorme. Feriali    16:00 - S. Michele a Pontorme - Periodo ora solare, 18:00 - S. Michele a Pontorme - Periodo ora legale. Prefestive    18:00 - S. Michele a Pontorme",false,,,,,,,,,,,
S. Michele a Ronta,,Vicariato del Mugello Est. Don Dr. Nicolo' Santamarina AMMINISTRATORE PARROCCHIALE 055 8403014 ronta@parrocchie.diocesifirenze.it,,,Borgo San Lorenzo,Via Faentina,75,44.010490,11.436780,Cattolico,"Domenicali e festive    09:30 - Cappella delle Suore, 11:00 - S. Michele a Ronta.Feriali    17:00 - S. Michele a Ronta - Periodo ora solare, 18:00 - S. Michele a Ronta - Periodo ora legale.Prefestive    17:00 - S. Michele a Ronta - Periodo ora solare, 18:",false,,,,,,,,,,,
S. Michele a Rovezzano,,Vicariato di Porta alla Croce. Don Renzo Corti PARROCO 055 690175 michele.rovezzano@parrocchie.diocesifirenze.it,,,Firenze,Via S. Michele,4,43.766560,11.313240,Cattolico,"Domenicali e festive    09:00 - S. Michele a Rovezzano, 11:00 - S. Michele a Rovezzano. Feriali    17:30 - S. Michele a Rovezzano. Prefestive    18:00 - S. Michele a Rovezzano",false,,,,,,,,,,,
S. Michele a San Salvi,,Vicariato di Porta alla Croce. Don Silvano Seghi PARROCO    Don John Peter Jeromiyas  SERVIZIO PRESSO PARROCCHIA 055 678864 michele.salvi@parrocchie.diocesifirenze.it,,,Firenze,piazza San Salvi,10,43.772160,11.286260,Cattolico,"Domenicali e festive    08:30 - S. Michele a S. Salvi, 10:00 - S. Michele a S. Salvi, 11:30 - S. Michele a S. Salvi, 18:00 - S. Michele a S. Salvi.Feriali    08:30 - S. Michele a S. Salvi, 18:00 - S. Michele a S. Salvi.Prefestive    18:00 - S. Michele a S",false,,,,,,,,,,,
S. Michele Arcangelo a Grassina,,Vicariato di Antella Ripoli e Impruneta. Don Fabrizio Poli PARROCO    Don Vito Leonardo (Stefano) Casamassima VICARIO PARROCCHIALE 055 640019 donfa49@virgilio.it,,,Bagno a Ripoli,Via S. Michele,1,43.725557,11.293486,Cattolico,"Domenicali e festive    08:00 - S. Michele Arcangelo a Grassina, 10:00 - S. Michele Arcangelo a Grassina, 11:30 - S. Michele Arcangelo a Grassina.Feriali    18:00 - S. Michele Arcangelo a Grassina. Prefestive    18:00 - S. Michele Arcangelo a Grassina",false,,,,,,,,,,,
S. Michele Arcangelo a Pontassieve,,Vicariato di Pontassieve. Don Luciano Santini PARROCO   Diac. Andrea Cecchi SERVIZIO PRESSO PARROCCHHIA    Don Dr. Luca Carnasciali 	VICARIO PARROCCHIALALE     Don Gerard Kilambwe Nganduu SERVIZIO PRESSO PARROCCHIA 055 8368150 michele.pontassieve@parrocch,,,Pontassieve,Largo Ildebrando Cuccuini,1,43.775740,11.439720,Cattolico,"Domenicali e festive    09:30 - San Michele Arcangelo a Pontassieve, 11:00 - San Michele Arcangelo a Pontassieve, 18:00 - San Michele Arcangelo a Pontassieve. Feriali    17:30 - San Michele Arcangelo a Pontassieve. Prefestive    17:30 - San Michele Arcang",false,,,,,,,,,,,
S. Michele Arcangelo Visdomini,,Vicariato di S. Giovanni. Can. Ernesto Lettieri PARROCO 055292448 michele.visdomini@parrocchie.diocesifirenze.it,,,Firenze,piazzetta S. Michele Visdomini,1,43.773990,11.257860,Cattolico,Domenicali e festive    11:30 - S. Michele Arcangelo Visdomini. Feriali    18:00 - S. Michele Arcangelo Visdomini. Prefestive    18:00 - S. Michele Arcangelo Visdomini,false,,,,,,,,,,,
S. Miniato a Montebonello,,Vicariato di Pontassieve. Don Vincenzo Arnone AMMINISTRATORE PARROCCHIALE 055 8397442,,,Pontassieve,Via Colognese,41,43.830840,11.485266,Cattolico,"Domenicali e festive    08:00 - San Miniato a Montebonello, 10:30 - San Miniato a Montebonello.Feriali    17:00 - San Miniato a Montebonello.Prefestive    17:00 - San Miniato a Montebonello",false,,,,,,,,,,,
S. Miniato a Piazzano,,Vicariato del Mugello Est. Don Maurizio Tagliaferri AMMINISTRATORE PARROCCHIALED   Diac. Giuliano Graziani SERVIZIO PRESSO PARROCCHIA  piazzano@parrocchie.diocesifirenze.it,,,Borgo San Lorenzo,,,43.953710,11.386950,Cattolico,Domenicali e festive    10:00 - S. Miniato a Piazzano,false,,,,,,,,,,,
S. Miniato a Samminiatello,,Vicariato di Empoli Montelupo. Don Francesco Catelani AMMINISTRATORE PARROCCHIALE    Diac. Giampaolo Agatensi SRVIZIO PRESSO PARROCCHIA    Don Philippe Mulondo Nkoy  SERVIZIO PRESSO PARROCCHIA  Don Alain Megloire Mindou VICARIO PARROCCHIALE 0571 51048,,,Montelupo Fiorentino,Via della Vecchia Chiesa,17,43.739209,11.027131,Cattolico,Domenicali e festive    11:00 - S. Miniato a Samminiatello.Feriali    17:30 - S. Miniato a Samminiatello. Prefestive    17:30 - S. Miniato a Samminiatello,false,,,,,,,,,,,
S. Miniato a Signa,,Vicariato delle Signe. Don Giancarlo Gondolini PARROCO   Diac. Paolo Bendinelli SERVIZIO PRESSO PARROCCHIA 055 875216,,,Signa,Via Sorelle Gramatica,50,43.782220,11.089490,Cattolico,"Domenicali e festive    07:30 - S. Miniato a Signa, 11:00 - S. Miniato a Signa.Feriali    18:00 - S. Miniato a Signa.Prefestive    18:00 - S. Miniato a Signa",false,,,,,,,,,,,
Nativita' di Nostro Signore Gesu' Cristo,,Vicariato delle Signe. Don Stefano Cherici AMMINISTRATORE PARROCCHIALE   P. Tomy Mani VICARIO PARROCCHIALE 055 8720626 nativita.lastra@parrocchie.diocesifirenze.it,,,Lastra a Signa,Via Filippo Turati,7,43.768420,11.109144,Cattolico,"Domenicali e festive    08:00 - Nativita'  di N. S. Gesa'¹ Cristo, 10:00 - Chiesa della Misericordia, 11:30 - Nativita'  di N. S. Gesa'¹ Cristo, 17:30 - Nativita'  di N. S. Gesa'¹ Cristo. Feriali    17:30 - Nativita'  di N. S. Gesa'¹ Cristo. Prefestive    17:30 - Nativit",false,,,,,,,,,,,
N.S. Sacro Cuore,,Vicariato di S. Giovanni. P. Carmine Pace VICARIO PARROCCHIALE   P. Mario Scalici PARROCO 055 470027 nssacrocuore@parrocchie.diocesifirenze.it,,,Firenze,Via Enrico Poggi,6,43.781290,11.255180,Cattolico,"Domenicali e festive    09:00 - Nostra Signora del Sacro Cuore, 10:30 - Nostra Signora del Sacro Cuore, 12:00 - Nostra Signora del Sacro Cuore, 18:00 - Nostra Signora del Sacro Cuore. Feriali    09:00 - Nostra Signora del Sacro Cuore, 18:00 - Nostra Signo",false,,,,,,,,,,,
S. Niccolo' a Calenzano,,Vicariato di Sesto e Calenzano. Don Paolo Cioni PARROCO   Don Bineesh Mankottil Jose SERVIZIO PRESSO PARROCCHIA 055 8879066 parrocchia.s.niccolo@tiscali.it,,,Calenzano,piazza San Niccolo,7,43.863820,11.161840,Cattolico,"Domenicali e festive    08:00 - San Niccolo' a Calenzano, 10:30 - San Niccolo' a Calenzano, 12:00 - Cappella della Misericordia.Feriali    08:30 - Cappella della Misericordia, 18:00 - San Niccolo' a Calenzano. Prefestive    18:00 - San Niccolo' a Calenzano",false,,,,,,,,,,,
S. Niccolo' a Oltrarno,,Vicariato di Porta Romana. Don Gianpietro Gamucci PARROCO 055 2344903,,,Firenze,Via San Niccolo,48,43.764293,11.261293,Cattolico,"Domenicali e festive    09:30 - San Niccolo' a Oltrarno, 11:30 - San Niccolo' a Oltrarno. Feriali    18:30 - San Niccolo' a Oltrarno.Prefestive    18:30 - San Niccolo' a Oltrarno",false,,,,,,,,,,,
Preziosissimo Sangue,,Vicariato di Porta al Prato. Don Augusto Balboni 	 VICARIO PARROCCHIALE    Don Sebastiano Benedettini  VICARIO PARROCCHIALE     Don Luigi de Fazio  PARROCO    Don Valerio De Vita VICARIO PARROCCHIALE 055 361046 info@parrocchiapreziosissimosangue.org,,http://www.parrocchiapreziosissimosangue.org,Firenze,Via Boccherini,23/25,43.787440,11.230040,Cattolico,"Domenicali e festive    08:30 - Preziosissimo Sangue, 10:00 - Preziosissimo Sangue, 11:00 - S. Benedetto alle Cascine, 11:30 - Preziosissimo Sangue, 18:00 - Preziosissimo Sangue. Feriali    08:00 - Preziosissimo Sangue, 09:00 - Preziosissimo Sangue, 18:00",false,,,,,,,,,,,
S. Pancrazio a S. Pancrazio Val di Pesa,,Vicariato di S. Casciano Montesp. Tav.. Don Benito Caldini AMMINISTRATORE PARROCCHIALE    Diac. Giovanni Burigana  SERVIZIO PRESSO PARROCCHIA 055 8248119,,,San Casciano in Val di Pesa,Via San Pancrazio,41,43.627275,11.140787,Cattolico,"Domenicali e festive    08:00 - San Pancrazio, 10:30 - San Pancrazio",false,,,,,,,,,,,
S. Paolo a Razzuolo,,Vicariato del Mugello Est. Don Romano Nencioli AMMINISTRATORE PARROCCHIALE,,,Borgo San Lorenzo,,,44.031680,11.468110,Cattolico,Feriali    16:30 - S. Paolo a Razzuolo. Prefestive    17:00 - S. Paolo a Razzuolo,false,,,,,,,,,,,
S. Paolo a Soffiano,,Vicariato di Porta S. Frediano. Don Renzo Pistelli PARROCO   Diac. Mauro Ceccherelli SERVIZIO PRESSO PARROCCHIA 055 700065 parrocchiasanpaolo.fi@tin.it,,,Firenze,Via Francesco Pesellino,9,43.763670,11.207500,Cattolico,"Domenicali e festive    08:30 - S. Paolo a Soffiano, 11:00 - S. Paolo a Soffiano. Feriali    17:30 - S. Paolo a Soffiano - Periodo ora solare, 18:00 - S. Paolo a Soffiano - Periodo ora legale. Prefestive    18:00 - S. Paolo a Soffiano",false,,,,,,,,,,,
S. Patrizio a Tirli,,Vicariato di Firenzuola. Don Pierluigi Ongaro  AMMINISTRATORE PARROCCHIALE 055 816058,,,Firenzuola,Via Tirli,1,44.155670,11.459390,Cattolico,Domenicali e festive    11:00 - S. Patrizio a Tirli. Feriali    19:00 - S. Patrizio a Tirli.Prefestive    15:30 - S. Patrizio a Tirli,false,,,,,,,,,,,
S. Piero a Ponti,,Vicariato di Campi Bisenzio. Don Gabriele Pratesi PARROCO 055 8999250,,,Campi Bisenzio,Via del Santo,3,43.805793,11.124901,Cattolico,"Domenicali e festive    07:30 - Suore, 09:30 - Chiesa di S. Piero a Ponti, 11:00 - Chiesa di S. Piero a Ponti.Feriali    07:00 - Suore, 09:00 - Chiesa di S. Piero a Ponti.Prefestive    18:00 - Chiesa di S. Piero a Ponti",false,,,,,,,,,,,
S. Piero in Palco,,Vicariato di Porta Romana. Don Dr. Vittorio Menestrina PARROCO 055 683216,,,Firenze,piazza Card. Elia Dalla Costa,17,43.758310,11.284520,Cattolico,"Domenicali e festive    08:30, 10:00, 11:30. Feriali    18:00. Prefestive    18:00",false,,,,,,,,,,,
S. Pietro a Careggi,,Vicariato di Rifredi. P. Dr. Filippo Belli AMMINISTRATORE PARROCCHIALE 055 411996,,,Firenze,Via Cosimo il Vecchio,13,43.810010,11.255880,Cattolico,"Domenicali e festive    08:30 - S. Pietro a Careggi, 11:30 - S. Pietro a Careggi. Prefestive    17:00 - Ulivella",false,,,,,,,,,,,
S. Pietro a Casaglia,,Vicariato di Sesto e Calenzano. Don Alvaro Guidotti AMMINISTRATORE PARROCCHIALE 055 8876814,,,Calenzano,Via di Casaglia,115,43.939080,11.197180,Cattolico,Domenicali e festive    10:00 - San Pietro a Casaglia,false,,,,,,,,,,,
S. Pietro a Cirignano,,Vicariato del Mugello Ovest. Don Simone Pifizzi AMMINISTRATORE PARROCCHIALE 055 841063 cirignano@parrocchie.diocesifirenze.it,,,Barberino di Mugello,Via Cirignano,1,44.013980,11.234710,Cattolico,Domenicali e festive    09:30,false,,,,,,,,,,,
S. Pietro a Ema,,Vicariato di Antella Ripoli e Impruneta. Don Dr. Giulio Cirri PARROCO    Diac. Marco Beconcini SERVIZIO PRESSO PARROCCHIA 055 640025,,,Bagno a Ripoli,Via Chiantigiana,25,43.738430,11.298030,Cattolico,"Domenicali e festive    07:30 - S. Pietro a Ema, 10:00 - S. Pietro a Ema, 11:15 - S. Pietro a Ema. Feriali   17:00 - S. Pietro a Ema - Periodo ora solare, 17:30 - S. Pietro a Ema - Periodo ora legale. Prefestive    17:30 - S. Pietro a Ema - Periodo ora so",false,,,,,,,,,,,
S. Pietro a Lecore,,Vicariato delle Signe. Don Giancarlo Gondolini AMMINISTRATORE PARROCCHIALE   Diac. Paolo Bendinelli SERVIZIO PRESSO PARROCCHIA,,,Signa,piazza Lecore,2,43.800030,11.074770,Cattolico,Domenicali e festive    09:30 - S. Pietro a Lecore.Feriali   08:30 - S. Pietro a Lecore. Prefestive    16:00 - S. Pietro a Lecore,false,,,,,,,,,,,
S. Pietro a Luco,,Vicariato del Mugello Est. Don Alessio Cintolesi AMMINISTRATORE PARROCCHIALE 055 8401033,,,Borgo San Lorenzo,Via Traversi,90,43.999940,11.395440,Cattolico,"Domenicali e festive    11:00 - S. Pietro a Luco, 17:00 - S. Pietro a Luco - Periodo ora solare, 18:00 - S. Pietro a Luco - Periodo ora legale. Feriali    17:00 - S. Pietro a Luco - Periodo ora solare, 18:00 - S. Pietro a Luco - Periodo ora legale.Prefest",false,,,,,,,,,,,
S. Pietro a Malmantile,,Vicariato delle Signe. Don John Bosco Mendon AMMINISTRATORE PARROCCHIALE 055 8729352 malmantile@parrocchie.diocesifirenze.it,,,Lastra a Signa,Via Gello,1,43.742190,11.065710,Cattolico,"Domenicali e festive    07:30 - S. Pietro a Malmantile, 09:00 - S. Pietro a Malmantile, 11:15 - S. Pietro a Malmantile.Feriali    08:00 - S. Pietro a Malmantile, 17:00 - S. Pietro a Malmantile - Periodo ora solare, 18:00 - S. Pietro a Malmantile - Periodo",false,,,,,,,,,,,
S. Pietro a Porto di Mezzo,,Vicariato delle Signe. Diac. Marcello Fiorenzo Pesci SERVIZIO PRESSO PARROCCHIA    Don Antony Bascal Selva Cruz AMMINISTRATORE PARROCCHIALE 055 8723226 portodimezzo@parrocchie.diocesifirenze.it,,,Lastra a Signa,Via Livornese,637,43.778050,11.081140,Cattolico,"Domenicali e festive    08:00 - S. Pietro a Porto di Mezzo, 11:30 - S. Pietro a Porto di Mezzo. Feriali    17:30 - S. Pietro a Porto di Mezzo - Periodo ora solare, 18:00 - S. Pietro a Porto di Mezzo - Periodo ora legale. Prefestive    17:30 - S. Pietro a",false,,,,,,,,,,,
S. Pietro a Quaracchi,,. Don Claudio Fattori PARROCO 055 311892,,,Firenze,Via San Piero a Quaracchi,9,43.797440,11.177420,Cattolico,,false,,,,,,,,,,,
S. Pietro a Riottoli,,Vicariato di Empoli Montelupo. Don Vieri Vivoli AMMINISTRATORE PARROCCHIALE 0571 80677,,,Empoli,Via di Riottoli,8,43.727860,10.915330,Cattolico,,false,,,,,,,,,,,
S. Pietro a Ripoli,,Vicariato di Antella Ripoli e Impruneta. Don Filippo Lupi PARROCO    Diac. Andrea Masini SERVIZIO PRESSO PARROCCHIA 055 6821115 pietro.ripoli@parrocchie.diocesifirenze.it,,,Bagno a Ripoli,Via Poggio della Pieve,3,43.753570,11.309550,Cattolico,,false,,,,,,,,,,,
S. Pietro a San Piero a Sieve,,Vicariato del Mugello Ovest. Don Antonio Cigna PARROCO 055 848161,,,San Piero a Sieve,Via Provinciale,17,43.961240,11.323810,Cattolico,,false,,,,,,,,,,,
S. Pietro a Sollicciano,,Vicariato di Porta S. Frediano. Don Rossano Carli AMMINISTRATORE PARROCCHIALE 055 780298,,,Firenze,Via di Ugnano,11,43.784510,11.165930,Cattolico,,false,,,,,,,,,,,
S. Pietro a Vaglia,,Vicariato del Mugello Ovest. Don Joseph Macus Ogan AMMINISTRATORE PARROCCHIALE 055 407836,,,Vaglia,Via Angelo Nardi,648,43.914910,11.277720,Cattolico,"Domenicali e festive    09:00 - Cappalla Corsini, 11:00, 17:30.Feriali    07:00, 18:00 - Cappella Corsini",false,,,,,,,,,,,
S. Pietro a Varlungo,,Vicariato di Porta alla Croce. Don Antonio Ferrara PARROCO 055 6504393 varlungo@parrocchie.diocesifirenze.it,,,Firenze,Via di Varlungo,71,43.766790,11.299930,Cattolico,"Domenicali e festive    08:00 - Monastero della Crocetta, 10:00 - S. Pietro a Varlungo, 11:30 - S. Pietro a Varlungo.Feriali    07:00 - Monastero della Crocetta, 17:30 - S. Pietro a Varlungo. Prefestive    18:00 - S. Pietro a Varlungo",false,,,,,,,,,,,
S. Pietro in Gattolino,,Vicariato di Porta Romana. Don Gianfranco Rolfi AMMINISTRATORE PARROCCHIALE 055 222233,,,Firenze,Via Romana,55,43.763350,11.244780,Cattolico,Domenicali e festive    10:00 - S. Pietro in Gattolino.Prefestive    18:00 - S. Pietro in Gattolino,false,,,,,,,,,,,
S. Pietro in Jerusalem (o S. Gersole'),,Vicariato di Antella Ripoli e Impruneta. Can. Mario Landi AMMINISTRATORE PARROCCHIALE   Diac. Luciano Agorri SERVIZIO PRESSO PARROCCHIA 055 208017,,,Impruneta,Via S. Gersolo,,43.708077,11.255036,Cattolico,"Domenicali e festive    10:00 - Centro don Gnocchi, 11:30 - S. Pietro a Jerusalem. Prefestive    17:00 - S. Pietro a Jerusalem - Periodo ora solare, 18:00 - S. Pietro a Jerusalem - Periodo ora legale",false,,,,,,,,,,,
S. Pietro in Mercato,,Vicariato di S. Casciano Montesp. Tav.. Don Roberto Bartolini AMMINISTRATORE PARROCCHIALE 0571 608088,,,Montespertoli,Via S. Pietro in Mercato,225,43.631681,11.073583,Cattolico,,false,,,,,,,,,,,
S. Pio X al Sodo,,Vicariato di Rifredi. Don Francesco Carensi PARROCO    Don Domenico De Paola VICARIO PARROCCHIALE 055 452326 parrocchia@pioxsodovirgilio.it,,http://www.sanpioxfi.org,Firenze,Via delle Panche,212,43.810900,11.235380,Cattolico,"Domenicali e festive    08:30 - S. Pio X al Sodo, 11:00 - S. Pio X al Sodo.Feriali    08:30 - S. Pio X al Sodo, 17:00 - S. Pio X al Sodo, 18:00 - S. Pio X al Sodo.Prefestive    18:00 - S. Pio X al Sodo",false,,,,,,,,,,,
S. Quirico a Legnaia,,Vicariato di Porta S. Frediano. Don Benito Barucca PARROCO    Don Reynold Corcino VICARIO PARROCCHIALE 055 7321405 quirico.legnaia@parrocchie.diocesifirenze.it,,,Firenze,Via Pisana,598,43.769620,11.206380,Cattolico,"Domenicali e festive    08:30 - S. Quirico a Legnaia, 10:00 - S. Quirico a Legnaia, 11:30 - S. Quirico a Legnaia, 18:00 - S. Quirico a Legnaia.Feriali    08:30 - S. Quirico a Legnaia, 18:00 - S. Quirico a Legnaia.Prefestive    18:00 - S. Quirico a Legnaia",false,,,,,,,,,,,
S. Quirico in Collina,,Vicariato di S. Casciano Montesp. Tav.. Don Giovanni Lucherini PARROCO   Diac. Renato Boschi SERVIZIO PRESSO PARROCCHIA 0571 670854,,,Montespertoli,Via della Chiesa,34,43.650960,11.128110,Cattolico,"Domenicali e festive    07:30 - San Quirico, 10:30 - San Quirico, 17:00 - San Quirico - Periodo ora solare, 18:00 - San Quirico - Periodo ora legale. Feriali    17:00 - San Quirico - Periodo ora solare, 18:00 - San Quirico - Periodo ora legale",false,,,,,,,,,,,
Resurrezione di N.S.G.C. alla Nave a Rovezzano,,Vicariato di Porta Romana. Don Bruno Cirano Spalletta PARROCO   Don Alessandro Marsili  VICARIO PARROCCHIALE 055 6530015,,,Firenze,Via di Villamagna,174,43.761610,11.310080,Cattolico,"Domenicali e festive    08:00 - Resurrezione di N.S.G.C. a Rovezzano, 11:00 - Resurrezione di N.S.G.C. a Rovezzano, 18:00.Feriali    08:45. Prefestive    18:00",false,,,,,,,,,,,
S. Remigio,,Vicariato di S. Giovanni. P. Rosario Landrini  AMMINISTRATORE PARROCCHIALE  P. Dr. Alessandro Clemenzia VICARIO PARROCCHIALE 0552 84789 parrocchiasanremigio@timenet.it,,,Firenze,Via San Remigio,4,43.768500,11.258180,Cattolico,"Domenicali e festive    11:00 - S. Remigio, 11:00 - Badia Fiorentina. Feriali    18:30 - Badia Fiorentina. Prefestive    18:00 - S. Remigio",false,,,,,,,,,,,
S. Romolo a Bivigliano,,Vicariato del Mugello Ovest. Don Dr. Luca Mazzinghi PARROCO 055 406640,,,Vaglia,Via della Chiesa,123,43.893020,11.320900,Cattolico,"Domenicali e festive    11:00. Feriali    16:30 - c/o Casa di Riposo, 18:00 - c/o Suore.Prefestive    17:00 - - ora solare",false,,,,,,,,,,,
S. Romolo a Colonnata,,Vicariato di Sesto e Calenzano. Don Giampiero Sartini PARROCO Diac. Giuseppe Lamonaca  SERVIZIO PRESSO PARROCCHIA   Don Rosario Antonio Pirrello VICARIO PARROCCHIALE 055 4489618 santoromolo@virgilio.it,,,Sesto Fiorentino,piazza San Romolo,2,43.839230,11.210310,Cattolico,"Domenicali e festive    07:00 - San Romolo a Colonnata, 08:30 - San Romolo a Colonnata, 09:30 - Aula dell'Angelus, 10:30 - San Romolo a Colonnata, 12:00 - San Romolo a Colonnata. Feriali    07:15 - San Romolo a Colonnata, 18:15 - San Romolo a Colonnata. P",false,,,,,,,,,,,
S. Romolo a Tignano,,Vicariato di S. Casciano Montesp. Tav.. Don Hernan Garcias Pardo AMMINISTRATORE PARROCCHIALE 055 8075778,,,Barberino Val d'Elsa,Via di Tignano,15,43.544890,11.191590,Cattolico,Domenicali e festive    07:00 - San Romolo a Tignano. Feriali    07:15 - San Romolo a Tignano. Prefestive    16:30 - Casa di Riposo Tavarnelle,false,,,,,,,,,,,
S. Romolo a Villamagna,,Vicariato di Antella Ripoli e Impruneta. Don Andrzej Wierzbicki AMMINISTRATORE PARROCCHIALE 055 6519168,,,Bagno a Ripoli,Via San Romolo,96,43.769944,11.385156,Cattolico,Domenicali e festive    09:45 - S. Romolo a Villamagna,false,,,,,,,,,,,
S. Ruffignano a Monsanto,,Vicariato di S. Casciano Montesp. Tav.. Don Luciano Marchetti AMMINISTRATORE PARROCCHIALE 055 8059029 parrocchiadimonsanto@alice.it,,,Barberino Val d'Elsa,Via Monsanto,1,43.495410,11.193200,Cattolico,Domenicali e festive    10:00 - S. Ruffignano a Monsanto,false,,,,,,,,,,,
S. Ruffignano a Sommaia,,Vicariato di Sesto e Calenzano. Don Paolo Glaentzer AMMINISTRATORE PARROCCHIALE 055 8878903 parrocchia.sommaia@tiscali.it,,,Calenzano,Via di Sommaia,17,43.867956,11.189032,Cattolico,"Domenicali e festive    10:30 - San Ruffignano a Sommaia - Tutto l'anno. Feriali    17:00 - San Ruffignano a Sommaia - Tutto l'anno, 21:15 - San Ruffignano a Sommaia - Tutto l'anno. Prefestive    17:00 - San Ruffignano a Sommaia - Ottobre - Maggio",false,,,,,,,,,,,
S. Salvatore e S. Lorenzo a Settimo,,Vicariato di Scandicci. Don Carlo Maurizi PARROCO 055 790015 info@badiadisettimo.it,,,Scandicci,Via S. Lorenzo,15,43.779831,11.143672,Cattolico,"Domenicali e festive    07:30 - Badia a Settimo, 11:00 - Badia a Settimo, 18:00 - Badia a Settimo. Feriali    18:00 - Badia a Settimo. Prefestive    18:00 - Badia a Settimo",false,,,,,,,,,,,
SAN SALVATORE IN OGNISSANTI,SAN SALVATORE IN OGNISSANTI,SAN SALVATORE IN OGNISSANTI,SAN SALVATORE IN OGNISSANTI,,Firenze,BORGO OGNISSANTI,42,43.771704,11.246744,Cattolico,"Messe feriali: 8 (in latino), 18:30.
Messe festive: 10:30, 12 (in latino) e 18:30.",false,+39 055 2398700,,,Catholic,+39 055 2398700,,Da Piazza Stazione 10 minuti a piedi.,From Piazza Stazione 10 minute walk.,"Weekday mass: 8am (in Latin) and 6:30pm.
Sundays and holidays: 10:30am, 12pm (in Latin) and 6:30pm.",Accessibile,Fully accessible
S. Severo a Legri,,Vicariato di Sesto e Calenzano. Don Dr. Angelo Pellegrini AMMINISTRATORE PARROCCHIALE Diac. Fabrizio Pagliai 	SERVIZIO PRESSO PARROCCHIA 055 8827149,,,Calenzano,Via Legri,36,43.913930,11.223840,Cattolico,Domenicali e festive    10:00 - San Se1 a Legri,false,,,,,,,,,,,
S. Silvestro a Barberino,,Vicariato del Mugello Ovest. Don Simone Pifizzi PARROCO    Don Dr. Joseph Vazhuthanapally VICARIO PARROCCHIALE    Don Jean de Dieu Noel Elondabare VICARIO PARROCCHIALE 055 841063,,,Barberino di Mugello,corso Bartolomeo Corsini,99,44.001660,11.240040,Cattolico,"Domenicali e festive    08:00, 11:00, 17:30.Feriali    08:00 - - ATTENZIONE !!! NO da Giugno a Settembre, 17:30. Prefestive    17:30",false,,,,,,,,,,,
CHIESA APOSTOLICA ITALIANA,ITALIAN APOSTOLIC CHURCH,CHIESA APOSTOLICA ITALIANA,ITALIAN APOSTOLIC CHURCH,www.firenzeevangelica.org,Firenze,Via Mario Morosi,36,43.793628,11.216054,Anglicano,Domenica 10.30,false,+39 055 8997238,Firenze Evangelica,Evangelic Florence,Anglican,+39 055 8997238,samuele.t@infinito.it,Da Piazza Stazione bus 22 (direzione Via Lippi e Macia),From Piazza Stazione bus 22 (direction Via Lippi e Macia),Sunday 10.30,,
Chiesa Avventista del Settimo Giorno,Church of the Seventh Day Adventist,Chiesa Avventista del Settimo Giorno,Church of the Seventh Day Adventist,http://firenze.chiesaavventista.it,Firenze,VIA DEL PERGOLINO,01/04/16,43.805546,11.255036,Evangelico,Sabato: ore 9:30 Studio Biblico. Culto: ore 11.,false,+39 388 1732626,Per maggiori informazioni: www.firenzeevangelica.org,For more information: www.firenzeevangelica.org,Evangelical,+39 388 1732626,s.scuccimarri@avventisti.it,"Da piazza Stazione bus ATAF 2 (direzione Calenzano) fino a Piazza Dalmazia, da qui bus 40B (direzione Incontri) o 40T (direzione Villa Cancelli).","From piazza Stazione bus ATAF 2 (direction Calenzano) till Piazza Dalmazia, from here bus 40B (direction Incontri) or 40T (direction Villa Cancelli) .",Saturday: 9:30am Biblical Study; 11am Service.,Accessibile,Fully accessible
Chiesa Cristiana Biblica,Christian Biblical Church,Chiesa Cristiana Biblica,Christian Biblical Church,www.chiesacristianabiblica.com,Firenze,VIA DI SCANDICCI,86,43.757931,11.200527,Evangelico,Domenica: ore 10:15 Culto di Lode. Mercoledi': ore 21:15 Riunione di Preghiera. Ogni 2° giovedi' del mese: ore 21 Studio Biblico.,false,+39 055 717302  / +39 333 1455507 (sig. Graziano Meoni),Per maggiori informazioni: www.firenzeevangelica.org,For more information: www.firenzeevangelica.org,Evangelical,+39 055 717302  / +39 333 1455507 (sig. Graziano Meoni),lagomars@libero.it - lunghiloris@alice.it,Da piazza Stazione bus ATAF 6 (direzione Ospedale Torregalli).,From piazza Stazione ATAF bus 6 (direction Ospedale Torregalli).,Sunday: 10:15am Service of Praise. Wednesday: 9:15pm Prayer Meeting. Every 2nd Thursday of the month: 9pm Biblical Study.,Accessibile,Fully accessible
Chiesa del Nazareno,Church of the Nazarene,Chiesa del Nazareno,Church of the Nazarene,www.firenzeevangelica.org,Firenze,VIA ARTURO TOSCANINI,60/62,43.790127,11.220484,Evangelico,Domenica ore 10 e mercoledi' ore 20: Culto di Adorazione. Domenica ore 15:30 e giovedi' ore 19:30: Culto in lingua spagnola.,false,+39 055 411951 / +39 333 5051800,,,Evangelical,+39 055 411951 / +39 333 5051800,finkdaniel@libero.it,Da via Luigi Alamanni bus ATAF 29 (direzione Motorizzazione civile/Via Pratese) o bus ATAF 30 (direzione Campi Bisenzio/La Villa).,From via Alamanni ATAF bus 29 (direction Motorizzazione civile/Via Pratese) or bus ATAF 30 (direction Campi Bisenzio/La Villa).,Sunday 10am and Wednesday 8pm: Service. Sunday: 3:30pm and Thursday 7:30pm: Service in Spanish.,Accessibile,Fully accessible
Chiesa Cristiana Evangelica Battista,Christian Church Evangelical Bapstist,Chiesa Cristiana Evangelica Battista,Christian Church Evangelical Bapstist,www.firenzeevangelica.org,Firenze,BORGO OGNISSANTI,4,43.771768,11.246647,Evangelico,Domenica: 11 Culto. Domenica 9:30 Studio Biblico. Venerdi': 20:30 Preghiera.,false,+39 055 9330750 (Anna Maffei),"Visite: la chiesa a'¨ all'interno di un antico teatro ed a'¨ visitabile su appuntamento telefonico, oppure chiedendo allâadiacente Libreria Claudiana.","Visits: the church is inside an ancient theatre and can be visited by phone appointment, or asking the nearby bookshop âClaudianaâ.",Evangelical,+39 055 9330750 (Anna Maffei),anna.maffei@ucebi.it,"Da piazza Stazione bus ATAF D (direzione Piazza Ferrucci), oppure 10 minuti a piedi.","From piazza Stazione ATAF bus D (direction Piazza Ferrucci), a 10- minute walk.",Sunday: 11am Service. Sunday: 9:30am Biblical Study. Friday: 8:30pm Prayer.,Accessibile,Fully accessible
Chiesa Cristiana Evangelica dei Fratelli,Evangelical Christian Church of The Brothers,Chiesa Cristiana Evangelica dei Fratelli,Evangelical Christian Church of The Brothers,www.vignavecchia.org,Firenze,VIA DELLA VIGNA VECCHIA,15/17,43.770187,11.259368,Evangelico,Domenica: 10:15 Culto di Adorazione. Per gli incontri settimanali consultare il sito.,false,+39 055 217236 (lasciare messaggio in segreteria) / +39 347 3638954,Visite: su appuntamento.,Visits: by appointment.,Evangelical,Tel +39 055 217236 (leave a message on the answering machine) / +39 347 3638954,chiesa@vignavecchia.org - studiomoretti@studiomorettiguido.it,Da via Panzani bus ATAF C2 (direzione Piazza Beccaria).,From via Panzani ATAF bus C2 (direction Piazza Beccaria).,Sunday: 10:15am Service. For the weekly meetings check the website,Accessibile,Fully accessible
Chiesa Evangelica Luterana,Evangelical Lutheran Church,Chiesa Evangelica Luterana,Evangelical Lutheran Church,www.firenzeevangelica.org,Firenze,LUNGARNO TORRIGIANI,11,43.766487,11.255740,Evangelico,La 1a e la 3a domenica del mese: ore 10 Culto di Adorazione. Le funzioni religiose si svolgono ogni altra domenica con la Chiesa Riformata Svizzera ore 10:30.,false,+39 055 2342775,Visite: telefonare per prendere un appuntamento con la Sig.ra Andreini (tel +39 055 2342582) o con il pastore.,Visits: phone to make an appointment with Mrs Andreini (tel +39 055 2342582) or with the pastor.,Evangelical,+39 055 2342775,,Da piazza Stazione bus ATAF 23 (direzione Sorgane / Nave a Rovezzano).,From piazza Stazione bus ATAF 23 (direction Sorgane / Nave a Rovezzano).,The 1st and the 3d Sunday of the month: 10am Service. Every other Sunday the service is with the Swiss Reformed Church Congregation at 10:30am.,Limitata,Partly accessible
Chiesa Evangelica Metodista,Evangelical Methodist Church,Chiesa Evangelica Metodista,Evangelical Methodist Church,www.firenzeevangelica.org,Firenze,VIA DEI BENCI,9/r,43.768365,11.260004,Evangelico,Domenica: ore 9:30 Culto di Adorazione e la 2a domenica del mese con la santa cena.,false,+39 055 2477800,Visite solo su prenotazione telefonica.,Visits only by booking in advance by phone.,Evangelical,+39 055 2477800,,Da via Panzani bus ATAF C2 (direzione Piazza Beccaria)..,From via Panzani bus ATAF C2 (direction Piazza Beccaria).,Sunday: 9:30am Service and the 2nd Sunday of the month with the Holy Supper.,Accessibile,Fully accessible
Chiesa Riformata Svizzera,Swiss Reformed Church,Chiesa Riformata Svizzera - c/o la Chiesa Luterana.,Swiss Reformed Church - c/o Lutheran Church.,www.firenzeevangelica.org,Firenze,LUNGARNO TORRIGIANI,11,43.766487,11.255740,Evangelico,2a e 4a domenica del mese (fino a marzo 2016): ore 10:30 Culto di Adorazione.,false,+39 347 7863000 (Francesca Paoletti),,,Evangelical,+39 347 7863000 (Francesca Paoletti),,Da piazza Stazione bus ATAF D (direzione Piazza Ferrucci).,From piazza Stazione bus ATAF D (direction Piazza Ferrucci).,The 2nd e 4th Sunday of the month (until March 2016): 10:30am Service.,Limitata,Partly accessible
Chiesa Evangelica Valdese,Waldensian Evangelical Church,Chiesa Evangelica Valdese,Waldensian Evangelical Church,www.firenzeevangelica.org,Firenze,VIA PIER ANTONIO MICHELI,26,43.780199,11.260523,Evangelico,Domenica: ore 10:30 Culto di Adorazione. Sabato: ore 16 Studio Biblico al Centro Comunitario in via Alessandro Manzoni 21.,false,+39 055 2477800,"Visite: chiesa in stile neo-gotico visitabile domenica 9:30-10:30, altrimenti su richiesta.","Visits: the new-gothic style church can be visited Sunday 9.30-10.30am, or by booking in advance.",Evangelical,+39 055 2477800,concistoro.fivaldese@chiesavaldese.org,Da piazza Stazione bus ATAF 17 (direzione Coverciano/Viale Verga).,From piazza Stazione bus ATAF 17 (direction Coverciano/Viale Verga).,Sunday: 10:30am Service. Saturday: 4pm Bible Study at the Community Centre in via Alessandro Manzoni 21.,Accessibile,Fully accessible
Chiesa Episcopale Americana di S. James,St. James American Episcopal Church,Chiesa Episcopale Americana di S. James,St. James American Episcopal Church,www.stjames.it,Firenze,VIA BERNARDO RUCELLAI,9,43.776357,11.243435,Anglicano,"Lunedi'-venerdi': ore 12 (lodi).
Domenica: ore 9 e 11 (Messa cantata). Il Culto si svolge in inglese.",false,+39 055 294417,Visite: martedi'-venerdi' ore 9-13 (telefonare prima nel caso la chiesa fosse in uso per cerimonie private).,"Visits: Tuesday-Friday 9am-1pm (call in advance, in case the church is used for private ceremonies).",Anglican,+39 055 294417,,Da piazza Stazione bus ATAF D (direzione Piazza Ferrucci).,From piazza Stazione bus ATAF D (direction Piazza Ferrucci).,"Monday-Friday: 12pm (prayers).
Sunday: 9am and 11am (chanted mass). The service is in English.",Accessibile,Fully accessible
Chiesa Russa Ortodossa,Russian Orthodox Church,Chiesa Russa Ortodossa,Russian Orthodox Church,www.chiesarussafirenze.org,Firenze,VIA LEONE X,8,43.783546,11.254587,Ortodosso,Sabato e pre-festivo: ore 18 Grande Veglia; domenica e festivita' : ore 10 Divina Liturgia.,false,+39 055 490148,Visite solo su appuntamento tel +39 055 2477986. Il culto si svolge per 2/3 in lingua slava e per 1/3 in italiano.,Visits only by appointment tel +39 055 2477986. 2/3 of the service is in Slavic and 1/3 in Italian.,Orthodox,+39 055 490148,"consigliocrf@chiesarussafirenze.org
gblatinskij@chiesarussafirenze.org",Da Piazza Stazione bus ATAF 13 (direzione Piazzale Michelangelo).,From Piazza Stazione bus ATAF 13 (direction Piazzale Michelangelo).,Saturday and the days before a holiday: 6pm Great Vigil. Sunday and holidays: 10am Divine Liturgy.,Nessuna,No accessibility
Chiesa Greco-Ortodossa di San Jacopo Apostolo,Greek Orthodox Church of Saint Jacob The Apostle,Chiesa Greco-Ortodossa di San Jacopo Apostolo,Greek Orthodox Church of Saint Jacob The Apostle,http://www.chiesaortodossa-firenze.org,Firenze,BORGO SAN JACOPO,34,43.767624,11.252484,Ortodosso,Domenica e festivita' : ore 10:30 Divina Liturgia. Mercoledi': ore 18 Paraklisi. Sabato: ore 18 Vespri.,false,+39 328 8255062,Visite alla chiesa su appuntamento.,The church can be visited by appointment.,Orthodox,+39 328 8255062,,Da piazza Stazione bus ATAF D (direzione Piazza Ferrucci).,From Piazza Stazione bus ATAF D (direction Piazza Ferrucci).,Sunday and holidays: 10:30am Divine Liturgy. Wednesday: 6pm Paraklisi.  Saturday: 6pm Vespers.,Nessuna,No accessibility
Chiesa Ortodossa Rumena,Romanian Orthodox Church,Chiesa Ortodossa Rumena - c/o Chiesa S. Maria degli Angeli,Romanian Orthodox Church - c/o Chiesa S. Maria degli Angeli,www.bisericaortodoxafirenze.com,Firenze,VIALE GIOVANNI AMENDOLA,1,43.768261,11.271175,Ortodosso,Domenica ore 10 e venerdi' ore 16:30: Divina Liturgia.,false,+39 393 1110354,,,Orthodox,+39 393 1110354,picoman@alice.it; firenze@mitropolia.eu,Da Piazza Stazione bus ATAF C2 (direzione Piazza Beccaria).,From Piazza Stazione bus  ATAF C2 (direction Piazza Beccaria).,Sunday10am and Friday 4:30pm: Divine Liturgy.,Nessuna,No accessibility
Chiesa di Scientology,Church of Scientology,Chiesa di Scientology,Church of Scientology,www.scientology-ccfirenze.org,Firenze,VIA DI NOVOLI,53M,43.791116,11.225548,Scientology,"Lunedi'-venerdi' ore 9-22, sabato e domenica ore 9-18.",false,+39 055 477834,,,Scientology,+39 055 477834,,Da piazza Stazione bus ATAF 22 (direzione Novoli / Via Valdinievole).,From piazza Stazione bus ATAF 22 (direction Novoli / Via Valdinievole).,"Monday-Friday: 9am-10pm, Saturday and Sunday: 9am-6pm.",Nessuna,No accessibility
CENTRO BUDDISMO TIBETANO - CENTRO EWAM,TIBETAN  BUDDHISM  CENTRE - EWAM CENTRE,CENTRO BUDDISMO TIBETANO - CENTRO EWAM,TIBETAN  BUDDHISM CENTRE - EWAM CENTRE,www.ewam.it,Firenze,VIA REGINALDO GIULIANI,505/A,43.820903,11.221139,Buddhista,"Segreteria:  sab e dom se ci sono i corsi, o negli altri giorni se ci sono delle attivita'  (controllare gli orari sul sito)",false,+39 055 454308,"Tutte le attivita'  del centro sono aperte ai soli soci.
Accesso e servizi igienici per disabili.","Activities open to the members only. 
Disabled access and toilets.",Buddhist,+39 055 454308,info@ewam.it,Da Piazza Stazione bus 2 (direzione Calenzano) e 28 (direzione Sesto Fiorentino).,From Piazza Stazione bus 2 (direction Calenzano) and 28 (direction Sesto Fiorentino).,"Office: Sat and Sun if there are courses, or in the other days if there are other activities (check the schedule on the website).",,
Istituto Buddista Italiano Soka Gakkai,Soka Gakkai Italian Buddhist Institute,Istituto Buddista Italiano Soka Gakkai,Soka Gakkai Italian Buddhist Institute,www.sgi-italia.org,Firenze,VIA DI BELLAGIO,2/E,43.820788,11.222081,Buddhista,"Sala per Recitazione:
Lunedi'-venerdi': ore 13-15 / 17-19. Sabato e domenica: ore 8:30-21:30.",false,+39 055 426971,"Ingresso visitatori: Via Reginaldo Giuliani, 546.","Visitors entrance: Via Reginaldo Giuliani, 546.",Buddhist,+39 055 426971,buddismo-e-societa@sgi-italia.org,Da piazza Stazione bus ATAF 2 (direzione Calenzano) e bus ATAF 28 (direzione Sesto Fiorentino).,From piazza Stazione ATAF bus 2 (direction Calenzano) and ATAF bus 28 (direction Sesto Fiorentino).,Recitation Room: Monday-Friday: 1pmâ3pm / 5pmâ7pm. Saturday and Sunday: 8:30am-9:30pm.,Accessibile,Fully accessible
Chiesa Avventista del Settimo Giorno,Church of the Seventh Day Adventist,Chiesa Avventista del Settimo Giorno,Church of the Seventh Day Adventist,http://firenze.chiesaavventista.it,Firenze,Via Guelfa,12,43.776880,11.257000,Evangelico,Sabato: 9:30 Studio Biblico. Culto: 11 e 16 in lingua rumena (in questa sede la comunita'  a'¨ rumena al 90%).,false,+39 334 8974113 / +39 328 6633417,Per maggiori informazioni: www.firenzeevangelica.org,For more information: www.firenzeevangelica.org,Evangelical,+39 334 8974113 / +39 328 6633417,d.abiusi@avventisti.it,Da piazza Stazione 10 minuti a piedi.,From piazza Stazione 10 minutes walk.,Saturday: 9:30am Biblical Study; 11am and 4pm: Service in Romanian (here the Romanian community is 90%).,Nessuna,No accessibility
Chiesa Cristiana Evangelica delle Assemblee di Dio in Italia,Evangelical Christian Church of Assemblies of God in Italy,Chiesa Cristiana Evangelica delle Assemblee di Dio in Italia,Evangelical Christian Church of Assemblies of God in Italy,www.adifirenze.org,Firenze,VIA DI BROZZI,214,43.794145,11.159319,Evangelico,Domenica: ore 18 Culto di Adorazione. Martedi': ore 20 Culto. Giovedi': ore 20 Studio e Preghiera.,false,+39 055 300031,Per maggiori informazioni: www.firenzeevangelica.org.,For more information: www.firenzeevangelica.org.,Evangelical,+39 055 300031,chiesafirenze@assembleedidio.org,Da via Luigi Alamanni bus ATAF 35 (direzione Indicatore).,From via Alamanni ATAF bus 35 (direction Indicatore).,Sunday 6pm and Tuesday 8pm: Service. Thursday: 8pm Study and Prayer.,Accessibile,Fully accessible
Chiesa Greco Cattolica Ucraina,Greek Catholic Ukraine Church,Chiesa Greco Cattolica Ucraina,Greek Catholic Ukraine Church,,Firenze,VIA DEI LAVATOI(Parrocchia San Simone e Giuda),3,43.769949,11.260452,Greco-Cattolico,Sabato: 14:30; domenica: ore 12:30 e due giovedi' nel mese: ore 15 Divina Liturgia.,false,+39 329 3552779,,,Greek-Catholic,+39 329 3552779,voloshyn73@yahoo.it,Da via Panzani bus ATAF C2 (direzione Piazza Beccaria).,From via Panzani bus ATAF C2 (direction Piazza Beccaria).,Saturday: 2:30pm; Sunday: 12:30pm; two Thursdays every month: 3pm Divine Liturgy.,Nessuna,No accessibility
Hare Krishna,Hare Krishna,Hare Krishna,Hare Krishna,www.villavrindavana.org,San Casciano in Val di Pesa,VIA SCOPETI,108,43.689972,11.202414,Hare Krishna,"domenica ore 16:30: festa con canti tradizionali, filosofia del Bhakti Yoga e banchetto vegetariano. Il tempio a'¨ sempre aperto per la preghiera.",false,+39 055 820054,,,Hare Krishna,+39 055 820054,info@villavrindavana.org,"Da via S. Caterina da Siena bus BUSITALIA per San Casciano Val di Pesa o Mercatale (via SantâAndrea) con fermata davanti alla villa. 
In Auto: dirigersi a Fi-Impruneta e immettersi nella Superstrada per Siena, uscita San Casciano Val di Pesa; seguire quindi le indicazioni per Via degli Scopeti.","From via S. Caterina da Siena bus BUSITALIA to San Casciano Val di Pesa or Mercatale (via SantâAndrea) with a stop in front of the villa. 
By car: go to Fi-Impruneta and take the Superstrada toward Siena, exit San Casciano Val di Pesa; follow the indications for Via degli Scopeti.","Sunday: 4:30pm party with traditional songs, Bhakti Yoga philosophy and vegetarian banquet. The temple is always open for prayer.",Limitata,Partly accessible
Sinagoga,Synagogue,Sinagoga,Synagogue,http://moked.it/firenzebraica/,Firenze,VIA LUIGI CARLO FARINI,4,43.773592,11.265953,Ebraico,"Culto: venerdi' sera controllare orari sul sito, sabato: dalle ore 8:45. Gli orari sono affissi anche all'entrata..",false,+39 055 245252,"Visite: per prenotazioni, aperture straordinarie e informazioni sulla Sinagoga e il Museo Ebraico contattare Coopculture (tel +39 055 2346654 / +39 055 2466089 - www.coopculture.it - sinagoga.firenze@coopculture.it) o chiedere gli orari agli Uffici di Informazioni Turistiche.","Visits: for booking, special openings and information about the Synagogue and the Jewish Museum contact Coopculture (tel +39 055 2346654 / +39 055 2466089; www.coopculture.it - sinagoga.firenze@coopculture.it) or ask at the Tourist Information Offices.",Jewish,+39 055 245252,,Da piazza Stazione bus ATAF 14 (direzione Ripa/il Girone) o 23 (direzione Sorgane/Nave a Rovezzano).,From piazza Stazione ATAF bus 14 (direction Ripa/il Girone) or ATAF bus 23 (direction Sorgane/Nave a Rovezzano).,"Service: Friday evening: check the schedule on the web site, Saturday: from 8:45am. The schedules are also posted at the entrance.",Accessibile,Fully accessible
Testimoni di Geova,Jehovah's Witnesses,Testimoni di Geova,Jehovah's Witnesses,www.jw.org,Firenze,VIA DEL CAMPOFIORE,100,43.768093,11.279439,Testimoni di Geova,"Congregazione Firenze Campo Marte â mercoledi': ore 20 Studio Biblico;  domenica: ore 17 Adunanza Pubblica.
Congregazione Firenze Est â martedi': ore 20 Studio Biblico; domenica: ore 10 Adunanza Pubblica.",false,+39 055 661398,Per conoscere lâeventuale possibilita'  di accesso disabili contattare le Sale del Regno durante gli orari di adunanza o di studio.,To know if there are disabled access and toilets phone the Kingdom Halls during the public meeting or the Bible study.,Jehovah's Witnesses,+39 055 661398,,Da piazza Stazione bus ATAF 14 (direzione Ripa/Il Girone).,From Piazza Stazione ATAF bus 14 (direction Ripa/Il Girone).,"Congregation Firenze Campo Marte â Wednesday: 8pm Bible Study;  Sunday: 5pm Public Meeting.
Congregation Firenze Est â Tuesday: 8pm Bible Study; Sunday: 10am Public Meeting.",,
Testimoni di Geova,Jehovah's Witnesses,Testimoni di Geova,Jehovah's Witnesses,www.jw.org,Firenze,VIA FELICE FONTANA,41,43.786722,11.237297,Testimoni di Geova,"Congregazione Firenze Nord â martedi': ore 20 Studio Biblico; domenica: ore 10 Adunanza Pubblica.
Congregazione Firenze Nova â mercoledi': ore 20 Studio Biblico; domenica: ore 17 Adunanza Pubblica.
Congregazione Firenze Redi â mercoledi': ore 20 Studio Biblico; sabato ore 17 Adunanza Pubblica.",false,+39 055 332397,Per conoscere lâeventuale possibilita'  di accesso disabili contattare le Sale del Regno durante gli orari di adunanza o di studio.,To know if there are disabled access and toilets phone the Kingdom Halls during the public meeting or the Bible study.,Jehovah's Witnesses,+39 055 332397,,Da piazza Stazione bus ATAF 22 (direzione Novoli/Via Valdinievole) o bus ATAF 57 (direzione Sesto Fiorentino /Via Gramsci).,From piazza Stazione ATAF bus 22 (direction Novoli/Via Valdinievole) or bus 57 (direction Sesto Fiorentino/Via Gramsci).,"Congregation Firenze Nord â Tuesday: 8pm Bible Study; Sunday: 10am PublicMeeting.
Congregation Firenze Nova â Wednesday: 8pm Bible Study; Sunday: 5pm Public Meeting.
Congregation Firenze Redi â Wednesday: 8pm Bible Study; Saturday: 5pm Public Meeting.",,
Testimoni di Geova,Jehovah's Witnesses,Testimoni di Geova,Jehovah's Witnesses,www.jw.org,Firenze,VIA MAFFEI,4C/D,43.787509,11.271029,Testimoni di Geova,Congregazione Firenze Cure â martedi': ore 20 Studio Biblico; domenica: ore 16:30 Adunanza Pubblica.,false,+39 055 580351,Per conoscere lâeventuale possibilita'  di accesso disabili contattare le Sale del Regno durante gli orari di adunanza o di studio.,To know if there are disabled access and toilets phone the Kingdom Halls during the public meeting or the Bible study.,Jehovah's Witnesses,+39 055 580351,,Da piazza Stazione bus ATAF 1 (direzione Cure Boccaccio / Salviati FS).,From piazza Stazione ATAF bus 1 (direction Cure Boccaccio / Salviati FS).,Congregation Firenze Cure â Tuesday: 8pm Biblel Study; Sunday: 4:30pm Public Meeting.,,
S. Cassiano a SAN CASCIANO IN VAL DI PESA,,Vicariato di S. Casciano Montesp. Tav.. Diac. Mario Fusi SERVIZIO PRESSO PARROCCHIA   Don Massimiliano Gori PARROCO   Don Dr. Bledar (Pio) Xhuli VICARIO PARROCCHIALE 055 820218 pievepesainter@free.it,,,San Casciano in Val di Pesa,Via Guarducci,8,43.657250,11.185750,Cattolico,"Domenicali e festive   08:00 - San Cassiano, 10:00 - San Cassiano, 11:15 - San Cassiano, 17:30 - San Cassiano. Feriali   08:30 - San Cassiano, 17:30 - San Cassiano. Prefestive   17:30 - San Cassiano",false,,,,,,,,,,,
S. Piero di Sopra,,Vicariato di S. Casciano Montesp. Tav.. P. Luigi Senesi AMMINISTRATORE PARROCCHIALE  piero.sopra@parrocchie.diocesifirenze.it,,,San Casciano in Val di Pesa,,,43.593310,11.217250,Cattolico,,false,,,,,,,,,,,
S. Silvestro a Ruffignano,,Vicariato di Rifredi. Don Dr. Enrico Chiavacci  PARROCO 055 451414,,,Firenze,Via Ruffignano,10,43.831550,11.247800,Cattolico,"Domenicali e festive    07:30 - S. Silvestro a Ruffignano, 11:30 - S. Silvestro a Ruffignano. Feriali    09:00 - S. Silvestro a Ruffignano - Occasionalmente",false,,,,,,,,,,,
S. Stefano a Calcinaia,,Vicariato delle Signe. Don Stefano Cherici AMMINISTRATORE PARROCCHIALE 0558722375,,,Lastra a Signa,Via Calcinaia,33,43.764450,11.104527,Cattolico,Domenicali e festive    10:30 - S. Stefano a Calcinaia,false,,,,,,,,,,,
S. Stefano a Campi,,Vicariato di Campi Bisenzio. Don Marco Fagotti PARROCO   P. Jayabalan Augustin VICARIO PARROCCHIALE 055 892868,,,Campi Bisenzio,piazza G. Matteotti,22,43.822110,11.135870,Cattolico,"Domenicali e festive    08:00 - Pieve di S. Stefano, 10:00 - Pieve di S. Stefano, 11:30 - Pieve di S. Stefano, 18:00 - Pieve di S. Stefano. Feriali    07:15 - Pieve di S. Stefano, 18:00 - Pieve di S. Stefano. Prefestive    18:00 - Pieve di S. Stefano",false,,,,,,,,,,,
S. Stefano a Campoli,,Vicariato di S. Casciano Montesp. Tav.. Diac. Mario Gazzeri SERVIZIO PRESSO PARROCCHIA    Don Mario Tomasello  AMMINISTRATORE PARROCCHIALE     P. Kulandairaj Lazer  VICARIO PARROCCHIALE 055 8218159,,,San Casciano in Val di Pesa,Via Campoli,75,43.630500,11.237210,Cattolico,Domenicali e festive    09:30 - Santo Stefano a Campoli,false,,,,,,,,,,,
S. Stefano a Campomigliaio,,Vicariato del Mugello Ovest. Don Antonio Cigna AMMINISTRATORE PARROCCHIALE 055848391 campomigliaio@parrocchie.diocesifirenze.it,,,San Piero a Sieve,,,43.935940,11.299250,Cattolico,Domenicali e festive    09:45,false,,,,,,,,,,,
S. Stefano a Grezzano,,Vicariato del Mugello Est. Don Romano Nencioli PARROCO 055 8401041,,,Borgo San Lorenzo,Via di Grezzano,15,44.009250,11.403700,Cattolico,"Domenicali e festive    08:30 - S. Stefano a Grezzano, 11:00 - S. Stefano a Grezzano. Feriali    16:30 - S. Stefano a Grezzano.",false,,,,,,,,,,,
S. Stefano a Linari,,Vicariato di S. Casciano Montesp. Tav.. Don Luciano Marchetti AMMINISTRATORE PARROCCHIALE 055 8078112 linari@parrocchie.diocesifirenze.it,,,Barberino Val d'Elsa,,,43.511260,11.090260,Cattolico,"Domenicali e festive    09:30 - S. Stefano a Linari, 10:30 - S. Stefano a Linari.",false,,,,,,,,,,,
S. Stefano a Palazzuolo,,Vicariato del Mugello Est. Don Abalo Kedalor Zondokpo AMMINISTRATORE PARROCCHIALE 055 8046014,,,Palazzuolo sul Senio,piazza della Chiesa,1,44.114390,11.548980,Cattolico,"Domenicali e festive    11:00 - S. Stefano a Palazzuolo, 15:00 - S. Pietro a Casaglia, 17:00 - S. Stefano a Palazzuolo - Periodo ora solare, 18:00 - S. Stefano a Palazzuolo - Periodo ora legale. Feriali    08:30 - Santuario di Quadalto, 17:00 - S. Stefano",false,,,,,,,,,,,
S. Stefano a Paterno,,Vicariato di Antella Ripoli e Impruneta. Don Fabio Masi PARROCO 055 630167 masi.fabio@tin.it,,,Bagno a Ripoli,Via Terzano,26,43.744300,11.346010,Cattolico,"Domenicali e festive    08:00 - Cappella della Croce - Dalla terza domenica di settembre alla fine di giugno, 11:00 - Chiesa di Paterno.Prefestive    16:45 - Cappella del Pensionato Jole - Dalla terza settimana di settembre alla fine di giugno",false,,,,,,,,,,,
S. Stefano a Ugnano,,Vicariato di Porta S. Frediano. Don Rossano Carli PARROCO 055 780298,,,Firenze,Via di Fagna,4,43.782900,11.161280,Cattolico,"Domenicali e festive    08:00 - S. Stefano a Ugnano, 11:00 - S. Stefano a Ugnano. Feriali    10:00 - dalle Suore, 18:00 - S. Stefano a Ugnano",false,,,,,,,,,,,
S. Stefano in Pane a Rifredi,,Vicariato di Rifredi. Can. Felicino Turchi VICARIO PARROCCHIALE   Don Marco Nesti PARROCO   Don Dr. Andrea Menestrina  VICARIO PARROCCHIALE    Don Dr. Simone Nencioni  VICARIO PARROCCHIALE 055 412067,,http://www.pieverifredi.it,Firenze,Via delle Panche,32,43.800630,11.240570,Cattolico,"Domenicali e festive    08:00 - S. Stefano in Pane a Rifredi, 09:00 - Cappella dello Spirito Santo, 10:00 - S. Stefano in Pane a Rifredi, 11:30 - S. Stefano in Pane a Rifredi, 18:00 - S. Stefano in Pane a Rifredi. Feriali    08:30 - S. Stefano in Pane a R",false,,,,,,,,,,,
Sacra Famiglia,,Vicariato di Porta alla Croce. Don Adriano Moro PARROCO   Diac. Rosario Forello SERVIZIO PRESSO PARROCCHIA   Don Dr. Daniele Merlini VICARIO PARROCCHIALE     Don Roberto Colameo VICARIO PARROCCHIALE 055 666928,,,Firenze,Via Gioberti,33,43.769840,11.278650,Cattolico,"Domenicali e festive    07:30 - Sacra Famiglia, 08:30 - S. Maria degli Angeli, 09:00 - Sacra Famiglia, 10:30 - Sacra Famiglia, 11:30 - S. Maria degli Angeli, 12:00 - Sacra Famiglia, 18:00 - Sacra Famiglia. Feriali    07:00 - Sacra Famiglia, 09:00 - Sacra",false,,,,,,,,,,,
Sacro Cuore a Firenze,,Vicariato di Porta alla Croce. Don M Stefano Ulivi PARROCO Don Antonio Gramigni  VICARIO PARROCCHIALE 055 670148 info@sacrocuore.firenze.it,,,Firenze,Via Capo di Mondo,60,43.774070,11.277760,Cattolico,"Domenicali e festive    08:30 - Sacro Cuore, 10:00 - Chiesa del Suffragio, 10:30 - Sacro Cuore, 11:30 - Chiesa del Suffragio, 12:00 - Sacro Cuore, 18:00 - Sacro Cuore. Feriali    08:00 - Sacro Cuore, 08:30 - Sacro Cuore, 10:15 - Chiesa del Suffragio, 18:0",false,,,,,,,,,,,
Sacro Cuore di Gesu' a Campi,,Vicariato di Campi Bisenzio. Don Dr. Massimo Marretti PARROCO    P. Jayabalan Augustin VICARIO PARROCCHIALE 055 8963367 sacrocuore.campi@parrocchie.diocesifirenze.it,,,Campi Bisenzio,Via De Gasperi,9,43.815970,11.145430,Cattolico,"Domenicali e festive    08:00 - Chiesa Sacro Cuore di Gesu', 10:00 - Chiesa Sacro Cuore di Gesu', 11:30 - Chiesa Sacro Cuore di Gesu'. Feriali    17:00 - Chiesa Sacro Cuore di Gesu'. Prefestive    17:30 - - Escluso luglio e agosto",false,,,,,,,,,,,
Sacro Cuore di Gesu' a Fontanella,,Vicariato della Valdelsa Fiorentina. Don Gaetano Risicato PARROCO 0571 582030,,,Empoli,Via O. Montanelli,9,43.656972,10.941702,Cattolico,"Domenicali e festive    07:30 - Sacro Cuore, 11:00 - Sacro Cuore. Feriali    16:00 - Sacro Cuore. Prefestive    16:00 - Sacro Cuore - Solo durante l'anno catechistico, 17:30 - Molin Nuovo",false,,,,,,,,,,,
Sacro Cuore di Gesu a Tavarnuzze,,Vicariato di Antella Ripoli e Impruneta. Don Andre Jacques Mambuene Yabu AMMINISTRATORE PARROCCHIALE 055 2020063 tavarnuzze@parrocchie.diocesifirenze.it,,,Impruneta,Via Imprunetana,227,43.709020,11.219420,Cattolico,"Domenicali e festive    08:00 - Sacro Cuore di Gesu' a Tavarnuzze, 11:00 - Sacro Cuore di Gesu' a Tavarnuzze, 17:30 - Sacro Cuore di Gesu' a Tavarnuzze - Periodo ora solare, 18:00 - Sacro Cuore di Gesu' a Tavarnuzze - Periodo ora legale. Feriali    07:30 - Sa",false,,,,,,,,,,,
Sette Santi Fondatori,,Vicariato di Porta alla Croce. P. Alberto Maria Ceragioli PARROCO   Diac. Mario Lodolini  SERVIZIO PRESSO PARROCCHIA    Don John Chiwalala  SERVIZIO PRESSO PARROCCHIA     P. Alessandro Greco VICARIO PARROCCHIALE 055 576661 settesanti@tin.it,,,Firenze,Viale dei Mille,11,43.780790,11.278760,Cattolico,"Domenicali e festive    07:30 - Sette Santi fondatori, 10:00 - Sette Santi fondatori, 11:30 - Sette Santi fondatori, 18:00 - Sette Santi fondatori. Feriali    07:30 - Sette Santi fondatori, 18:00 - Sette Santi fondatori. Prefestive    18:00 - Sette Santi",false,,,,,,,,,,,
S. Tommaso a Certaldo,,Vicariato della Valdelsa Fiorentina. Don Pierfrancesco Amati PARROCO    Don Cristian Comini  VICARIO PARROCCHIALE    Don Dr. Artur Kotowicz  VICARIO PARROCCHIALE 0571 668054 proposituracertaldo@tin.it,,,Certaldo,Via XX Settembre,6,43.547150,11.040520,Cattolico,"Domenicali e festive    07:30 - S. Tommaso, 09:00 - Santi Jacopo e Filippo a Certaldo Alto, 10:30 - S. Tommaso, 12:00 - S. Tommaso, 18:00 - S. Tommaso. Feriali    07:00 - Suore di Maria Bambina, 08:00 - S. Tommaso, 10:30 - Casa di riposo, 18:00 - S. Tomma",false,,,,,,,,,,,
SANTA TRINITA,SANTA TRINITA,SANTA TRINITA,SANTA TRINITA,,Firenze,PIAZZA DI SANTA TRINITA,1,43.770134,11.251378,Cattolico,"Messe feriali: 7:30 e 18:30.
Messe festive: 7:30, 11 e 18:30.",false,+39 055 216912,,,Catholic,+39 055 216912,,Da Piazza Stazione 10 minuti a piedi.,From Piazza Stazione 10 minute walk.,"Weekday mass: 7:30am and 6:30pm.
Sundays and holidays: 7:30am, 11am and 6:30pm.",Accessibile,Fully accessible
Sante Caterina e Francesca alle Falle,,Vicariato di Pontassieve. Don Jozef Budzinski AMMINISTRATORE PARROCCHIALE   Don Tomasz Korszun  SERVIZIO PRESSO PARROCCHIA 055 6530259,,,Pontassieve,Via Aretina,177,43.790789,11.391963,Cattolico,Domenicali e festive    11:00 - Santa Caterina e Francesca alle Falle. Prefestive    17:00 - Santa Caterina e Francesca alle Falle.,false,,,,,,,,,,,
Santi Andrea Apostolo e Dionigi Aeropagita a Piancaldoli,,Vicariato di Firenzuola. Don Giorgio Badiali PARROCO 055 817024,,,Firenzuola,Via Provinciale,1,44.138010,11.380330,Cattolico,"Domenicali e festive    08:00 - Giugnola, 11:00 - Santi Andrea e Dionigi a Piancaldoli. Feriali    15:30 - Santi Andrea e Dionigi a Piancaldoli. Prefestive    16:00 - Santi Andrea e Dionigi a Piancaldoli",false,,,,,,,,,,,
Santi Antonio e Margherita nell'I.O.T.,,Vicariato di Porta Romana. P. Renato Ghilardi PARROCO 055 6577276,,,Firenze,Viale Michelangiolo,41,43.757930,11.271490,Cattolico,Domenicali e festive    10:00 - Santi Antonio e Margherita nell'I.O.T.,false,,,,,,,,,,,
SANTISSIMI APOSTOLI,Santi Apostoli e Biagio,SANTISSIMI APOSTOLI,SANTISSIMI APOSTOLI,,Firenze,piazza del Limbo,1,43.769400,11.252070,Cattolico,"Feriali: 17:30
Prefestivi: 18
Domenica e festivi: 11:30 e 19.
Messa festiva (da Settembre a Luglio): 10:30 (in inglese).",false,055 290642,,,,055 290642,,Da Piazza Stazione 10-15 minuti a piedi.,From Piazza Stazione 10 -15 minute walk.,"Weekday mass: 5:30pm
Saturdays and the day before a holiday: 6pm
Sundays and holidays: 11:30am and 7pm.
Sundays (from September to July) 10:30 am (in English).",,
Santi Francesco e Chiara a Montughi,,Vicariato di Rifredi. P. Mario Giovacchini VICARIO PARROCCHIALE    P. Valerio Mauro PARROCO   P. Franco Di Sibio VICARIO PARROCCHIALE    P. Piero Vivoli  VICARIO PARROCCHIALE 055 488969 francesco.montughi@parrocchie.diocesifirenze.it,,,Firenze,Via dei Cappuccini,1,43.797650,11.253820,Cattolico,"Domenicali e festive    08:00 - Santi Francesco e Chiara a Montughi, 10:00 - Santi Francesco e Chiara a Montughi, 11:30 - Santi Francesco e Chiara a Montughi, 18:00 - Santi Francesco e Chiara a Montughi - Periodo ora solare. Feriali    08:30 - Santi Franc",false,,,,,,,,,,,
Santi Gervasio e Protasio,,Vicariato di Porta alla Croce. Can. Marcello Caverni  PARROCO   Don Matteo Perini  VICARIO PARROCCHIALE 055 587642 gervasio@parrocchie.diocesifirenze.it,,,Firenze,piazza Santi Gervasio e Protasio,8,43.784100,11.282730,Cattolico,"Domenicali e festive    08:00 - Santi Gervasio e Protasio, 10:30 - Santi Gervasio e Protasio, 12:00 - Santi Gervasio e Protasio, 18:00 - Santi Gervasio e Protasio. Feriali    08:00 - Santi Gervasio e Protasio, 18:00 - Santi Gervasio e Protasio.Prefestive",false,,,,,,,,,,,
Santi Giorgio e Jacopo a Visignano,,Vicariato di Firenzuola. Don Giorgio Badiali AMMINISTRATORE PARROCCHIALE 055 817024,,,Firenzuola,,,44.135970,11.375510,Cattolico,Prefestive    15:00 - Santi Giorgio e Jacopo a Visignano,false,,,,,,,,,,,
Santi Giov. Ev. e Lorenzo a Monterappoli,,Vicariato di Empoli Montelupo. Don Vincenzo Mugnaini PARROCO,,,Empoli,Via Salaiola,383,43.675430,10.943240,Cattolico,"Domenicali e festive    09:00 - San Giovanni Battista alla Pieve, 11:30 - San Giovanni Battista alla Pieve. Feriali    17:00 - San Giovanni Battista alla Pieve - Periodo ora solare, 18:00 - San Giovanni Battista alla Pieve - Periodo ora legale",false,,,,,,,,,,,
Santi Giovanni Batt. e Lorenzo a Signa,,Vicariato delle Signe. Don Alessandro Tucci PARROCO    Don Davide Mazzoni VICARIO PARROCCHIALE 055 8790400 parrocchia.signa@alice.it,,,Signa,piazza Cavour,3,43.780830,11.096750,Cattolico,"Domenicali e festive    08:00 - Santi Giovanni Batt. e Lorenzo a Signa, 09:30 - Cappella del Crocifisso, 11:00 - Santi Giovanni Batt. e Lorenzo a Signa, 18:00 - Santi Giovanni Batt. e Lorenzo a Signa. Feriali    08:30 - Santi Giovanni Batt. e Lorenzo a Si",false,,,,,,,,,,,
Santi Giuseppe e Lucia al Galluzzo,,Vicariato di Porta Romana. Can. Giancarlo Lanforti PARROCO    Diac. Carlo Bottai SERVIZIO PRESSO PARROCCHIA   Don Gilbert Muanda Muanda SERVIZIO PRESSO PARROCCHIA 055 2049251 galluzzoparrocchie.diocesifirenze.it,,http://www.parrocchie.it/firenze/galluzzo/,Firenze,Via Santa Chiara,50,43.736790,11.222940,Cattolico,"Domenicali e festive    10:00 - Certosa, 10:00 - S. Giuseppe, 11:00 - Certosa, 12:00 - S. Lucia, 18:00 - S. Giuseppe. Feriali    18:00 - S. Giuseppe.Prefestive    18:00 - S. Giuseppe",false,,,,,,,,,,,
Santi Jacopo e Filippo a Scarperia,,Vicariato del Mugello Ovest. Don Francesco Chilleri AMMINISTRATORE PARROCCHIALE    Don Giovanni Prestianni VICARIO PARROCCHIALE 055 8430099 scarperia@parrocchie.diocesifirenze.it,,www.parrocchiascarperia.it,Scarperia,Via San Martino,28,43.995820,11.355230,Cattolico,,false,,,,,,,,,,,
Santi Martino e Giusto a Lucardo,,Vicariato di S. Casciano Montesp. Tav.. Don Giampiero Costagli PARROCO 0571 669167,,,Montespertoli,Via Lucardo Alto,8,43.602260,11.119690,Cattolico,,false,,,,,,,,,,,
Santi Michele e Gaetano,,Vicariato di S. Giovanni. Diac. Roberto Donati SERVIZIO PRESSO PARROCCHIA,,,Firenze,Via degli Agli,1,43.772720,11.251620,Cattolico,,false,,,,,,,,,,,
Santi Michele e Gavino a Montecarelli,,Vicariato del Mugello Ovest. Don Leonardo Guerri AMMINISTRATORE PARROCCHIALE 055 8423057,,,Barberino di Mugello,Via della Chiesa,43,43.983478,11.237242,Cattolico,"Domenicali e festive    09:30, 11:00",false,,,,,,,,,,,
Santi Michele e Leopoldo alla Tinaia,,Vicariato di Empoli Montelupo. Don Vincenzo Lo Castro AMMINISTRATORE PARROCCHIALE 0571 591558,,,Empoli,Via Pian di Tinaia,6,43.739070,10.975130,Cattolico,Domenicali e festive    08:30 - Santi Michele e Leopoldo alla Tinaia,false,,,,,,,,,,,
Santi Pietro e Lucia a Tavarnelle,,Vicariato di S. Casciano Montesp. Tav.. Don Franco Del Grosso PARROCO  Don Paul Nzinga N'Ditu VICARIO PARROCCHIALE 055 8077147,,,Tavarnelle Val di Pesa,Via Borghetto,1,43.556220,11.169320,Cattolico,,false,,,,,,,,,,,
Santi Quirico e Giulitta a Capalle,,Vicariato di Campi Bisenzio. Don Nicodemo Delli PARROCO 055 8951009 parrocch277@parrocchiadicapalle.191.it,,,Campi Bisenzio,Via Santa Giuditta,12,43.839666,11.132338,Cattolico,"Domenicali e festive    08:00 - Chiesa Santi Quirico e Giulitta, 11:00 - Chiesa Santi Quirico e Giulitta.Feriali    15:00 - Mimosa (Rico1 anziani), 16:00 - Cimitero - Primo mercoledu' del mese. Periodo ora solare, 17:00 - Cimitero - Primo mercoledu' del mes",false,,,,,,,,,,,
Santi Quirico e Giulitta a Ruballa,,Vicariato di Antella Ripoli e Impruneta. Don Daniel Diac  AMMINISTRATORE PARROCCHIALE 055 620709,,,Bagno a Ripoli,Via San Quirico,21,43.734951,11.348711,Cattolico,Domenicali e festive    09:30 - Santi Quirico e Giulitta a Ruballa,false,,,,,,,,,,,
Santi Quirico e Lucia all'Ambrogiana,,Vicariato di Empoli Montelupo. Don Angelo Gorini PARROCO   Don Dr. Paul Kwaku Poku  VICARIO PARROCCHIALE 0571 542140,,,Montelupo Fiorentino,piazza Don Alberto Salvadori,22,43.730410,11.012330,Cattolico,"Domenicali e festive    08:00 - Santi Quirico e Lucia all'Ambrogiana, 11:00 - Santi Quirico e Lucia all'Ambrogiana, 18:00 - Santi Quirico e Lucia all'Ambrogiana. Feriali    17:30 - Santi Quirico e Lucia all'Ambrogiana. Prefestive    18:00 - Santi Quirico",false,,,,,,,,,,,
Santi Simone e Giuda a Corniola,,Vicariato di Empoli Montelupo. Don Welars Kalimaze Nzabanita AMMINISTRATORE PARROCCHIALE 0571 924658,,,Empoli,Via Corniola,117,43.698280,10.934230,Cattolico,"Domenicali e festive    08:30 - Cappuccini via Salaiola, 09:30 - Cappella via Volta - Carraia, 11:00 - Chiesa di Corniola, 16:00 - Cappuccini via Salaiola. Feriali    16:00 - Cappuccini via Salaiola, 16:00 - Chiesa di Corniola, 17:00 - Cappella via Volta",false,,,,,,,,,,,
Santi Simone e Giuda a Firenze,,Vicariato di S. Giovanni. P. Rosario Landrini AMMINISTRATORE PARROCCHIALE 055 284789 simone@parrocchie.diocesifirenze.it,,,Firenze,Via dei Lavatoi,3,43.769670,11.260960,Cattolico,,false,,,,,,,,,,,
Santi Stefano e Caterina a Pozzolatico,,Vicariato di Antella Ripoli e Impruneta. Can. Mario Landi PARROCO 055 208052 pozzolatico@parrocchie.diocesifirenze.it,,,Firenze,Via Vecchia di Pozzolatico,1,43.738980,11.238280,Cattolico,"Domenicali e festive    08:00 - Santi Stefano e Caterina a Pozzolatico, 11:00 - Santi Stefano e Caterina a Pozzolatico. Feriali    18:00 - Santi Stefano e Caterina a Pozzolatico. Prefestive    17:00 - Santi Stefano e Caterina a Pozzolatico",false,,,,,,,,,,,
Santi Vito e Modesto a Fior di Selva,,Vicariato di Empoli Montelupo. Don Francesco Catelani AMMINISTRATORE PARROCCHIALE      Diac. Giampaolo Agatensi  SERVIZIO PRESSO PARROCCHIA     P. Cirillo Gheza  VICARIO PARROCCHIALE  fiordiselva@parrocchie.diocesifirenze.it,,,Montelupo Fiorentino,Via San Vito,13,43.763876,11.038688,Cattolico,Domenicali e festive    10:45 - Santi Vito e Modesto a Fior di Selva. Feriali    21:30 - Santi Vito e Modesto a Fior di Selva,false,,,,,,,,,,,
BASILICA DI SS. ANNUNZIATA,BASILICA DI SS. ANNUNZIATA,BASILICA DI SS. ANNUNZIATA,BASILICA DI SS. ANNUNZIATA,,Firenze,PIAZZA DELLA SANTISSIMA ANNUNZIATA,9,43.776682,11.260921,Cattolico,"Messe feriali e prefestivi: 7, 8, 9, 10, 11, 12 e 18.
Messe festive: 7, 8:30, 10, 11:30, 13, 18 e 21.",false,+39 055 266181,,,Catholic,+39 055 266181,,Da Piazza Stazione bus ATAF 14 (direzione Ripa/Il Girone) o bus ATAF 23 (direzione Sorgane/Nave a Rovezzano).,From Piazza Stazione ATAF bus 14 (direction Ripa/Il Girone) or ATAF bus 23 (direction Sorgane/Nave a Rovezzano).,"Weekday mass and the day before a holiday: 7am, 8am, 9am, 10am, 11am, 12pm and 6pm.
Sundays and holidays: 7am, 8:30am, 10am, 11:30am, 1pm, 6pm and 9pm.
Sunday: 11am (Painters Chapel in the Cloister of the Dead) English mass.",Accessibile,Fully accessible
Santissima Annunziata Poggio Imperiale,,Vicariato di Porta Romana. Don Sergio Pacciani PARROCO 800 20110484,,,Firenze,PIAZZALE DEL POGGIO IMPERIALE,,43.749840,11.248231,Cattolico,Domenicali e festive    10:15 - Santissima Annunziata Poggio Imperiale,false,,,,,,,,,,,
Santissimo Crocifisso a Borgo S. Lorenzo,,Vicariato del Mugello Est. Don M Maurizio Tagliaferri AMMINISTRATORE PARROCCHIALE     Don Francesco Bolognesi  VICARIO PARROCCHIALE 055 8459088 crocifisso.borgo@parrocchie.diocesifirenze.it,,,Borgo San Lorenzo,corso Giacomo Matteotti,216,43.953840,11.388360,Cattolico,"Domenicali e festive    08:30 - SS. Crocifisso a Borgo S. Lorenzo, 10:30 - SS. Crocifisso a Borgo S. Lorenzo. Feriali    18:00 - SS. Crocifisso a Borgo S. Lorenzo. Prefestive    17:00 - SS. Crocifisso a Borgo S. Lorenzo - da Ottobre a Marzo",false,,,,,,,,,,,
Santissimo Crocifisso a Monticelli,,Vicariato di Porta S. Frediano. Don Dariusz Jonski AMMINISTRATORE PARROCCHIALE   Don Mauro Solbiati  SERVIZIO PRESSO PARROCCHIA     Don Emmanuel Ntabomenyereye SERVIZIO PRESSO PARROCCHIA 055 705624 monticelli@parrocchie.diocesifirenze.it,,,Firenze,Via Pietro di Cosimo,5,43.769221,11.225424,Cattolico,"Domenicali e festive    10:00 - Santissimo Crocifisso a Monticelli, 11:30 - Santissimo Crocifisso a Monticelli, 18:00 - Santissimo Crocifisso a Monticelli - Periodo ora solare, 18:30 - Santissimo Crocifisso a Monticelli - Periodo ora legale. Feriali    08",false,,,,,,,,,,,
Santissimo Nome di Gesu ai Bassi,,Vicariato di Porta S. Frediano. Don Alessandro Berlincioni PARROCO 055 781896 bassi@parrocchie.diocesifirenze.it,,,Firenze,Via dell Argin Grosso,107,43.782160,11.201380,Cattolico,"Domenicali e festive    08:00 - Santissimo Nome di Gesu' ai Bassi, 10:00 - Santissimo Nome di Gesu' ai Bassi, 11:30 - Santissimo Nome di Gesu' ai Bassi, 18:00 - Santissimo Nome di Gesu' ai Bassi. Feriali    08:00 - Santissimo Nome di Gesu' ai Bassi, 18:00 - Sa",false,,,,,,,,,,,
S. Verdiana a Castelfiorentino,,Vicariato della Valdelsa Fiorentina. Don Marco Domenico Viola PARROCO     Don Razvan Laurescu  VICARIO PARROCCHIALE   Don Crisostomo Jr. Cielo Crisostomo VICARIO PARROCCHIALE 0571 64096 castelfiorentino@parrocchie.diocesifirenze.it,,,Castelfiorentino,Via Timignano,1,43.602890,10.972230,Cattolico,"Domenicali e festive    08:30 - S. Verdiana, 09:00 - Casa di riposo sez. La Pieve, 09:30 - Casa di riposo sez. S. Giuseppe, 09:30 - Cappella Annunciazione, 10:30 - S. Verdiana, 11:30 - Collegiata di S. Lorenzo, 18:00 - S. Verdiana. Feriali    06:40 - Suor",false,,,,,,,,,,,
Sacro Cuore al Romito,,Vicariato di Rifredi. Don Paolo Capecchi PARROCO 055 496763 sacrocuore.romito@parrocchie.diocesifirenze.it,,,Firenze,piazza Baldinucci,6,43.785320,11.247200,Cattolico,"Domenicali e festive    08:30 - Sacro Cuore al Romito, 10:30 - Sacro Cuore al Romito, 12:00 - Sacro Cuore al Romito. Feriali    18:00 - Sacro Cuore al Romito. Prefestive    18:00 - Sacro Cuore al Romito",false,,,,,,,,,,,
Chiesa Anglicana di St. Mark,St. Mark's Anglican Church,Chiesa Anglicana di St. Mark,St. Mark's Anglican Church,www.stmarksitaly.com,Firenze,VIA MAGGIO,16,43.767426,11.249336,Anglicano,Domenica: ore 10:30 (Messa cantata); mercoledi' e giovedi': ore 17:30; venerdi': ore 18; martedi': ore 17:30 (evening prayer). Il culto si svolge in inglese.,false,+39 055 294764,Per le visite telefonare o contattare la chiesa tramite telefono o e-mail.,To visit the church get in contact by phone or e-mail.,Anglican,+39 055 294764,chaplain@stmarksitaly.com,Da piazza Stazione bus D (direzione Piazza Ferrucci).,From piazza Stazione bus D (direction Piazza Ferrucci).,Sunday: 10:30am (chanted mass); Wednesday and Thursday: 5:30pm; Friday: 6pm; Tuesday: 5:30pm Evening Prayer. The service is in English.,Limitata,Partly accessible
Esercito della Salvezza,Salvation Army,Esercito della Salvezza,Salvation Army,www.esercitodellasalvezza.org  www.firenzeevangelica.org,Firenze,VIA ARETINA,91/93,43.769137,11.286003,Evangelico,Domenica: ore 10:30 Culto. Venerdi': ore 19:30 (inverno) ore 20 (estate) Studio Biblico (quindicinale).,false,+39 055 660445,Visite: ''Affresco di Fossombrone'' del 1958 (visitabile solo su appuntamento).,Visits: ''Fresco by Fossombrone'' of 1958 (can be visited only by appointment).,Evangelical,+39 055 660445,firenze@esercitodellasalvezza.org,Da Piazza Stazione bus ATAF 14 (direzione Ripa/Il Girone).,From Piazza Stazione ATAF bus 14 (direction Ripa/Il Girone).,Sunday: 10:30am Service. Friday: 7:30pm (winter) 8pm (summer) Biblical Study (every 2 weeks).,Accessibile,Fully accessible
Moschea,Mosque,Moschea,Mosque,,Firenze,BORGO ALLEGRI,64/66/R,43.770398,11.264715,Musulmano,Aperta dalle 11 del mattino. Preghiera del venerdi': ore 12:30.,false,+39 339 3391660,Per informazioni sulle altre comunita'  in citta'  contattare questa moschea.,For information about the other communities in town contact this mosque.,Muslim,+39 339 3391660,elzir71@gmail.com,Da via Panzani bus ATAF C2 (direzione Piazza Beccaria).,Da via Panzani bus ATAF C2 (direzione Piazza Beccaria).,Open from 11am. Friday: 12:30pm Prayer.,Accessibile,Fully accessible
BADIA FIORENTINA,BADIA FIORENTINA,BADIA FIORENTINA,BADIA FIORENTINA,,Firenze,VIA DEL PROCONSOLO,3,43.770512,11.257825,Cattolico,"Messe feriali: martedi'-venerdi' 18:30, sabato 12:30.
Messe festive: 9 (Opera di San Procolo) e 11 (con canti della comunita'  monastica).",false,Tel +39 055 264402,Lunedi' 15-18 visite turistiche (Chiesa e Chiostro degli Aranci).,Monday 3-6pm touristic visits (Church and âOranges Cloisterâ),Catholic,+39 055 264402,,Da via Panzani bus ATAF C2 (direzione Piazza Beccaria).,From via Panzani ATAF bus C2 (direction Piazza Beccaria).,"Weekday mass: Tuesday-Friday 6:30pm (mass), Saturday 12:30pm.
Sundays and holidays: 9am (Opera di San Procolo) and 11am (with monastic community chants)",Nessuna,No accessibility
BASILICA DI SANTA CROCE,BASILICA DI SANTA CROCE,BASILICA DI SANTA CROCE,BASILICA DI SANTA CROCE,,Firenze,PIAZZA DI SANTA CROCE,15,43.768698,11.262011,Cattolico,"Messe feriali (lunedi'-sabato): 18.
Messe festive: 11, 12 e 18.",false,+39 055 244619 / +39 055 2466105,,,Catholic,+39 055 244619 / +39 055 2466105,,Da via Panzani bus ATAF C2 (direzione Piazza Beccaria).,From via Panzani ATAF bus C2 (direction Piazza Beccaria).,"Weekday mass (Monday-Saturday): 6pm.
Sundays and holidays: 11am, 12pm and 6pm.",Accessibile,Fully accessible
BASILICA DI SANTO SPIRITO,BASILICA DI SANTO SPIRITO,BASILICA DI SANTO SPIRITO,BASILICA DI SANTO SPIRITO,,Firenze,PIAZZA SANTO SPIRITO,30,43.766888,11.247915,Cattolico,"Messe feriali: 9, 18.
Messe festive: 9, 10:30 e 18.",false,+39 055 210030,,,Catholic,+39 055 210030,,Da Piazza Stazione bus ATAF D (direzione Piazza Ferrucci).,From Piazza Stazione ATAF bus D (direction Piazza Ferrucci).,"Weekday mass: 9am and 6pm.
Sundays and holidays: 9am, 10:30am and 6pm.",Accessibile,Fully accessible
BATTISTERO,BAPTISTERY,BATTISTERO,BAPTISTERY,,Firenze,PIAZZA DI SAN GIOVANNI,21,43.773416,11.255082,Cattolico,"Messe dal lunedi' al venerdi': 10:30.
Non ci sono messe festive.",false,+39 055 294514,,,Catholic,+39 055 294514,,"Da Piazza Stazione 10 minuti a piedi, oppure da via Panzani bus ATAF C2 (direzione Piazza Beccaria).","From Piazza Stazione 10-minute walk, or from via Panzani ATAF bus C2 (direction Piazza Beccaria).","Mon-Fri: 10.30am.
No holiday mass.",Accessibile,Fully accessible
CERTOSA DEL GALLUZZO,CERTOSA DEL GALLUZZO,CERTOSA DEL GALLUZZO,CERTOSA DEL GALLUZZO,www.cistercensi.info/certosadifirenze/,Firenze,VIA DELLA BUCA DI CERTOSA,1,43.727614,11.221674,Cattolico,Messe festive: 10 e 11.,false,+39 055 2049226,,,Catholic,+39 055 2049226,,Da Piazza Stazione bus ATAF 37 (direzione Tavarnuzze).,From Piazza Stazione ATAF bus 37 (direction Tavarnuzze).,Sundays and holidays: 10am and 11am.,Nessuna,No accessibility
SAN MINIATO AL MONTE,SAN MINIATO AL MONTE,SAN MINIATO AL MONTE,SAN MINIATO AL MONTE,,Firenze,Via delle Porte Sante,34,43.763260,11.261929,Cattolico,"Messe feriali: 7:15, 17:30 e 18:30 (vespri con canti gregoriani).
Messe festive: 8:30, 10, 11:30, 17:30 e 18:30 (vespri con canti gregoriani).",false,+39 055 2342731,,,Catholic,+39 055 2342731,,Da Piazza Stazione bus ATAF 12 (direzione Piazzale Michelangelo) o bus ATAF 13 (direzione Piazzale Michelangelo).,From Piazza Stazione ATAF bus 12 (direction Piazzale Michelangelo) or ATAF bus 13 (direction Piazzale Michelangelo).,"Weekday mass: 7:15am, 5:30pm and 6:30pm (vesper with Gregorian chants)
Sundays and holidays: 8:30am, 10am, 11:30am, 5:30pm and 6:30pm (vesper with Gregorian chants)",Accessibile,Fully accessible
SAN SALVATORE AL MONTE,SAN SALVATORE AL MONTE,SAN SALVATORE AL MONTE,SAN SALVATORE AL MONTE,,Firenze,VIA DEL MONTE ALLE CROCI,9,43.763620,11.261673,Cattolico,"Lunedi'-venerdi': 7
Sabato e prefestivi: 7 e 18
Messe festive: 9, 11 e 18.",false,+39 055 2001229,,,Catholic,+39 055 2001229,,"Da Piazza Stazione bus ATAF 12 (direzione Piazzale Michelangelo) o bus ATAF 13 (direzione Piazzale Michelangelo). Si trova tra Piazzale Michelangelo e la chiesa di San Miniato al Monte, dietro il ristorante La Loggia.",From Piazza Stazione ATAF bus 12 or 13 (direction Piazzale Michelangelo). The church is situated between piazzale Michelangelo and San Miniato Church right behind the restaurant âLa Loggiaâ.,"Monday-Friday: 7am, Saturday and the day before a holiday: 7am and 6pm
Sunday and holidays: 9am, 11am and 6pm.",Accessibile,Fully accessible
SANTA MARIA DE' RICCI,SANTA MARIA DE' RICCI,SANTA MARIA DE' RICCI,SANTA MARIA DE' RICCI,,Firenze,VIA DEL CORSO,,43.771483,11.256602,Cattolico,a'¬,false,+39 055 215044,Accesso per disabili (da Piazza degli Alberighi o da via dello Studio dove câa'¨ solo un gradino â avvisare il priore per lâapertura).,"Disabled access (from Piazza degli Alberighi or via dello Studio there is one step â if you need help, call the priest)",Catholic,+39 055 215044,,Da via Panzani bus ATAF C2 (direzione Piazza Beccaria).,From via Panzani ATAF bus C2 (direction Piazza Beccaria).,Sunday and holidays: 11:30am.,Accessibile,Fully accessible
SANTA MARIA DEL CARMINE,SANTA MARIA DEL CARMINE,SANTA MARIA DEL CARMINE,SANTA MARIA DEL CARMINE,,Firenze,PIAZZA DEL CARMINE,,43.768334,11.244107,Cattolico,"Messe feriali: 8:30 e 18.
Messe festive: 8, 10, 12 e 18.
Mercoledi' e sabato: 9 Adorazione con meditazione e canti.",false,+39 055 212331,,,Catholic,+39 055 212331,,Da Piazza Stazione bus ATAF D (direzione Piazza Ferrucci).,From Piazza Stazione ATAF bus D (direction Piazza Ferrucci).,"Weekday mass: 8:30am and 6pm.
Sundays and holidays: 8am, 10am, 12pm and 6pm.
Wednesday and Saturday: 9am adoration and meditation with chants.",Nessuna,No accessibility
SANTA MARIA DEL FIORE,SANTA MARIA DEL FIORE,SANTA MARIA DEL FIORE (CATTEDRALE),SANTA MARIA DEL FIORE (CATTEDRALE),,Firenze,PIAZZA DEL DUOMO,,43.773130,11.255401,Cattolico,"Messe feriali: 7:30, 8:30 (Messa Capitolare), 9:30 e 18 (sabato anche 10:30).
Messe festive: 7:30, 9, 10:30 (con canti gregoriani), 12, 17:15 (vespri in canto gregoriano) e 18.
Sabato: 17 messa in inglese.
Prefestivi: 18.",false,+39 055 294514,Accesso per disabili dalla Porta dei Canonici.,Disabled access from the Canonicals door.,Catholic,+39 055 294514,,"Da Piazza Stazione 10 minuti a piedi, oppure da via Panzani bus ATAF C2 (direzione Piazza Beccaria).","From Piazza Stazione 10 minute walk, or from via Panzani ATAF bus C2 (direction Piazza Beccaria).","Weekday mass: 7:30am, 8:30am (Chapter Hall Mass), 9:30am, (Saturday also 10:30am) and 6pm.
The day before a holiday: 6pm.
Sundays and holidays: 7:30am, 9am, 10:30am (with Gregorian chants), 12pm, 5:15pm (vespers with Gregorian chants) and 6pm.
Saturdays: 5pm English mass.",Accessibile,Fully accessible
SANTA MARIA MADDALENA DE' PAZZI,SANTA MARIA MADDALENA DE' PAZZI,SANTA MARIA MADDALENA DE' PAZZI,SANTA MARIA MADDALENA DE' PAZZI,,Firenze,BORGO PINTI,58,43.774374,11.264136,Cattolico,"Messe feriali: lunedi' e martedi': 19; mercoledi': 21
Messe festive: 15 (in spagnolo).",false,+39 055 2478420,,,Catholic,+39 055 2478420,,Da Piazza Stazione bus ATAF 14 (direzione Ripa/Il Girone) o bus ATAF 23 (direzione Sorgane/Nave a Rovezzano).,From Piazza Stazione ATAF bus 14 (direction Ripa/Il Girone) or ATAF bus 23 (direction Sorgane/Nave a Rovezzano).,"Weekday mass: Monday, Tuesday: 7pm; Wednesday: 9pm
Sundays and holidays: 3pm (in Spanish).",Nessuna,No accessibility
