Nome,Name,Descrizione breve,Short description,url,Citta,Indirizzo,Numero civico,latitude,longitude,Telefono,Phone number,Email,Orario,Opening times,Esercizio storico,Fax,Fax number,Da sapere,Accessibilita  ai disabili,Accessibility for the disabled,Come arrivare,How to arrive
Biblioteca Orticoltura,Biblioteca Orticoltura,Biblioteca Orticoltura,Biblioteca Orticoltura,http://www.biblioteche.comune.fi.it/biblioteca_orticoltura/,Firenze,VIA VITTORIO EMANUELE II,4,43.786442,11.261030,+39 055 4627142,+39 055 4627142,bibliotecaorticultura@comune.fi.it,"lunedi' 14-19, martedi'-venerdi' 9-19, sabato 9-13.","Monday 2-7pm,Tuesday-Friday 9am-7pm, Saturday 9am - 1pm",false,,,,,,,
AGRARIA,,AGRARIA,,http://www.sba.unifi.it/CMpro-v-p-373.html,Firenze,PIAZZALE DELLE CASCINE,18,43.782439,11.219443,+39 055 2755819,+39 055 2755819,bibag@unifi.it,dal lunedi' al venerdi' 8.30-18.,Monda-Friday 8.30am-6pm,false,+39 055 2755822,+39 055 2755822,,,,,
Biblioteca della Facolta'  di Ingegneria,Biblioteca della Facolta'  di Ingegneria,Biblioteca della Facolta'  di Ingegneria,Biblioteca della Facolta'  di Ingegneria,http://www.sba.unifi.it/CMpro-v-p-374.html,Firenze,VIA DI SANTA MARTA,3,43.799484,11.255968,+39 055 2758968,+39 055 2758968,sfinge@unifi.it,"dal lunedi' al giovedi' 8.30-19, venerdi' 9-17.",,false,,,,,,,
BERENSON Villa I Tatti,,BERENSON Villa I Tatti,,http://itatti.harvard.edu/berenson-library/practical-information,Fiesole,VIA DI VINCIGLIATA,26,43.786628,11.309962,+39 055 603251,+39 055 603251,,"Orario: dal lunedi' al venerdi' 9-18  Chiusa agosto e nel periodo natalizio. Aperta a studiosi laureati con lettera di presentazione o, per i docenti universitari, unattestazione della facolta'  di appartenenza. Prestito escluso.","Monday-Friday 9am-6pm. Closed to the public during the month of August, on Italian national and local holidays, and around the winter holidays.",false,+39 055 603383,+39 055 603383,,,,,
Fondazione Biblioteche Cassa di Risparmio di Firenze,Fondazione Biblioteche Cassa di Risparmio di Firenze,Fondazione Biblioteche Cassa di Risparmio di Firenze,Fondazione Biblioteche Cassa di Risparmio di Firenze,http://www.bibliocrf.it/,Firenze,Via Bufalini,6,43.773910,11.258300,+39 055 2657577,+39 055 2657577,segreteria@bibliocrf.it,"lunedi' 14.30-18.30, martedi'-giovedi' 9-13. L'accesso e' consentito tramite prenotazione tel +39 055 2657577 o segreteria@bliobliocrf.it.  Nel mese di agosto la biblioteca rimane chiusa al pubblico.",by appointment only,false,,,,,,,
Biblioteca CISL Mario Romani,Biblioteca CISL Mario Romani,Biblioteca CISL Mario Romani,Biblioteca CISL Mario Romani,www.centrostudi.cisl.it,Firenze,Via della Piazzola,71,43.795880,11.281760,+39 055 5032111,+39 055 5032111,biblio.centrostudifi@cisl.it,solo su appuntamento,by appointment only,false,,,biblio.centrostudifi@.cisl.it,,,,
CNR Biblioteca Istituto di Fisica Applicata Nello Carrara,CNR Biblioteca Istituto di Fisica Applicata Nello Carrara,CNR Biblioteca Istituto di Fisica Applicata Nello Carrara,CNR Biblioteca Istituto di Fisica Applicata Nello Carrara,http://www.ifac.cnr.it/,Sesto Fiorentino,VIA MADONNA DEL PIANO,10,43.817722,11.200201,+39 055 5226244,+39 055 5226244,biblioteca@ifac.cnr.it,,,false,,,,,,,
CNR Biblioteca dell'Istituto di Teoria e Tecniche dell'Informazione Giuridica,CNR Biblioteca dell'Istituto di Teoria e Tecniche dell'Informazione Giuridica,CNR Biblioteca dell'Istituto di Teoria e Tecniche dell'Informazione Giuridica,CNR Biblioteca dell'Istituto di Teoria e Tecniche dell'Informazione Giuridica,http://www.ittig.cnr.it/risorse/biblioteca/,Firenze,VIA DEI BARUCCI,20,43.791815,11.227886,+39 055 4399655,+39 055 4399655,biblioteca@ittig.cnr.it,su prenotazione,by appointment only,false,+39 055 4399656,+39 055 4399656,Tel 055 4399655 Fax 055 4399606 biblioteca@ittig.cnr.it,,,,
DEGLI UFFIZI,,DEGLI UFFIZI,,http://www.uffizi.firenze.it/biblioteche/,Firenze,Loggiato degli Uffizi,1,43.768800,11.255860,+39 055 2388647,+39 055 2388647,biblioteca@polomuseale.firenze.it,"martedi' 9-17, mercoledi' e giovedi' 9-13.30. Aperta a studiosi e studenti di discipline storico-artistiche con lettera di presentazione. Prestito escluso.","Tuesday 9am-5pm, Wednesday and Thursday 9am-1.30pm.",false,+39 055 2388648,+39 055 2388648,,,,,
Biblioteca Provinciale dei Frati Minori di Firenze,Biblioteca Provinciale dei Frati Minori di Firenze,Biblioteca Provinciale dei Frati Minori di Firenze,Biblioteca Provinciale dei Frati Minori di Firenze,https://ofmtoscana.org/biblioteca/,Firenze,VIA ANTONIO GIACOMINI,3,43.783489,11.265904,+39 055 572713,+39 055 572713,biblio.antico@ofmtoscana.org,"su appuntamento, lunedi', giovedi', venerdi' 9-13/14-17.30
martedi' 14-19.",by appointment only,false,+39 055 572714,+39 055 572714,,,,,
DELLA COMUNITA' EBRAICA DI FIRENZE,DELLA COMUNITA' EBRAICA DI FIRENZE,DELLA COMUNITA' EBRAICA DI FIRENZE,DELLA COMUNITA' EBRAICA DI FIRENZE,http://moked.it/firenzebraica/servizi/archivio-storico-e-biblioteca/,Firenze,Via Luigi Carlo Farini,4,43.772820,11.265160,+39 055 245252,+39 055 245252,info@firenzebraica.it,Apertura previo appuntamento,by appointment only,false,,,,,,,
DEL CLUB ALPINO ITALIANO,,DEL CLUB ALPINO ITALIANO,,http://www.caifirenze.it/biblioteca/,Firenze,Via del Mezzetta,2/m,43.772940,11.294350,+39 055 6120467,,segreteria@caifirenze.it,martedi' e giovedi' 17.30-19.,,false,+39 055 6120467,,,,,,
DEL CONSERVATORIO DI MUSICA L. CHERUBINI,DEL CONSERVATORIO DI MUSICA L. CHERUBINI,DEL CONSERVATORIO DI MUSICA L. CHERUBINI,DEL CONSERVATORIO DI MUSICA L. CHERUBINI,http://www.conservatorio.firenze.it/it/biblioteca/informazioni-generali-ed-orario,Firenze,Piazzetta Belle Arti,2,43.776380,11.258420,+39 055 2989319,+39 055 2989319,biblioteca@consfi.it,"lunedi'-venerdi' 14-16. Chiusa durante le festivita' . La biblioteca  aperta a studenti, docenti interni e, su autorizzazione del Direttore, studiosi che ne facciano richiesta per motivi di studio e ricerca. Consultazione rari e manoscritti su appuntamento.",,false,+39 055 2396785,+39 055 2396785,,,,,
Biblioteca del Consiglio Regionale della Toscana,Biblioteca del Consiglio Regionale della Toscana,Biblioteca del Consiglio Regionale della Toscana,Biblioteca del Consiglio Regionale della Toscana,http://www.consiglio.regione.toscana.it/oi/default.aspx?idc=60,Firenze,VIA RICASOLI,44,43.776708,11.258474,+39 055 2387017,+39 055 2387017,bgl@consiglio.regione.toscana.it,"lunedi' e mercoledi' 9-17, martedi' e giovedi' 9-18, venerdi' 9-13","Monday and Wednesday 9am-5pm, Tuesday and Thursday 9am-6pm, Friday 9am-1pm.",false,+39 055 2387032,+39 055 2387032,,,,,
DEL CONSIGLIO REGIONALE - Biblioteca dell'Identita'  Toscana,DEL CONSIGLIO REGIONALE- Biblioteca dell'Identita'  Toscana,DEL CONSIGLIO REGIONALE- Biblioteca dell'Identita'  Toscana,DEL CONSIGLIO REGIONALE- Biblioteca dell'Identita'  Toscana,http://www.consiglio.regione.toscana.it/oi/default.aspx?idc=60,Firenze,Via Cavour,2,43.774950,11.256040,+39 055 2387819,+39 055 2387819,bit@consiglio.regione.toscana.it,"lunedi' e mercoledi' 9.30-12.30, martedi' e giovedi' 9.30-12.30 / 14-18, venerdi' 9.30-12.30, in altri orari su appuntamento Chiusa mese di agosto. Si accede previa presentazione alla portineria.",,false,+39 055 2387072,+39 055 2387072,,,,,
Archivi dell'Opera di Santa Croce,Archivi dell'Opera di Santa Croce,Archivi dell'Opera di Santa Croce,Archivi dell'Opera di Santa Croce,www.santacroceopera.it,Firenze,PIAZZA DI SANTA CROCE,16,43.768881,11.260774,+39 055 2466105,+39 055 2466105,archivio@santacroceopera.it,,,false,,,,,,,
DEL GABINETTO DEI DISEGNI E DELLE STAMPE DEGLI UFFIZI,DEL GABINETTO DEI DISEGNI E DELLE STAMPE DEGLI UFFIZI,DEL GABINETTO DEI DISEGNI E DELLE STAMPE DEGLI UFFIZI,DEL GABINETTO DEI DISEGNI E DELLE STAMPE DEGLI UFFIZI,http://www.uffizi.firenze.it/it/musei/?m=disegni,Firenze,Via della Ninna,5,43.768900,11.256420,+ 39 055 2388624-671,+ 39 055 2388624-671,,"Sala di Studio: lunedi', mercoledi', venerdi' 8.30-13.30, martedi' e giovedi' 8.30-17. Chiusura: mese di agosto.",,false,+39 055 2388624,+39 055 2388624,,,,,
DEL GABINETTO SCIENTIFICO LETTERARIO GIAMPIETRO VIEUSSEUX,,DEL GABINETTO SCIENTIFICO LETTERARIO GIAMPIETRO VIEUSSEUX,,http://www.vieusseux.it/biblioteca.html,Firenze,PIAZZA DEGLI STROZZI,0,43.771467,11.252222,+39 055 288342 int. 1,+39 055 288342,,"lunedi', mercoledi' e venerdi' 9-13.30, martedi' e giovedi' 9-18, sabato chiuso",,false,+39 055 2396743,+39 055 2396743,,,,,
Archivio Contemporaneo Alessandro Bonsanti Palazzo Corsini Suarez,Archivio Contemporaneo Alessandro Bonsanti Palazzo Corsini Suarez,Archivio Contemporaneo Alessandro Bonsanti Palazzo Corsini Suarez,Archivio Contemporaneo Alessandro Bonsanti Palazzo Corsini Suarez,http://www.vieusseux.it/archivio-contemporaneo.html,Firenze,Via Maggio,42,43.767090,11.249080,+39 055 290131,+39 055 290131,archivio@viesseux.it,"lunedi', martedi' e venerdi' 9-13, mercoledi' e giovedi' 9-17.30.","Monday, Tuesday, Friday 9am-1pm, Wednesday, Thursday 9am-5.30pm",false,+39 055 213188,+39 055 213188,Tel 055 290131 Fax 055 213188 archivio@viesseux.it,,,,
Biblioteca del Museo Stibbert,Biblioteca del Museo Stibbert,Biblioteca del Museo Stibbert,Biblioteca del Museo Stibbert,www.museostibbert.it,Firenze,VIA FEDERIGO STIBBERT,26,43.790555,11.255413,+39 055 486049,+39 055 486049,direzione@museostibbert.it,dal lunedi' al venerdi' 9-16,Monday to Friday 9 am - 4pm,false,,,,,,,
Biblioteca del Seminario Arcivescovile di Firenze,Biblioteca del Seminario Arcivescovile di Firenze,Biblioteca del Seminario Arcivescovile di Firenze,Biblioteca del Seminario Arcivescovile di Firenze,www.seminariofirenze.it,Firenze,LUNGARNO SODERINI,19,43.770422,11.244709,+39 055 283875,+39 055 283875,biblioteca@seminariofirenze.it,"lunedi', mercoledi', giovedi' e venerdi' 9.30-12/14-17.","Monday, Wednesday, Thursday and Friday 9.30am-12pm/2-5pm.",false,,,,,,,
DEL TEATRO DELLA PERGOLA ALFONSO SPADONI,DEL TEATRO DELLA PERGOLA ALFONSO SPADONI,DEL TEATRO DELLA PERGOLA ALFONSO SPADONI,DEL TEATRO DELLA PERGOLA ALFONSO SPADONI,http://siusa.archivi.beniculturali.it/cgi-bin/pagina.pl?TipoPag=cons&Chiave=14036&RicProgetto=personalita,Firenze,Via della Pergola,20,43.773320,11.261240,+39 055 2264342,+39 055 2264342,biblioteca.spadoni@teatrodellapergola.com,su appuntamento. Prestito escluso.,by appointment only,false,+39 055 2264343,+39 055 2264343,Tel 055 2264342/338  Fax 055 2264343 biblioteca.spadoni@teatrodellapergola.com,,,,
Biblioteca della Camera di Commercio di Firenze,Biblioteca della Camera di Commercio di Firenze,Biblioteca della Camera di Commercio di Firenze,Biblioteca della Camera di Commercio di Firenze,http://www.fi.camcom.gov.it/default.asp?page=informazioni&IDCategoria=405,Firenze,Piazza dei Giudici,3,43.767580,11.256500,+39 055 29810,+39 055 29810,info@fi.camcom.it,temporaneamente chiusa,closed,false,,,,,,,
DELLA DEPUTAZIONE DI STORIA PATRIA DELLA TOSCANA,DELLA DEPUTAZIONE DI STORIA PATRIA DELLA TOSCANA,DELLA DEPUTAZIONE DI STORIA PATRIA DELLA TOSCANA,DELLA DEPUTAZIONE DI STORIA PATRIA DELLA TOSCANA,http://www.deputazionetoscana.it/wordpress/?page_id=174,Firenze,Via Ginori,7,43.775190,11.255140,+39 055 213251,+39 055 213251,depu.stor@gmail.com,"lunedi', mercoledi' e venerdi' 9-12","Monday, Wednesday, Friday 9am-12pm.",false,+39 055 213251,+39 055 213251,,,,,
DELLA CASA BUONARROTI,DELLA CASA BUONARROTI,DELLA CASA BUONARROTI,DELLA CASA BUONARROTI,http://www.casabuonarroti.it/it/biblioteca/,Firenze,Via Ghibellina,70,43.769850,11.263610,+39 055 241752,+39 055 241752,fond@casabuonarroti.it,"dal lunedi' al venerdi' 9-13.15. E' necessaria una lettera di presentazione dell'Istituto di appartenenza, ed e' obbligatorio concordare un appuntamento (fax, telefono o e-mail) con l'ufficio di segreteria della Casa Buonarroti.",Monday-Friday 9am-1.15pm,false,+39 055 241698,+39 055 241698,,,,,
DELLA FONDAZIONE HORNE,DELLA FONDAZIONE HORNE,DELLA FONDAZIONE HORNE,DELLA FONDAZIONE HORNE,http://www.museohorne.it/basepage.php?p=biblioteca.php,Firenze,Via de Benci,6,43.767520,11.259410,+39 055 244661,+39 055 244661,info@museohorne.it,,,false,+39 055 2009252,+39 055 2009252,,Limitata,Partly accessible,,
DELLA FONDAZIONE SCIENZA E TECNICA,DELLA FONDAZIONE SCIENZA E TECNICA,DELLA FONDAZIONE SCIENZA E TECNICA,DELLA FONDAZIONE SCIENZA E TECNICA,http://www.fstfirenze.it/pagina-principale/89-biblioteca/159-biblioteca-presentazione,Firenze,Via G Giusti,29,43.777120,11.264070,,,biblioteca@fstfirenze.it,"dal lunedi' al venerdi' 9.30-13, sabato chiuso. Sono ammessi alla consultazione coloro che sono in possesso di una tessera annuale di frequenza o di un permesso temporaneo. La tessera annuale di frequenza viene rilasciata a:
docenti e ricercatori con documento che attesti la loro posizione professionale, borsisti e dottorandi con una certificazione dell'universita' , del CNR o di enti affini, studenti e laureandi con lettera di presentazione del docente.",Monday-Friday 9.30am-1pm.,false,+39 055 2343140,+39 055 2343140,,,,,
Biblioteca del Consiglio Regionale della Toscana - sezione Novoli,Biblioteca del Consiglio Regionale della Toscana - sezione Novoli,Biblioteca del Consiglio Regionale della Toscana - sezione Novoli,Biblioteca del Consiglio Regionale della Toscana - sezione Novoli,http://www.consiglio.regione.toscana.it/oi/default.aspx?idc=60,Firenze,VIA DI NOVOLI,26,43.797229,11.212126,+39 055 4383947,+39 055 4383947,biblioteca@regione.toscana.it,lunedi'-venerdi' 9-13,Monday-Friday 9am-1pm,false,+39 055 4383032,+39 055 4383032,"VIÂ° piano Palazzo B del Centro Direzionale della Giunta Regionale, 
via di Novoli, 26",,,,
DELLA SOCIETA' DANTESCA ITALIANA,DELLA SOCIETA' DANTESCA ITALIANA,DELLA SOCIETA' DANTESCA ITALIANA,DELLA SOCIETA' DANTESCA ITALIANA,http://www.dantesca.org/cms/biblioteca/,Firenze,Via Arte della Lana,1,43.770310,11.254710,+39 055 294580,+39 055 294580,biblioteca@dantesca.it,"dal lunedi' al venerdi' 9.30-13.30, giovedi' anche 14.30-17.30. Chiuso in agosto. Consultazione e accesso riservati agli studiosi di letteratura dantesca e studenti con lettera di presentazione e tessera annuale, prestito solo per i soci.","Monday-Friday 9.30am-1.30pm, Thursday also 2.30-5-30pm",false,,,,,,,
DELLA SOPRINTENDENZA PER I BENI ARCHEOLOGICI DELLA TOSCANA,DELLA SOPRINTENDENZA PER I BENI ARCHEOLOGICI DELLA TOSCANA,DELLA SOPRINTENDENZA PER I BENI ARCHEOLOGICI DELLA TOSCANA,DELLA SOPRINTENDENZA PER I BENI ARCHEOLOGICI DELLA TOSCANA,http://www.archeotoscana.beniculturali.it/index.php?it/106/biblioteca@benicutlturali.it,Firenze,Via della Pergola,65,43.775670,11.263500,+39 055 2357701,+39 055 2357701,sba-tos.biblioteca@beniculturali.it,"martedi', mercoledi', giovedi' 9-13","Tuesday. Wednesday, Thursday 9am-1pm",false,+39 055 242213,+39 055 242213,,,,,
DELL'ACCADEMIA DELLA CRUSCA,DELL'ACCADEMIA DELLA CRUSCA,DELL'ACCADEMIA DELLA CRUSCA,DELL'ACCADEMIA DELLA CRUSCA,http://www.accademiadellacrusca.it/it/biblioteca,Firenze,VIA DI CASTELLO,46,43.819588,11.228317,+39 055 454277-78,+39 055 454277-78,biblioteca@crusca.fi.it,"lunedi' e mercoledi' 9-17,martedi', giovedi', venerdi' 9-14 . Accesso con lettera di presentazione di un accademico o di un professore universitario.","Monday and Wednesday 9am-5pm, Tuesday, Thursday, Friday 9am-1pm.",false,+39 055 454279,+39 055 454279,,,,,
DELL'ACCADEMIA DELLE BELLE ARTI,DELL'ACCADEMIA DELLE BELLE ARTI,DELL'ACCADEMIA DELLE BELLE ARTI,DELL'ACCADEMIA DELLE BELLE ARTI,http://www.accademia.firenze.it/it/services/biblioteca,Firenze,Via Ricasoli,66,43.777340,11.259020,+39 055 215449,+39 055 215449,,"lunedi', mercoledi', giovedi' 9-17, martedi' e venerdi' 9-13:30/14-17:30.",,false,+39 055 2396921,+39 055 2396921,,,,,
DELL'ACCADEMIA DELLE SCIENZE FORESTALI,DELL'ACCADEMIA DELLE SCIENZE FORESTALI,DELL'ACCADEMIA DELLE SCIENZE FORESTALI,DELL'ACCADEMIA DELLE SCIENZE FORESTALI,www.aisf.it,Firenze,Piazza Edison,11,43.786990,11.283890,+39 055 570348,+39 055 570348,info@aisf.it,dal lunedi' al venerdi' 9-13,Monday-Friday 9am-1pm,false,+39 055 575724,+39 055 575724,,,,,
DELL'ACCADEMIA DEI GEORGOFILI,DELL'ACCADEMIA DEI GEORGOFILI,DELL'ACCADEMIA DEI GEORGOFILI,DELL'ACCADEMIA DEI GEORGOFILI,www.georgofili.it,Firenze,PIAZZALE DEGLI UFFIZI,,43.769032,11.255830,+39 055 212114,+39 055 212114,accademia@georgofili.it,dal lunedi' al venerdi' 15-18.,Monday-Friday 3-6pm,false,+39 055 2302754,+39 055 2302754,,,,,
DELL'ACCADEMIA TOSCANA DI SCIENZE E LETTERE  LA COLOMBARIA,DELL'ACCADEMIA TOSCANA DI SCIENZE E LETTERE  LA COLOMBARIA,DELL'ACCADEMIA TOSCANA DI SCIENZE E LETTERE  LA COLOMBARIA,DELL'ACCADEMIA TOSCANA DI SCIENZE E LETTERE  LA COLOMBARIA,http://www.colombaria.it/biblioteca/,Firenze,VIA SANT'EGIDIO,23,43.773058,11.259683,+39 055 291923,+39 055 291923,biblioteca@colombaria.it,,,false,,,Tel e fax 055 2396628 biblioteca@colombaria.it,,,,
DELL'ARCHIVIO DEL RISORGIMENTO,DELL'ARCHIVIO DEL RISORGIMENTO,DELL'ARCHIVIO DEL RISORGIMENTO,DELL'ARCHIVIO DEL RISORGIMENTO,www.toscanarisorgimento.it,Firenze,VIA SANT'EGIDIO,21,43.772789,11.260150,+39 055 2480561,+39 055 2480561,,dal lunedi' al venerdi' 15.30-18.30,,false,,,,,,,
DELLA FONDAZIONE DI STUDI DI STORIA DELLARTE ROBERTO LONGHI,DELLA FONDAZIONE DI STUDI DI STORIA DELLARTE ROBERTO LONGHI,DELLA FONDAZIONE DI STUDI DI STORIA DELLARTE ROBERTO LONGHI,DELLA FONDAZIONE DI STUDI DI STORIA DELLARTE ROBERTO LONGHI,http://www.fondazionelonghi.it/index.php?option=com_content&view=article&id=77&Itemid=556&lang=it,Firenze,Via Benedetto Fortini,30,43.756330,11.278380,+39 055 6580794,+39 055 6580794,biblioteca@fondazionelonghi.it,"dal lunedi' al venerdi' 9-13/14-17.30. Chiusa in agosto, durante il periodo natalizio e in concomitanza di convegni e conferenze. Aperta agli studiosi su appuntamento. Prestito escluso. Catalogo online.",,false,+39 055 6580794,+39 055 6580794,,,,,
DELLA FONDAZIONE SPADOLINI,DELLA FONDAZIONE SPADOLINI,DELLA FONDAZIONE SPADOLINI,DELLA FONDAZIONE SPADOLINI,http://nuovaantologia.it/biblioteca/storia-e-sedi/,Firenze,Via Pian de Giullari,36/A,43.748210,11.257730,+39 055 2336071,+39 055 2336071,fondazione@nuovaantologia.it,dal lunedi' al giovedi' 9.20-16.40. Accesso con documento d'identita'  e tessera di accesso. (In occasioni particolari o su richiesta di gruppi e' possibile visitare la Fondazione Spadolini Nuova Antologia telefonando alla sede della Fondazione +39 055 687521).,Monday-Thursday 9.20am-4.40pm,false,,,,,,,
ARCHIVIO DI STATO,ARCHIVIO DI STATO,ARCHIVIO DI STATO,ARCHIVIO DI STATO,www.archiviodistato.firenze.it,Firenze,Viale Giovine Italia,6,43.770350,11.270430,+39 055 263201,+39 055 263201,as-fi@beniculturali.it,"Dal lunedi' al venerdi' 8.30-17.30, sabato 8.30-13.30.","Monday to Friday 8.30am-5.30pm
Sat 8.30am - 1.30pm",false,,,I frequentatori ammessi alla consultazione del materiale documentario possono richiedere in lettura le pubblicazioni tramite i cataloghi della Sala di Studio. Non si effettuano prestiti.,,,"Autobus ATAF nr. 8, 14, 23, 31, 32","ATAF bus nr. 8, 14, 23, 31, 32"
Biblioteca dell'Istituto Agronomico per l'Oltremare,Biblioteca dell'Istituto Agronomico per l'Oltremare,Biblioteca dell'Istituto Agronomico per l'Oltremare,Biblioteca dell'Istituto Agronomico per l'Oltremare,http://www.iao.florence.it/,Firenze,VIA ANTONIO COCCHI,4,43.784815,11.284737,+39 055 5061225,+39 055 5061225,biblio@iao.florence.it,lunedi'-venerdi' 9-13,Monday-Friday 9am-1pm,false,,,,,,,
Biblioteca dell'Istituto Nazionale di Studi Etruschi ed Italici,Biblioteca dell'Istituto Nazionale di Studi Etruschi ed Italici,Biblioteca dell'Istituto Nazionale di Studi Etruschi ed Italici,Biblioteca dell'Istituto Nazionale di Studi Etruschi ed Italici,http://studietruschi.org,Firenze,VIA DELLA PERGOLA,65,43.775632,11.263515,+39 055 2207175,+39 055 2207175,studietruschi@interfree.it,lunedi'-venerdi'  9-15. Accesso consentito solo a studiosi e studenti con lettera di presentazione.,Monday-Friday 9am-3pm,false,,,,,,,
Biblioteca del Museo Galileo,Biblioteca del Museo Galileo,Biblioteca del Museo Galileo,Biblioteca del Museo Galileo,http://www.museogalileo.it/esplora/biblioteche/biblioteca.html,Firenze,PIAZZA DEI GIUDICI,1,43.767681,11.256133,+39 055 265311,+39 055 265311,biblioteca@museogalileo.it,,,false,,,,,,,
Biblioteca dell'Istituto Francese,Biblioteca dell'Istituto Francese,Biblioteca dell'Istituto Francese,Biblioteca dell'Istituto Francese,http://institutfrancais-firenze.com/iff/biblioteca-mediateca/biblioteca-dell%25E2%2580%2599apprendimento,Firenze,PIAZZA D'OGNISSANTI,2,43.772279,11.245304,+39 055 2718819,+39 055 2718819,biblioteca-firenze@institutfrancais.it,"Lunedi', martedi', e venerdi' 14-18.30, mercoledi' e giovedi' 14-19.30, sabato 10-13.","Monday, Tuesday, Friday 2-6.30pm, Wednesday and Thursday 2-7.30pm, Saturday 10am-1pm.",false,,,,,,,
DELL'ISTITUTO GEOGRAFICO MILITARE,DELL'ISTITUTO GEOGRAFICO MILITARE,DELL'ISTITUTO GEOGRAFICO MILITARE,DELL'ISTITUTO GEOGRAFICO MILITARE,http://www.igmi.org/istituto/biblioteca/,Firenze,Via Cesare Battisti,10,43.777190,11.260250,+39 055 2732224,+39 055 2732224,,dal lunedi' al venerdi' 8.30-13. Prestiti esterni solo con autorizzazione del direttore.,Monday-Friday 8.30am-1pm,false,+39 055 282172,+39 055 282172,,,,,
DELL'ISTITUTO GERMANICO DI STORIA DELL'ARTE  MAX PLANCK INSTITUT,DELL'ISTITUTO GERMANICO DI STORIA DELL'ARTE  MAX PLANCK INSTITUT,DELL'ISTITUTO GERMANICO DI STORIA DELL'ARTE  MAX PLANCK INSTITUT,DELL'ISTITUTO GERMANICO DI STORIA DELL'ARTE  MAX PLANCK INSTITUT,http://www.khi.fi.it/4880253/allgemeines,Firenze,Via G. Giusti,44,43.777240,11.264010,+39 055 24911,+39 055 24911,,"dal lunedi' al venerdi' 9-20, in agosto 9-18. Accesso solo per tesserati e solo per consultazione.",Monday-Friday 9am-8pm,false,+39 055 24911,+39 055 24911,,,,,
DELL'ISTITUTO NAZIONALE DI STUDI SUL RINASCIMENTO,DELL'ISTITUTO NAZIONALE DI STUDI SUL RINASCIMENTO,DELL'ISTITUTO NAZIONALE DI STUDI SUL RINASCIMENTO,DELL'ISTITUTO NAZIONALE DI STUDI SUL RINASCIMENTO,http://www.insr.it/index.php?id=16,Firenze,Piazza Strozzi,,43.771070,11.252300,+39 055 287728,+39 055 287728,info@insr.it,"dal lunedi' al venerdi' 9-14 e 14.30-17.30. Chiusa durante il periodo natalizio, orario ridotto nei mesi di luglio e agosto.",Monday-Friday 9am-2pm/2.30-5.30pm,false,+39 055 280563,+39 055 280563,,,,,
DELL'ISTITUTO STENSEN,DELL'ISTITUTO STENSEN,DELL'ISTITUTO STENSEN,DELL'ISTITUTO STENSEN,http://www.stensen.org/?p=1894,Firenze,VIALE DON GIOVANNI MINZONI,25/g,43.785197,11.265647,+39 055 576551,+39 055 576551,segreteria@stensen.org,dal lunedi' al venerdi' 10-13/ 14-18.,Monday-Friday 10am-1pm/2-6pm,false,+39 055 582029,+39 055 582029,segreteria@stensen.org,,,,
DELL'ISTITUTO STORICO DELLA RESISTENZA,DELL'ISTITUTO STORICO DELLA RESISTENZA,DELL'ISTITUTO STORICO DELLA RESISTENZA,DELL'ISTITUTO STORICO DELLA RESISTENZA,http://www.istoresistenzatoscana.it/biblioteca.html,Firenze,Via Carducci,01/05/37,43.772380,11.266280,+39 055 284296,+39 055 284296,isrt@istoresistenzatoscana.it,"dal lunedi' al venerdi' 9.30-17.30. Prestito escluso. Archivio: lunedi' e martedi' 13-17.30, da mercoledi' a venerdi' 9.30-14. Richiesta prenotazione.Chiusi mese di agosto, periodo natalizio e pasquale.",Monday-Friday 9.30am-5.30pm,false,,,,,,,
DELL'ISTITUTO UNIVERSITARIO EUROPEO,DELL'ISTITUTO UNIVERSITARIO EUROPEO,DELL'ISTITUTO UNIVERSITARIO EUROPEO,DELL'ISTITUTO UNIVERSITARIO EUROPEO,http://www.eui.eu/Research/Library/Index.aspx,Fiesole,Via Badia dei Roccettini,9,43.803550,11.279770,+39 055 4685340,+39 055 4685340,library@eui.eu,"dal lunedi' al sabato 9-19. Aperta agli esterni muniti di lettera di presentazione, dopo aver riempito un modulo apposito ed aver ottenuto la tessera di visitatore.",Monday-Friday 9am-7pm,false,+39 055 4685283,+39 055 4685283,,,,,
DELL'ISTITUTO UNIVERSITARIO OLANDESE DI STORIA DELLARTE,DELL'ISTITUTO UNIVERSITARIO OLANDESE DI STORIA DELLARTE,DELL'ISTITUTO UNIVERSITARIO OLANDESE DI STORIA DELLARTE,DELL'ISTITUTO UNIVERSITARIO OLANDESE DI STORIA DELLARTE,http://niki-florence.org/en/niki-databases-2/bibliotheek/,Firenze,VIALE EVANGELISTA TORRICELLI,5,43.754581,11.249138,+39 055 221612,+39 055 221612,niki@nikiflorence.org,dal lunedi' al venerdi' 9-13 e 13.30-17.30. Accesso presentazione di documento didentit. Prestito escluso.,Monday-Friday 9am-1pm/1.30-5.30pm,false,+39 055 221106,+39 055 221106,Tel 055 221612 Fax 055 221106 iuo@iuo.iris.firenze.it,,,,
DELL'OPIFICIO DELLE PIETRE DURE BIBLIOTECA UGO PROCACCI,DELL'OPIFICIO DELLE PIETRE DURE BIBLIOTECA UGO PROCACCI,DELL'OPIFICIO DELLE PIETRE DURE BIBLIOTECA UGO PROCACCI,DELL'OPIFICIO DELLE PIETRE DURE BIBLIOTECA UGO PROCACCI,http://www.opificiodellepietredure.it/index.php?it/198/biblioteca-ugo-procacci,Firenze,Via degli Alfani,78,43.775930,11.259270,+39 055 2651342,+39 055 2651342,opd.biblioteca@beniculturali.it,"Aperta su appuntamento. Chiusa nel periodo natalizio, in agosto e in concomitanza di convegni e conferenze. Aperta a studiosi, restauratori, studenti universitari e delle scuole di restauro. Agli studenti  richiesta una lettera di presentazione della facolt o della scuola frequentata. Prestito escluso.",by appointment only,false,,,,,,,
Biblioteche dell'Osservatorio Ximeniano di Firenze,Biblioteche dell'Osservatorio Ximeniano di Firenze,Biblioteche dell'Osservatorio Ximeniano di Firenze,Biblioteche dell'Osservatorio Ximeniano di Firenze,http://www.ximeniano-firenze.it/,Firenze,PIAZZA DI SAN LORENZO,6,43.774699,11.254998,+39 055 210420,+39 055 210420,osservatorioximeniano@gmail.com,,,false,,,,,,,
DELLA BASILICA DI SAN  MINIATO AL MONTE,,DELLA BASILICA DI SAN  MINIATO AL MONTE,,www.sanminiatoalmonte.it,Firenze,Via delle Porte Sante,34,43.759810,11.264490,,,,,,false,,,Tel 055 2342731 Fax  055 2345354 sanminiato@tin.it,,,,
Biblioteca di Spiritualita'  Arrigo Levasti,Biblioteca di Spiritualita'  Arrigo Levasti,Biblioteca di Spiritualita'  Arrigo Levasti,Biblioteca di Spiritualita'  Arrigo Levasti,,Firenze,VIA DELLA DOGANA,9 rosso,43.779017,11.260001,+39 055 287628,+39 055 287628,levasti@alice.it,,,false,,,,,,,
Biblioteca Domenicana di Santa Maria Novella  Jacopo Passavanti ,Biblioteca Domenicana di Santa Maria Novella  Jacopo Passavanti ,Biblioteca Domenicana di Santa Maria Novella  Jacopo Passavanti ,Biblioteca Domenicana di Santa Maria Novella  Jacopo Passavanti ,http://www.bibliotecadomenicana.eu/,Firenze,PIAZZA DELLA STAZIONE,4a,43.775349,11.247884,+39 055 287038,+39 055 287038,segreteria@bibliotecadomenicana.eu,mercoledi'-venerdi' 9-13/14-18. Chiusa mese di agosto,,false,,,,,,,
IRPET,IRPET,IRPET,IRPET,http://www.irpet.it/,Firenze,VIA PIETRO DAZZI,1,43.814653,11.244710,+39 055 4591212,+39 055 4591212,stefania.salvucci@irpet.it,"martedi', mercoledi' e giovedi' 9.30-13. Chiusa mese di agosto.","Tuesday, Wednesday, Thursday 9am-1pm.",false,,,,,,,
Biblioteca Marucelliana di Firenze,Biblioteca Marucelliana di Firenze,Biblioteca Marucelliana di Firenze,Biblioteca Marucelliana di Firenze,http://www.maru.firenze.sbn.it/index.htm,Firenze,VIA CAMILLO CAVOUR,43/45,43.777481,11.257892,+39 055 2722200,+39 055 2722200,b-maru@beniculturali.it,"lunedi'-giovedi' 8.30-18, venerdi' 	8.30-14.","Monday-Thursday 8.30am-6pm, Friday 8.30am-2pm.",false,,,,,,,
Biblioteca Medicea Laurenziana,Biblioteca Medicea Laurenziana,Biblioteca Medicea Laurenziana,Biblioteca Medicea Laurenziana,http://www.bml.firenze.sbn.it/index.htm,Firenze,PIAZZA DI SAN LORENZO,9,43.775305,11.253968,+39 055 2937911,+39 055 2937911,b-mela@beniculturali.it,"lunedi', mercoledi', venerdi' 8-14, martedi' e giovedi' 8-17.30. Accesso con lettera di presentazione e documento di identita' .","Monday, Wednesday, Friday 8am-2pm, Tuesday and Thursday 8am-5.30pm.",false,,,,,,,
Biblioteca Moreniana,Biblioteca Moreniana,Biblioteca Moreniana,Biblioteca Moreniana,http://opac.comune.fi.it/openweb/RT10BP/,Firenze,VIA DEI GINORI,10,43.775608,11.255336,+39 055 2760331,+39 055 2760331,marta.gori@cittametropolitana.fi.it,"Lunedi' e giovedi' 8-17.15, martedi', mercoledi' e venerdi' 8-14. Chiusa sabato. Consultazione manoscritti, documenti antichi, rari e di pregio riservata a studenti, laureati, ricercatori con lettera di presentazione.","Monday and Thursday 8am-5.15pm, Tuesday, Wednesday and Friday 8am-2pm.",false,,,,,,,
Biblioteca Nazionale Centrale,Biblioteca Nazionale Centrale,Biblioteca Nazionale Centrale,Biblioteca Nazionale Centrale,http://www.bncf.firenze.sbn.it/,Firenze,PIAZZA DEI CAVALLEGGERI,1,43.766769,11.262286,+39 055 24919256,+39 055 24919256,info@bncf.firenze.sbn.it,"lunedi'-venerdi' 8.15-19, sabato 8.15-13.30. Orario ridotto nel mese di agosto.","Monday-Friday 8.15am-7pm, Saturday 8.15am-1.30pm.",false,,,,,,,
Biblioteca Riccardiana,Biblioteca Riccardiana,Biblioteca Riccardiana,Biblioteca Riccardiana,http://www.riccardiana.firenze.sbn.it/,Firenze,VIA DEI GINORI,10,43.775608,11.255336,+39 055 212586,+39 055 212586,b-ricc@beniculturali.it,"lunedi' e giovedi' 8-17.30, martedi', mercoledi' e venerdi' 8-14. Chiusa due settimane ad agosto. Accesso a ricercatori, studiosi e studenti.","Monday and Thursday 8am-5.30pm, Tuesday, Wednesday and Friday 8am-2pm.",false,,,,,,,
THE HAROLD ACTON LIBRARY OF THE BRITISH INSTITUTE OF FLORENCE,THE HAROLD ACTON LIBRARY OF THE BRITISH INSTITUTE OF FLORENCE,THE HAROLD ACTON LIBRARY OF THE BRITISH INSTITUTE OF FLORENCE,THE HAROLD ACTON LIBRARY OF THE BRITISH INSTITUTE OF FLORENCE,http://www.britishinstitute.it/en/library/harold-acton-library,Firenze,Lungarno Guicciardini,9,43.769060,11.248350,+39 055 26778270,+39 055 26778270,library@britishinstitute.it,dal lunedi' al venerdi' 10-18.30,Monday to Friday 10am-6.30pm,false,+39 055 26778252,+39 055 26778252,,,,,
BiblioteCaNova Isolotto,BiblioteCaNova Isolotto,BiblioteCaNova Isolotto,BiblioteCaNova Isolotto,http://www.biblioteche.comune.fi.it/bibliotecanova_isolotto/,Firenze,VIA CHIUSI,4/3 a,43.780221,11.197066,+39 055 710834,+39 055 710834,bibliotecanovaisolotto@comune.fi.it,"lunedi' 14-19, martedi' e giovedi' 9-23, mercoledi' e venerdi' 9-19, sabato 10-19.
Il lunedi' 9-14 aperte le sole sala lettura e consultazione","Monday 2-7pm, Tuesday and Thursday 9am-11pm, Wedenseday and Friday 9am-7pm, Saturday 10am-7pm.",false,+39 055 7333294,+39 055 7333294,Tel 055 710834 Fax 055 7333294 bibliotecanovaisolotto@comune.fi.it,,,,
Biblioteca Mario Luzi,Biblioteca Mario Luzi,Biblioteca Mario Luzi,Biblioteca Mario Luzi,http://www.biblioteche.comune.fi.it/biblioteca_mario_luzi/,Firenze,VIA UGO SCHIFF,8,43.776066,11.290088,+39 055 669229,+39 055 669229,bibliotecaluzi@comune.fi.it,"lunedi' 14-19, martedi'-venerdi' 9-19, sabato 9-13.","Monday 2-7pm, Tuesday-Friday 9am-7pm, Saturday 9am-1pm.",false,,,,,,,
Biblioteca Fabrizio De Andre',Biblioteca Fabrizio De Andre',Biblioteca Fabrizio De Andre',Biblioteca Fabrizio De Andre',http://www.biblioteche.comune.fi.it/biblioteca_fabrizio_de_andre/,Firenze,VIA DELLE CARRA,2,43.781224,11.237865,+39 055 351689,+39 055 351689,bibliotecadeandre@comune.fi.it,"lunedi' 14-19, martedi' e giovedi' 9-19, mercoledi' e venerdi' 9-13 , sabato chiusa.","Monday 2-7pm, Tuesday and Thursday 9am-7pm, Wednesday and Friday 9am-1pm, closed on Saturday.",false,,,,,,,
DELLE OBLATE,DELLE OBLATE,DELLE OBLATE,DELLE OBLATE,http://www.biblioteche.comune.fi.it/biblioteca_delle_oblate/,Firenze,VIA DELL'ORIUOLO,26,43.772331,11.259668,+39 055 2616512,+39 055 2616512,bibliotecadelleoblate@comune.fi.it,"lunedi' 14-19, dal martedi' al sabato 9-24.","Monday 2-7pm, Tuesday-Saturday 9am-12am",false,+39 055 2616519,+39 055 2616519,L'erogazione dei servizi bibliotecari termina 15 minuti prima della chiusura della struttura,,,,
Del Palagio di Parte Guelfa,Del Palagio di Parte Guelfa,Del Palagio di Parte Guelfa,Del Palagio di Parte Guelfa,http://www.biblioteche.comune.fi.it/biblioteca_palagio_di_parte_guelfa/,Firenze,PIAZZA DI PARTE GUELFA,,43.769784,11.253571,+39 055 2616029,+39 055 2616029,bibliotecapalagio@comune.fi.it,"lunedi'-venerdi' 9-22, sabato 9-13. Aperture ridotte in estate e durante le festivita' .","Monday-Friday 9am-10pm, Saturday 9am-1pm. Opening hours may change, please check website.",false,,,Tel 055 2616029/2616030 Fax 055 2616031 bibpg@comune.fi.it,,,,
DEI RAGAZZI,DEI RAGAZZI,DEI RAGAZZI,DEI RAGAZZI,http://www.biblioteche.comune.fi.it/biblioteca_dei_ragazzi/,Firenze,VIA TRIPOLI,34,43.766843,11.264012,+39 055 2478551,+39 055 2478551,bibliotecaragazzi@comune.fi.it,"lunedi', mercoledi', venerdi' 9-13, martedi' e giovedi' 9-13 / 14.30-17.30, sabato chiusa","Monday, Wednesday, Friday 9am-1pm, Tuesday and Thursday 9am-1pm / 2.30-5.30pm. Saturday closed.",false,,,La Biblioteca e' specializzata per ragazzi dai 2 ai 16 anni.,,,,
Biblioteca Dino Pieraccioni,Biblioteca Dino Pieraccioni,Biblioteca Dino Pieraccioni,Biblioteca Dino Pieraccioni,http://www.biblioteche.comune.fi.it/biblioteca_dino_pieraccioni/,Firenze,VIA AURELIO NICOLODI,2,43.784548,11.285791,+39 055 2625723,+39 055 2625723,bibliotecapieraccioni@comune.fi.it,"lunedi' 14-19, martedi'-venerdi' 9-19, sabato 9-13.","Monday 2-7pm, Tuesday-Friday 9am-7pm",false,,,,,,,
Biblioteca Pietro Thouar,Biblioteca Pietro Thouar,Biblioteca Pietro Thouar,Biblioteca Pietro Thouar,http://www.biblioteche.comune.fi.it/biblioteca_pietro_thouar/,Firenze,PIAZZA TORQUATO TASSO,3,43.767749,11.240421,+39 055 2398740,+39 055 2398740,bibliotecathouar@comune.fi.it,"lunedi' 14-19, martedi'-venerdi' 9-19, sabato 9-13.","Monday 2-7pm, Tuesday-Friday 9am-7pm, Saturday 9am-1pm.",false,,,,,,,
Biblioteca Villa Bandini,Biblioteca Villa Bandini,Biblioteca Villa Bandini,Biblioteca Villa Bandini,http://www.biblioteche.comune.fi.it/biblioteca_villa_bandini/,Firenze,VIA DEL PARADISO,5,43.754958,11.288718,+39 055 6585124,+39 055 6585124,bibliotecavillabandini@comune.fi.it,"lunedi' 14-19, martedi'-venerdi 9-19, sabato 9-13.","Monday 2-7pm, Tuesday-Friday 9am-7pm, Saturday 9am-1pm.",false,+39 055 685388,+39 055 685388,Tel 055 6585124 Fax 055 685388 bandini.q3@comune.fi.it,,,,
Biblioteca del Polo scientifico - Universita'  di Firenze,Biblioteca del Polo scientifico - Universita'  di Firenze,Biblioteca del Polo scientifico - Universita'  di Firenze,Biblioteca del Polo scientifico - Universita'  di Firenze,http://www.sba.unifi.it/CMpro-v-p-347.html,Sesto Fiorentino,VIA GILBERTO BERNARDINI,6,43.818962,11.192291,+39 055 4572921,+39 055 4572921,bibsesto@unifi.it,lunedi'-giovedi' 8.30-18,Monday-Thursday 8.30am-6pm,false,,,,,,,
Biblioteca di Bagno a Ripoli,Biblioteca di Bagno a Ripoli,Biblioteca di Bagno a Ripoli,Biblioteca di Bagno a Ripoli,http://biblioteca.comune.bagno-a-ripoli.fi.it/,Bagno a Ripoli,VIA DI BELMONTE,38,43.731781,11.301058,+39 055 645881,+39 055 645881,biblioteca@comune.bagno-a-ripoli.fi.it,"lunedi', martedi', giovedi' 9-19.30, mercoledi' e venerdi' 14.30-19.30, sabato 9-13. Orario estivo: lunedi'-sabato 8.30-13.30.","Monday, Tuesday, Thursday 9am-7.30pm, Wednesday and Friday 2.30-7.30pm, Saturday 9am-1pm. Summer: Monday-Saturday 8.30am-1.30pm.",false,,,,,,,
Biblioteca comunale Padre Ernesto Balducci,Biblioteca comunale Padre Ernesto Balducci,Biblioteca comunale Padre Ernesto Balducci,Biblioteca comunale Padre Ernesto Balducci,,Barberino di Mugello,Piazza Cavour,36,43.999080,11.238620,+39 055 8477288,+39 055 8477288,biblioteca@comune.barberino-di-mugello.fi.it,,,false,,,,,,,
Biblioteca comunale,Biblioteca comunale,Biblioteca comunale,Biblioteca comunale,,Borgo San Lorenzo,PIAZZA GARIBALDI,10,43.953912,11.387120,+39 055 8457197,+39 055 8457197,biblioteca@comune.borgo-san-lorenzo.fi.it,invernale: lunedi'-sabato 9-19.,winter: Monday-Saturday 9am-7pm.,false,,,,,,,
Civica - Biblioteca Comunale,Civica - Biblioteca Comunale,Civica - Biblioteca Comunale,Civica - Biblioteca Comunale,http://web.comune.calenzano.fi.it/portale/schede/servizi-alla-persona/biblioteca/biblioteca-comunale/scheda_view?portal_status_message=Changes%20saved.,Calenzano,VIA DELLA CONOSCENZA,11,43.861458,11.163435,+39 055 8833421,+39 055 8833421,biblioteca@comune.calenzano.fi.it,"lunedi' 15-19, martedi'-venerdi' 9-19, sabato 9-13.","Monday 3-7pm, Tuesday-Friday 9am-7pm, Saturday 9am-1pm.",false,,,,,,,
Biblioteca Tiziano Terzani,Biblioteca Tiziano Terzani,Biblioteca Tiziano Terzani,Biblioteca Tiziano Terzani,http://www.comune.campi-bisenzio.fi.it/flex/cm/pages/ServeBLOB.php/L/IT/IDPagina/242,Campi Bisenzio,VIA DI LIMITE,,43.830563,11.148711,+39 055 8959600,+39 055 8959600,biblio@comune.campi-bisenzio.fi.it,"lunedi'-venerdi' 9-19, sabato 9-13.","Monday-Friday 9am-7pm, Saturday 9am-1pm.",false,,,,,,,
Biblioteca comunale Vallesiana,Biblioteca comunale Vallesiana,Biblioteca comunale Vallesiana,Biblioteca comunale Vallesiana,www.comune.castelfiorentino.fi.it/castelfiorentino/comune.jsp?IdDoc=95,Castelfiorentino,VIA TILLI,41,43.606986,10.970569,+39 0571 686400,+39 0571 686400,biblioteca@comune.castelfiorentino.fi.it,"lunedi', mercoledi', venerdi' 14.30-19, martedi' e giovedi' 9.30-13/14.30-19. L'orario subisce variazioni durante il periodo estivo.","Monday, Wednesday,Friday 2.30-7pm, Tuesday and Thursday 9.30am-1pm/2.30-7pm. In summer opening times may change, please call in advance.",false,,,,,,,
Biblioteca della societa'  storica della Valdelsa,Biblioteca della societa'  storica della Valdelsa,Biblioteca della societa'  storica della Valdelsa,Biblioteca della societa'  storica della Valdelsa,http://www.storicavaldelsa.it/,Castelfiorentino,PIAZZA DEL POPOLO,9,43.605593,10.971295,+39 0571 686308,+39 0571 686308,info@storicavaldelsa.it,,,false,,,,,,,
Biblioteca comunale Emma Perodi,Biblioteca comunale Emma Perodi,Biblioteca comunale Emma Perodi,Biblioteca comunale Emma Perodi,http://reanet.empolese-valdelsa.it/it/biblioteche/cerreto-guidi/in-evidenza,Cerreto Guidi,Via Vittorio Veneto,5,43.759450,10.877850,+39 0571 906219,+39 0571 906219,biblioteca@comune.cerreto-guidi.fi.it,"lunedi'-venerdi' 15-19, martedi' e giovedi' anche 9-13, sabato 9-13","Monday-Friday 3-7pm, Tuesday and Thursday also 9am-1pm, Saturday 9am-1pm.",false,,,,,,,
Biblioteca Comunale Bruno Ciari,Biblioteca Comunale Bruno Ciari,Biblioteca Comunale Bruno Ciari,Biblioteca Comunale Bruno Ciari,http://reanet.empolese-valdelsa.it/biblioteche/certaldo/in-evidenza,Certaldo,VIA GOFFREDO MAMELI,9,43.548431,11.040049,+39 0571 661252,+39 0571 661252,biblioteca@comune.certaldo.fi.it,"lunedi' e giovedi' 9-13/14-19, martedi', mercoledi', venerdi' 9-13/14.30-19, sabato 9-13. L'orario pua'² subire variazioni in estate.","Monday amd Thursday 9am-1pm/2-7pm, Tuesday, Wednesday, Friday 9am-1pm/2.30-7pm, Saturday 9am-1pm. Opening times may change in summer, please call in advance.",false,,,,,,,
Biblioteca della Casa del Boccaccio,Biblioteca della Casa del Boccaccio,Biblioteca della Casa del Boccaccio,Biblioteca della Casa del Boccaccio,http://www.casaboccaccio.it/biblioteca.html,Certaldo,VIA BOCCACCIO,18,43.549121,11.044782,+39 0571 664208,+39 0571 664208,info@casaboccaccio.it,"lunedi', mercoledi', giovedi', venerdi' 9.30-13.30.","Monday, Wednesday, Thursday, Friday 9.30am-1.30pm.",false,,,,,,,
Biblioteca comunale,Biblioteca comunale,Biblioteca comunale,Biblioteca comunale,,Dicomano,PIAZZA DELLA REPUBBLICA,10,43.891330,11.523178,+39 055 8385936,+39 055 8385936,biblioteca@comune.dicomano.fi.it,,,false,,,,,,,
Biblioteca comunale Renato Fucini,Biblioteca comunale Renato Fucini,Biblioteca comunale Renato Fucini,Biblioteca comunale Renato Fucini,http://www.biblioteca.comune.empoli.fi.it/,Empoli,VIA DEI NERI,15,43.718824,10.946748,+39 0571 757840,+39 0571 757840,biblioteca@comune.empoli.fi.it,"lunedi'-venerdi' 9-21, sabato 9-13.","Monday-Friday 9am-9pm, Saturday 9am-1pm.",false,,,,,,,
Biblioteca Comunale,Biblioteca Comunale,Biblioteca Comunale,Biblioteca Comunale,http://www.comune.fiesole.fi.it/opencms/opencms/cultura/biblioteche/Biblioteca_Comunale/,Fiesole,VIA GIOVAN BATTISTA SERMEI,1,43.807647,11.296377,+39 055 599659,+39 055 599659,biblioteca@comune.fiesole.fi.it,"lunedi' e giovedi' 15-19, martedi', mercoledi', venerdi' 11-19, sabato 9-13.","Monday and Thursday 3-7pm, Tuesday, Wednesday, Friday 11am-7pm, Saturday 9am-1pm.",false,,,,,,,
Biblioteca della Scuola di Musica di Fiesole,,Biblioteca della Scuola di Musica di Fiesole,,http://www.scuolamusicafiesole.it/it/info/biblioteca,Fiesole,Via delle Fontanelle,24,43.799370,11.292310,+39 055 5978521 (orario pomeridiano),+39 055 5978521,biblio@scuolamusica.fieolse.fi.it,"Orario invernale di apertura:
Dal 1 ottobre:
lunedi' 14:30 - 18:30
martedi' 14:30 - 18:30
mercoledi' 9:00 - 13:00
giovedi' 14:30 - 18:30
Orario estivo di apertura:
Luglio e Settembre: Lunedi' e martedi' 14:30-18:30 / Mercoledi' e giovedi' 9:30-13:30
Agosto chiuso",,false,,,La biblioteca e' aperta a tutti: coloro che non frequentano la Scuola di Musica dovranno fare una iscrizione gratuita alla rete documentaria SDIAF.,,,Bus ATAF 7 da Piazza San Marco,Bus ATAF 7 from Piazza San Marco
Seminario Vescovile di Fiesole - Fondo Bandini,Seminario Vescovile di Fiesole - Fondo Bandini,Seminario Vescovile di Fiesole - Fondo Bandini,Seminario Vescovile di Fiesole - Fondo Bandini,http://www.palinsesto.it/bandini/index.html,Fiesole,PIAZZA MINO DA FIESOLE,1,43.807054,11.292089,+39 055 59226,+39 055 59226,seminario@jomix.org,,,false,,,,,,,
Biblioteca della Fondazione Michelucci,,Biblioteca della Fondazione Michelucci,,http://www.michelucci.it/,Fiesole,VIA BEATO ANGELICO,15,43.804096,11.294555,+ 39 055 597149,+ 39 055 597149,fondazione.michelucci@michelucci.it,Lunedi'-venerdi' 9-13,Monday-Friday 9am-1pm,false,+ 39 055 5979515,+ 39 055 5979515,,,,Bus ATAF 7 da Piazza San Marco,Bus ATAF 7 from Piazza San Marco
Centro di documentazione e ricerche sulle avanguardie storiche  Fondazione Primo Conti,Centro di documentazione e ricerche sulle avanguardie storiche  Fondazione Primo Conti,Centro di documentazione e ricerche sulle avanguardie storiche  Fondazione Primo Conti,Centro di documentazione e ricerche sulle avanguardie storiche  Fondazione Primo Conti,http://www.fondazioneprimoconti.org/l-archivio.html,Fiesole,VIA GIOVANNI DUPRE',18,43.807492,11.293062,+39 055 597095,+39 055 597095,archivio@fondazioneprimoconti.org,,,false,+39 055 5978145,+39 055 5978145,,,,,
Biblioteca comunale Marsilio Ficino,Biblioteca comunale Marsilio Ficino,Biblioteca comunale Marsilio Ficino,Biblioteca comunale Marsilio Ficino,http://opac.comune.firenze.it/easyweb/w2001/index.php?scelta=scheda_bib&opac=w2001&&biblio=RT10AQ,Figline e Incisa Valdarno,VIA VITTORIO LOCCHI,15,43.619938,11.470079,+39 055 9125291,+39 055 9125291,biblioteca.ficino@comunefiv.it,"lunedi'-venerdi' 9-13/15-19, sabato 9-13.","Monday-Friday 9am-1pm/3-7pm, Saturday 9am-1pm.",false,,,,,,,
Biblioteca comunale Marsilio Ficino,Biblioteca comunale Marsilio Ficino,Biblioteca comunale Marsilio Ficino,Biblioteca comunale Marsilio Ficino,http://opac.comune.firenze.it/easyweb/w2001/index.php?scelta=scheda_bib&opac=w2001&&biblio=RT10AQ,Figline e Incisa Valdarno,VIA VITTORIO LOCCHI,15,43.619938,11.470079,+39 055 9125291,+39 055 9125291,biblioteca.ficino@comunefiv.it,"lunedi'-venerdi' 9-13/15-19, sabato 9-13.","Monday-Friday 9am-1pm/3-7pm, Saturday 9am-1pm.",false,,,,,,,
Biblioteca Comunale,Biblioteca Comunale,Biblioteca Comunale,Biblioteca Comunale,,Firenzuola,VIA SANTISSIMA ANNUNZIATA,2,44.118759,11.379664,+39 055 8199434,+39 055 8199434,biblioteca@comune.firenzuola.fi.it,,,false,,,,,,,
Biblioteca comunale,Biblioteca comunale,Biblioteca comunale,Biblioteca comunale,http://www.comune.fucecchio.fi.it/site/biblioteca.asp,Fucecchio,PIAZZA VITTORIO VENETO,26/a,43.729206,10.808406,+39 0571 268229,+39 0571 268229,biblioteca@comune.fucecchio.fi.it,"lunedi' 15-19, martedi'-venerdi' 9-13/15-19, sabato 9-13.","Monday 3-7pm, Tuesday-Friday 9am-1pm/3-7pm, Saturday 9am-1pm.",false,,,,,,,
Biblioteca della Fondazione Montanelli Bassi,Biblioteca della Fondazione Montanelli Bassi,Biblioteca della Fondazione Montanelli Bassi,Biblioteca della Fondazione Montanelli Bassi,http://www.fondazionemontanelli.it/sito,Fucecchio,VIA GUGLIELMO DI SAN GIORGIO,02/04/16,43.730085,10.807491,+39 0571 22627,+39 0571 22627,info@fondazionemontanelli.it,"martedi', giovedi', sabato e domenica 15-19. Orario soggetto a variazioni.","Tuesday, Thursday, Saturday and Sunday 3-7pm. Opening hours may change, please call in advance.",false,,,,,,,
Biblioteca comunale,Biblioteca comunale,Biblioteca comunale,Biblioteca comunale,http://reanet.empolese-valdelsa.it/biblioteche/gambassi-terme/in-evidenza,Gambassi Terme,VIA GARIBALDI,7,43.538966,10.953532,+39 0571 639006,+39 0571 639006,biblioteca@comune.gambassi-terme.fi.it,"martedi'-venerdi' 15-19, sabato 9-13.","Tuesday-Friday 3-7pm, Saturday 9am-1pm.",false,,,,,,,
Biblioteca Comunale,Biblioteca Comunale,Biblioteca Comunale,Biblioteca Comunale,http://www.comune.greve-in-chianti.fi.it/ps/s/biblioteca,Greve in Chianti,PIAZZA TERRA MADRE,,43.584314,11.316362,+39 055 8546433,+39 055 8546433,biblioteca@comune.greve-in-chianti.fi.it,"lunedi'-venerdi' 9-19, sabato 9-13. Agosto: lunedi'-venerdi' 9-13.","Monday-Friday 9am-7pm, Saturday 9am-1pm. In August Monday-Friday 9am-1pm.",false,,,,,,,
Biblioteca comunale,Biblioteca comunale,Biblioteca comunale,Biblioteca comunale,http://159.213.91.28/Engine/RAServePG.php/P/262910010200/M/262810010200,Impruneta,PIAZZA BUONDELMONTI,19,43.685403,11.254037,+39 055 2036404,+39 055 2036404,biblioteca@comune.impruneta.fi.it,"lunedi' 9-13, martedi' 14-19, mercoledi'-venerdi' 9-13/14-19, sabato 9-13.","Monday 9am-1pm, Tuesday 2-7pm, Wednesday-Friday 9am-1pm/2-7pm, Saturday 9am-1pm.",false,,,Tel: 055 2036404 Fax: 055 2312517 E-mail: biblioteca@comune.impruneta.fi.it,,,,
Biblioteca comunale,Biblioteca comunale,Biblioteca comunale,Biblioteca comunale,http://www.comune.lastra-a-signa.fi.it/schede/attivit_culturali/biblioteca-comunale-bibliomedia/?searchterm=biblioteca,Lastra a Signa,VIA PALMIRO TOGLIATTI,37,43.769188,11.115509,+39 055 3270124,+39 055 3270124,biblioteca@comune.lastra-a-signa.fi.it,"lunedi' 9-13, martedi'-venerdi' 9-13/15-19, sabato 9-13.","Monday 9am-1pm, Tuesday-Friday 9am-1pm/3-7pm, Saturday 9am-1pm.",false,,,,,,,
Biblioteca comunale,Biblioteca comunale,Biblioteca comunale,Biblioteca comunale,http://www.comune.londa.fi.it/eventi-notizie/biblioteca-comunale-di-londa,Londa,VIA ROMA,63,43.862417,11.564728,+39 055 8351801,+39 055 8351801,biblioteca@comune.londa.fi.it,"lunedi' 15-18, martedi' 9.30-12.30/14-18, mercoledi' 9.30-12.30/15-18, giovedi' e venerdi' 9.30-12.30/14-18, sabato 9.30-12.30.","Monday 3-6pm, Tuesday 9.30am-12.30pm/2-6pm, Wednesday 9.30am-12.30pm/3-6pm, Thursday and Friday 9.30am-12.30/2-6pm, Saturday 9.30am-12.30pm.",false,,,,,,,
Biblioteca comunale,Biblioteca comunale,Biblioteca comunale,Biblioteca comunale,http://serviziculturali.cm-mugello.fi.it/index.php?it/111/sistema-bibliotecario&pag=6,Marradi,VIA CASTELNAUDARY,5,44.076596,11.613300,+39 055 8042590,+39 055 8042590,postmaster@marradibiblioteca.191.it,"lunedi' e venerdi' 10-12.30/15-19, mercoledi' 15-19, sabato 16-18. L'orario pua'² subire variazioni durante il periodo estivo.","Monday and Friday 10am-12.30pm/3-7pm, Wednesday 3-7pm, Saturday 4-6pm. Opening times may change in summer, please call in advance.",false,,,,,,,
Biblioteca Comunale,Biblioteca Comunale,Biblioteca Comunale,Biblioteca Comunale,www.comune.montaione.fi.it,Montaione,VIA GUGLIELMO MARCONI,,43.552687,10.911464,+39 0571 699264,+39 0571 699264,biblioteca@comune.montaione.fi.it,"martedi' 9-13/15-19, mercoledi' e giovedi' 15-19, venerdi' e sabato 9-13. Chiuso il mercoledi' in estate.","Tuesday 9am-1pm/3-7pm, Wednesday and Thursday 3-7pm, Friday and Saturday 9am-1pm. In summer closed on Wednesday.",false,,,,,,,
MMAB - Museo Archivi Biblioteche,MMAB - Museo Archivi Biblioteche,MMAB - Museo Archivi Biblioteche,MMAB - Museo Archivi Biblioteche,http://www.comune.montelupo-fiorentino.fi.it/index.php/biblioteca,Montelupo Fiorentino,PIAZZA VITTORIO VENETO,11,43.735041,11.023231,+39 0571 917552,+39 0571 917552,biblioteca@comune.montelupo-fiorentino.fi.it,"martedi'-sabato 10-19, mercoledi' e giovedi' 21-23.30. Chiuso lunedi'.",Tuesday-Saturday 10am-7pm. Closed on Monday.,false,+39 0571 541872,+39 0571 541872,,,,,
Biblioteca comunale Ernesto Balducci,Biblioteca comunale Ernesto Balducci,Biblioteca comunale Ernesto Balducci,Biblioteca comunale Ernesto Balducci,http://www.comune.montespertoli.fi.it/index.php/biblioteca-e-balducci/3312-biblioteca-e-balducci,Montespertoli,VIA SIDNEY SONNINO,1,43.644167,11.077120,+39 0571 600228,+39 0571 600228,Biblioteca@comune.montespertoli.fi.it,"lunedi' 14.30-19, martedi' e giovedi' 9-13/14.30-19, mercoledi' 16-19, venerdi' 9-13/16-19, sabato 10-12. L'orario pua'² subire variazioni nel periodo estivo.","Monday 2.30-7pm, Tuesday and Thursday 9am-1pm/2.30-7pm, Wednesday 4-7pm, Friday 9am-1pm/4-7pm, Saturday 10am-12pm. Opening timesa may change in summer, please call in advance.",false,,,,,,,
Biblioteca comunale,Biblioteca comunale,Biblioteca comunale,Biblioteca comunale,http://www.comune.pontassieve.fi.it/biblioteca,Pontassieve,VIA TANZINI,23,43.775752,11.440350,+39 055 8360255,+39 055 8360255,biblioteca@comune.pontassieve.fi.it,"lunedi' 15-19, martedi', giovedi', venerdi' 9-19, mercoledi' 9-23, sabato 10-13.30/14.30-18. Gli orari possono subire variazioni nel periodo estivo.","Monday 3-7pm, Tuesday, Thursday, Friday 9am-7pm, Wednesday 9am-11pm, Saturday 10am-1.30pm/2.30-6pm. Opening times may change in summer, please call in advance.",false,,,,,,,
Abbazia di Vallombrosa,Abbazia di Vallombrosa,Abbazia di Vallombrosa,Abbazia di Vallombrosa,http://www.monaci.org/la-biblioteca-dellabbazia/,Reggello,VIA SAN BENEDETTO,2,43.732842,11.556660,+39 055 862251,+39 055 862251,vallombrosa@monaci.org,lunedi'-sabato 9-13,Monday-Saturday 9am-1pm,false,,,,,,,
Biblioteca Comunale,Biblioteca Comunale,Biblioteca Comunale,Biblioteca Comunale,http://www.comune.reggello.fi.it/servizi/scheda-servizio/biblioteca-comunale,Reggello,VIA ENRICO BERLINGUER,2,43.675483,11.528137,+39 055 8665013,+39 055 8665013,biblioteca@comune.reggello.fi.it,"lunedi'-sabato 9-19, chiuso venerdi' mattina, martedi' apertura prolungata fino alle 22.30.","Monday-Saturday 9am-7pm, closed Friday morning, on Tuesday open until 10.30pm.",false,,,,,,,
Biblioteca comunale,Biblioteca comunale,Biblioteca comunale,Biblioteca comunale,http://www.comune.rufina.fi.it/biblioteca-comunale,Rufina,PIAZZA TRIESTE,13,43.826907,11.489487,+39 055 8395368,+39 055 8395368,biblioteca@comune.rufina.fi.it,,,false,,,,,,,
Biblioteca comunale,,Biblioteca comunale,,http://www.comune.san-godenzo.fi.it/biblioteca-comunale,San Godenzo,PIAZZA MUNICIPIO,1,43.926052,11.619519,+39 055 837381,+39 055 837381,biblioteca@comune.san-godenzo.fi.it,,,false,,,,,,,
Biblioteca comunale,Biblioteca comunale,Biblioteca comunale,Biblioteca comunale,,San Piero a Sieve,VIA DEI MEDICI,10,43.962120,11.323229,+39 055 8486791,+39 055 8486791,biblioteca.sanpiero@comune.scarperiaesanpiero.it,,,false,,,,,,,
La Biblioteca di Scandicci,La Biblioteca di Scandicci,La Biblioteca di Scandicci,La Biblioteca di Scandicci,http://www.scandiccicultura.eu/biblioteca-e-archivio-storico.html,Scandicci,VIA ROMA,38/A,43.751713,11.187112,+39 055 7591860,+39 055 7591860,biblioteca@scandiccicultura.it,"lunedi' 14.30-19.30, martedi'-venerdi' 9.30-19.30, sabato 9.30-18.30.","Monday 2.30-7.30, Tuesday-Friday 9.30am-7.30pm, Saturday 9.30am-6.30pm.",false,,,,,,,
Biblioteca comunale,Biblioteca comunale,Biblioteca comunale,Biblioteca comunale,,Scarperia,VIA ROMA,73,43.996698,11.355244,+39 055 8431630,+39 055 8431630,biblioteca@comune.scarperia.fi.it,,,false,,,,,,,
Biblioteca Ernesto Ragionieri,Biblioteca Ernesto Ragionieri,Biblioteca Ernesto Ragionieri,Biblioteca Ernesto Ragionieri,http://www.comune.sesto-fiorentino.fi.it/biblioteca/home,Sesto Fiorentino,PIAZZA DELLA BIBLIOTECA,4,43.837984,11.214225,+39 055 4496851,+39 055 4496851,info@bibliotecasestofiorentino.it,"lunedi' 14.30-19.30
martedi e giovedi' 9-23
mercoledi' e venerdi 9-19.30
sabato 9-13
domenica 10-13","Monday 2.30-7.30pm
Tuesaday & Thursday  9am-11pm
Wednesday & Friday 9am-7.30pm
Saturday 9am-1pm
Sunday 10am-1pm",false,,,,,,,
Biblioteca comunale,Biblioteca comunale,Biblioteca comunale,Biblioteca comunale,http://www.comune.signa.fi.it/categorie/cultura/la-cultura/biblioteca-comunale-boncompagno-da-signa,Signa,VIA DEGLI ALBERTI,13,43.781212,11.094100,+39 055 875700,+39 055 875700,biblioteca@comune.signa.fi.it,"martedi', mercoledi', venerdi 9-13/15-19, giovedi' 15-19, sabato 9-13. L'orario varia durante il periodo estivo.","Tuesday, Wednesday, Friday 9am-1pm/3-7pm, Thursday 3-7pm, Saturday 9am-1pm. Opening times may change in summertime, please call in advance.",false,,,,,,,
Biblioteca comunale Ernesto Balducci,Biblioteca comunale Ernesto Balducci,Biblioteca comunale Ernesto Balducci,Biblioteca comunale Ernesto Balducci,http://unionechiantifiorentino.it/index.php?option=com_k2&view=item&id=75,Tavarnelle Val di Pesa,PIAZZA DELLA REPUBBLICA,30,43.561011,11.171625,+39 055 8077100,+39 055 8077100,biblioteca@comune.tavarnelle-val-di-pesa.fi.it,"lunedi' 15.30-19.30, martedi'-venerdi' 9-13/15.30-19.30, sabato 9-13. L'orario pua'² subire variazioni nel periodo estivo.","Monday 3.30-7.30pm, Tuesday-Friday 9am-1pm/3.30-7.30pm, Saturday 9am-1pm. Opening times may change in summer, please call in advance.",false,,,,,,,
Biblioteca comunale,Biblioteca comunale,Biblioteca comunale,Biblioteca comunale,http://www.comune.vaglia.fi.it/opencms/opencms/MenuPrincipale/Territorio_e_turismo/Informazioni_Utili/,Vaglia,PIAZZA DEMIDOFF,54,43.862333,11.301349,+39 055 409537,+39 055 409537,biblio@comune.vaglia.fi.it,"lunedi', martedi', mercoledi', venerdi' 15-19, giovedi' 9-13/15-19, sabato 9-13.","Monday, Tuesday, Wednesday, Friday 3-7pm, Thursday 9am-1pm/3-7pm, Saturday 9am-1pm.",false,,,,,,,
Biblioteca comunale Giotto,Biblioteca comunale Giotto,Biblioteca comunale Giotto,Biblioteca comunale Giotto,http://www.comune.vicchio.fi.it/opencms/opencms/MenuPrincipale/Territorio_e_turismo/Arte_e_cultura/Pagina_3266.html?pagename=2083,Vicchio,PIAZZA DON MILANI,6,43.934530,11.462741,+39 055 8448251,+39 055 8448251,biblioteca@comune.vicchio.fi.it,"lunedi', mercoledi', venerdi' 14.30-18.30, martedi', giovedi', sabato 9.30-13/14.30-18.30. Orario estivo: lunedi'-sabato 9.30-12.30, giovedi' anche 15-19.","Monday, Wednesday, Friday 2.30-6.30pm, Tuesday, Thursday, Saturday 9.30am-1pm/2.30-6.30pm. Summer: Monday-Saturday 9.30am-12.30pm, on Thursday also 3-7pm.",false,,,,,,,
Biblioteca Leonardiana,Biblioteca Leonardiana,Biblioteca leonardiana,Biblioteca Leonardiana,http://www.bibliotecaleonardiana.it/bbl/home.shtml,Vinci,VIA GIORGIO LA PIRA,1,43.787546,10.926830,+39 0571 933250,+39 0571 933250,bibliotecaleonardiana@comune.vinci.fi.it,"lunedi'-venerdi' 15-19, al mattino su appuntamento
Dal 15 giugno al 15 settembre:
lunedi'-mercoledi'-giovedi' 15-19 (al mattino su appuntamento)
martedi'-venerdi' 9-13.","Monday-Friday 3-7pm. 
Mid June to mid September Monday, Wednesday, Thursday 3-7pm, Tuesday and Friday 9am-1pm.",false,,,,,,,
Biblioteca civica,Biblioteca civica,Biblioteca civica,Biblioteca civica,http://www.bibliotecaleonardiana.it/bbl/bb-civica/bb-civica-home.shtml,Vinci,VIA RENATO FUCINI,01/11/13,43.786026,10.926661,+39 0571 933263,+39 0571 933263,biblioteca@comune.vinci.fi.it,"lunedi'-venerdi' 15-19, sabato 9-13. Dal 15 giugno al 15 settembre:
lunedi', mercoledi', giovedi' 15-19,
martedi'-venerdi' 9-13, sabato chiuso.","Monday-Friday 3-7pm, Saturday 9am-1pm. Mid June until mid September: Monday, Wednesday, Thursday 3-7pm, Tuesday and Friday 9am-1pm.",false,,,,,,,
Biblioteca comunale,Biblioteca comunale,Biblioteca comunale,Biblioteca comunale,http://www.unionechianti.it/biblioteca/home.asp,San Casciano in Val di Pesa,Via Lucardesi,10,43.657060,11.184150,+39 055 8256380,+39 055 8256380,biblioteca@comune.san-casciano-val-di-pesa.fi.it,"lunedi', martedi' e giovedi' 9-19, mercoledi' e venerdi' 14-19, sabato 9-13.","Monday, Tuesday, Thursday 9am-7pm, Wednesday and Friday 2-7pm, Satarday 9am-1pm.",false,,,,,,,
Biblioteca Nazionale Centrale,Biblioteca Nazionale Centrale,Biblioteca Nazionale Centrale,Biblioteca Nazionale Centrale,http://www.bncf.firenze.sbn.it/,Firenze,PIAZZA DEI CAVALLEGGERI,1,43.766858,11.262300,+39 055 249191,+39 055 249191,,dal lunedi' al venerdi' 8.15-19; sabato 8.15-13.30,Monday to Friday 8.15am-7pm; Saturday 8.15am-1.30pm,false,+39 055 24919402,+39 055 24919402,,,,,
ARCHIVIO STORICO DEL COMUNE DI FIRENZE,ARCHIVIO STORICO DEL COMUNE DI FIRENZE,ARCHIVIO STORICO DEL COMUNE DI FIRENZE,ARCHIVIO STORICO DEL COMUNE DI FIRENZE,http://wwwext.comune.fi.it/archiviostorico/index.html?pa=intro.html,Firenze,VIA DELL'ORIUOLO,33,43.772545,11.258131,+39 055 2616527,+39 055 2616527,archstor@comune.fi.it,"lunedi' e venerdi' dalle 9 alle 15.30
martedi', mercoledi' e giovedi' dalle 9 alle 18","Mon & Fri 9-15.30; Tue, Wed, Thur 9-18",false,,,,,,,
